{
"type": "FeatureCollection",
"name": "demand_points_cardiff_exact_v2",
"crs": { "type": "name", "properties": { "name": "urn:ogc:def:crs:EPSG::27700" } },
"features": [
{ "type": "Feature", "properties": { "LSOA21CD": "W01001090", "LSOA21NM": "Vale of Glamorgan 006E", "centroid_method": "heuristic (representative_point + centroid blend)" }, "geometry": { "type": "Point", "coordinates": [ 315028.520790348877199, 173733.163837284751935 ] } },
{ "type": "Feature", "properties": { "LSOA21CD": "W01001104", "LSOA21NM": "Vale of Glamorgan 004E", "centroid_method": "heuristic (representative_point + centroid blend)" }, "geometry": { "type": "Point", "coordinates": [ 316743.276503420842346, 173194.393289077852387 ] } },
{ "type": "Feature", "properties": { "LSOA21CD": "W01001113", "LSOA21NM": "Vale of Glamorgan 003A", "centroid_method": "heuristic (representative_point + centroid blend)" }, "geometry": { "type": "Point", "coordinates": [ 305923.644882568332832, 176818.605212133465102 ] } },
{ "type": "Feature", "properties": { "LSOA21CD": "W01001123", "LSOA21NM": "Vale of Glamorgan 005B", "centroid_method": "heuristic (representative_point + centroid blend)" }, "geometry": { "type": "Point", "coordinates": [ 318852.569827905972488, 171944.832201235112734 ] } },
{ "type": "Feature", "properties": { "LSOA21CD": "W01001135", "LSOA21NM": "Vale of Glamorgan 003C", "centroid_method": "heuristic (representative_point + centroid blend)" }, "geometry": { "type": "Point", "coordinates": [ 310044.845728020300157, 172504.228571861574892 ] } },
{ "type": "Feature", "properties": { "LSOA21CD": "W01001136", "LSOA21NM": "Vale of Glamorgan 003D", "centroid_method": "heuristic (representative_point + centroid blend)" }, "geometry": { "type": "Point", "coordinates": [ 312322.643248777894769, 173634.290328477218281 ] } },
{ "type": "Feature", "properties": { "LSOA21CD": "W01001197", "LSOA21NM": "Rhondda Cynon Taf 027C", "centroid_method": "heuristic (representative_point + centroid blend)" }, "geometry": { "type": "Point", "coordinates": [ 308992.04714961827267, 184391.745306076772977 ] } },
{ "type": "Feature", "properties": { "LSOA21CD": "W01001225", "LSOA21NM": "Rhondda Cynon Taf 031E", "centroid_method": "heuristic (representative_point + centroid blend)" }, "geometry": { "type": "Point", "coordinates": [ 306212.470522109535523, 181100.34794768129359 ] } },
{ "type": "Feature", "properties": { "LSOA21CD": "W01001240", "LSOA21NM": "Rhondda Cynon Taf 026C", "centroid_method": "heuristic (representative_point + centroid blend)" }, "geometry": { "type": "Point", "coordinates": [ 312913.953595963306725, 185173.344096245768014 ] } },
{ "type": "Feature", "properties": { "LSOA21CD": "W01001241", "LSOA21NM": "Rhondda Cynon Taf 026D", "centroid_method": "heuristic (representative_point + centroid blend)" }, "geometry": { "type": "Point", "coordinates": [ 312966.761687011341564, 183595.898469766369089 ] } },
{ "type": "Feature", "properties": { "LSOA21CD": "W01001244", "LSOA21NM": "Rhondda Cynon Taf 025B", "centroid_method": "heuristic (representative_point + centroid blend)" }, "geometry": { "type": "Point", "coordinates": [ 310725.208369737141766, 185580.91675595875131 ] } },
{ "type": "Feature", "properties": { "LSOA21CD": "W01001419", "LSOA21NM": "Caerphilly 021D", "centroid_method": "heuristic (representative_point + centroid blend)" }, "geometry": { "type": "Point", "coordinates": [ 320586.24787604121957, 186289.213050118938554 ] } },
{ "type": "Feature", "properties": { "LSOA21CD": "W01001426", "LSOA21NM": "Caerphilly 024E", "centroid_method": "heuristic (representative_point + centroid blend)" }, "geometry": { "type": "Point", "coordinates": [ 314989.850435629719868, 185363.284643479128135 ] } },
{ "type": "Feature", "properties": { "LSOA21CD": "W01001657", "LSOA21NM": "Newport 020C", "centroid_method": "heuristic (representative_point + centroid blend)" }, "geometry": { "type": "Point", "coordinates": [ 324533.946022088872269, 183899.887700486578979 ] } },
{ "type": "Feature", "properties": { "LSOA21CD": "W01001658", "LSOA21NM": "Newport 020D", "centroid_method": "heuristic (representative_point + centroid blend)" }, "geometry": { "type": "Point", "coordinates": [ 326341.496374893700704, 182179.46627312671626 ] } },
{ "type": "Feature", "properties": { "LSOA21CD": "W01001694", "LSOA21NM": "Cardiff 036A", "centroid_method": "heuristic (representative_point + centroid blend)" }, "geometry": { "type": "Point", "coordinates": [ 319723.8923350116238, 176932.984067352866987 ] } },
{ "type": "Feature", "properties": { "LSOA21CD": "W01001695", "LSOA21NM": "Cardiff 036B", "centroid_method": "heuristic (representative_point + centroid blend)" }, "geometry": { "type": "Point", "coordinates": [ 319071.747531615430489, 176472.398508885060437 ] } },
{ "type": "Feature", "properties": { "LSOA21CD": "W01001696", "LSOA21NM": "Cardiff 036C", "centroid_method": "heuristic (representative_point + centroid blend)" }, "geometry": { "type": "Point", "coordinates": [ 319507.019124545622617, 176561.906872015591944 ] } },
{ "type": "Feature", "properties": { "LSOA21CD": "W01001697", "LSOA21NM": "Cardiff 036D", "centroid_method": "heuristic (representative_point + centroid blend)" }, "geometry": { "type": "Point", "coordinates": [ 320290.577254589647055, 177369.32356763529242 ] } },
{ "type": "Feature", "properties": { "LSOA21CD": "W01001698", "LSOA21NM": "Cardiff 036E", "centroid_method": "heuristic (representative_point + centroid blend)" }, "geometry": { "type": "Point", "coordinates": [ 319980.664558113086969, 177363.984253311238717 ] } },
{ "type": "Feature", "properties": { "LSOA21CD": "W01001699", "LSOA21NM": "Cardiff 049A", "centroid_method": "heuristic (representative_point + centroid blend)" }, "geometry": { "type": "Point", "coordinates": [ 318750.247003364900593, 175223.14060771241202 ] } },
{ "type": "Feature", "properties": { "LSOA21CD": "W01001702", "LSOA21NM": "Cardiff 045A", "centroid_method": "heuristic (representative_point + centroid blend)" }, "geometry": { "type": "Point", "coordinates": [ 312426.530890688474756, 175144.006547064724145 ] } },
{ "type": "Feature", "properties": { "LSOA21CD": "W01001703", "LSOA21NM": "Cardiff 045B", "centroid_method": "heuristic (representative_point + centroid blend)" }, "geometry": { "type": "Point", "coordinates": [ 313612.451304218266159, 175496.789639925409574 ] } },
{ "type": "Feature", "properties": { "LSOA21CD": "W01001704", "LSOA21NM": "Cardiff 041A", "centroid_method": "heuristic (representative_point + centroid blend)" }, "geometry": { "type": "Point", "coordinates": [ 314141.955417878460139, 175805.708490992081352 ] } },
{ "type": "Feature", "properties": { "LSOA21CD": "W01001705", "LSOA21NM": "Cardiff 045C", "centroid_method": "heuristic (representative_point + centroid blend)" }, "geometry": { "type": "Point", "coordinates": [ 313151.130451146571431, 175032.580418695346452 ] } },
{ "type": "Feature", "properties": { "LSOA21CD": "W01001706", "LSOA21NM": "Cardiff 041B", "centroid_method": "heuristic (representative_point + centroid blend)" }, "geometry": { "type": "Point", "coordinates": [ 314878.230951125326101, 176303.930723381257849 ] } },
{ "type": "Feature", "properties": { "LSOA21CD": "W01001707", "LSOA21NM": "Cardiff 041C", "centroid_method": "heuristic (representative_point + centroid blend)" }, "geometry": { "type": "Point", "coordinates": [ 314312.320744645840023, 176114.598955710593145 ] } },
{ "type": "Feature", "properties": { "LSOA21CD": "W01001708", "LSOA21NM": "Cardiff 045D", "centroid_method": "heuristic (representative_point + centroid blend)" }, "geometry": { "type": "Point", "coordinates": [ 313196.44041555642616, 175705.244254771678243 ] } },
{ "type": "Feature", "properties": { "LSOA21CD": "W01001710", "LSOA21NM": "Cardiff 040B", "centroid_method": "heuristic (representative_point + centroid blend)" }, "geometry": { "type": "Point", "coordinates": [ 316186.11300995061174, 176424.710859241720755 ] } },
{ "type": "Feature", "properties": { "LSOA21CD": "W01001711", "LSOA21NM": "Cardiff 040C", "centroid_method": "heuristic (representative_point + centroid blend)" }, "geometry": { "type": "Point", "coordinates": [ 316267.771639385202434, 175367.324602270149626 ] } },
{ "type": "Feature", "properties": { "LSOA21CD": "W01001712", "LSOA21NM": "Cardiff 040D", "centroid_method": "heuristic (representative_point + centroid blend)" }, "geometry": { "type": "Point", "coordinates": [ 316344.177867379272357, 176765.770901977841277 ] } },
{ "type": "Feature", "properties": { "LSOA21CD": "W01001713", "LSOA21NM": "Cardiff 040E", "centroid_method": "heuristic (representative_point + centroid blend)" }, "geometry": { "type": "Point", "coordinates": [ 316505.616204222547822, 176365.682830461038975 ] } },
{ "type": "Feature", "properties": { "LSOA21CD": "W01001714", "LSOA21NM": "Cardiff 035A", "centroid_method": "heuristic (representative_point + centroid blend)" }, "geometry": { "type": "Point", "coordinates": [ 315453.691856662917417, 177055.382447825715644 ] } },
{ "type": "Feature", "properties": { "LSOA21CD": "W01001715", "LSOA21NM": "Cardiff 035B", "centroid_method": "heuristic (representative_point + centroid blend)" }, "geometry": { "type": "Point", "coordinates": [ 316051.653704664669931, 177170.825021505588666 ] } },
{ "type": "Feature", "properties": { "LSOA21CD": "W01001716", "LSOA21NM": "Cardiff 035C", "centroid_method": "heuristic (representative_point + centroid blend)" }, "geometry": { "type": "Point", "coordinates": [ 314982.634304305189289, 176972.273303226567805 ] } },
{ "type": "Feature", "properties": { "LSOA21CD": "W01001717", "LSOA21NM": "Cardiff 035D", "centroid_method": "heuristic (representative_point + centroid blend)" }, "geometry": { "type": "Point", "coordinates": [ 315784.363235358032398, 177014.592346499441192 ] } },
{ "type": "Feature", "properties": { "LSOA21CD": "W01001718", "LSOA21NM": "Cardiff 028A", "centroid_method": "heuristic (representative_point + centroid blend)" }, "geometry": { "type": "Point", "coordinates": [ 318366.642708300729282, 178283.192814503447153 ] } },
{ "type": "Feature", "properties": { "LSOA21CD": "W01001719", "LSOA21NM": "Cardiff 028B", "centroid_method": "heuristic (representative_point + centroid blend)" }, "geometry": { "type": "Point", "coordinates": [ 317632.068415209418163, 178160.260416854813229 ] } },
{ "type": "Feature", "properties": { "LSOA21CD": "W01001720", "LSOA21NM": "Cardiff 028C", "centroid_method": "heuristic (representative_point + centroid blend)" }, "geometry": { "type": "Point", "coordinates": [ 318310.947214045329019, 177965.437060124299023 ] } },
{ "type": "Feature", "properties": { "LSOA21CD": "W01001721", "LSOA21NM": "Cardiff 032A", "centroid_method": "heuristic (representative_point + centroid blend)" }, "geometry": { "type": "Point", "coordinates": [ 317836.523784262593836, 177615.74316862548585 ] } },
{ "type": "Feature", "properties": { "LSOA21CD": "W01001722", "LSOA21NM": "Cardiff 028D", "centroid_method": "heuristic (representative_point + centroid blend)" }, "geometry": { "type": "Point", "coordinates": [ 317960.735329243645538, 177978.162894667999353 ] } },
{ "type": "Feature", "properties": { "LSOA21CD": "W01001724", "LSOA21NM": "Cardiff 032C", "centroid_method": "heuristic (representative_point + centroid blend)" }, "geometry": { "type": "Point", "coordinates": [ 318489.29118943575304, 177709.027224471617956 ] } },
{ "type": "Feature", "properties": { "LSOA21CD": "W01001725", "LSOA21NM": "Cardiff 032D", "centroid_method": "heuristic (representative_point + centroid blend)" }, "geometry": { "type": "Point", "coordinates": [ 318371.300301031849813, 177511.300759760662913 ] } },
{ "type": "Feature", "properties": { "LSOA21CD": "W01001726", "LSOA21NM": "Cardiff 028E", "centroid_method": "heuristic (representative_point + centroid blend)" }, "geometry": { "type": "Point", "coordinates": [ 318139.862134623283055, 178694.916575266921427 ] } },
{ "type": "Feature", "properties": { "LSOA21CD": "W01001727", "LSOA21NM": "Cardiff 014A", "centroid_method": "heuristic (representative_point + centroid blend)" }, "geometry": { "type": "Point", "coordinates": [ 307579.737150097964332, 181263.417674320284277 ] } },
{ "type": "Feature", "properties": { "LSOA21CD": "W01001728", "LSOA21NM": "Cardiff 014B", "centroid_method": "heuristic (representative_point + centroid blend)" }, "geometry": { "type": "Point", "coordinates": [ 308189.523415504139848, 180943.207389617804438 ] } },
{ "type": "Feature", "properties": { "LSOA21CD": "W01001729", "LSOA21NM": "Cardiff 014C", "centroid_method": "heuristic (representative_point + centroid blend)" }, "geometry": { "type": "Point", "coordinates": [ 311507.103403625835199, 178412.04772291239351 ] } },
{ "type": "Feature", "properties": { "LSOA21CD": "W01001730", "LSOA21NM": "Cardiff 008A", "centroid_method": "heuristic (representative_point + centroid blend)" }, "geometry": { "type": "Point", "coordinates": [ 319549.965124262205791, 181174.562465470109601 ] } },
{ "type": "Feature", "properties": { "LSOA21CD": "W01001731", "LSOA21NM": "Cardiff 008B", "centroid_method": "heuristic (representative_point + centroid blend)" }, "geometry": { "type": "Point", "coordinates": [ 318588.192526285012718, 181175.532891343085794 ] } },
{ "type": "Feature", "properties": { "LSOA21CD": "W01001732", "LSOA21NM": "Cardiff 019A", "centroid_method": "heuristic (representative_point + centroid blend)" }, "geometry": { "type": "Point", "coordinates": [ 318574.071636706299614, 180601.902515570633113 ] } },
{ "type": "Feature", "properties": { "LSOA21CD": "W01001733", "LSOA21NM": "Cardiff 019B", "centroid_method": "heuristic (representative_point + centroid blend)" }, "geometry": { "type": "Point", "coordinates": [ 319362.441911840753164, 180011.170842126593925 ] } },
{ "type": "Feature", "properties": { "LSOA21CD": "W01001734", "LSOA21NM": "Cardiff 019C", "centroid_method": "heuristic (representative_point + centroid blend)" }, "geometry": { "type": "Point", "coordinates": [ 318653.148487444734201, 180025.357891892141197 ] } },
{ "type": "Feature", "properties": { "LSOA21CD": "W01001735", "LSOA21NM": "Cardiff 019D", "centroid_method": "heuristic (representative_point + centroid blend)" }, "geometry": { "type": "Point", "coordinates": [ 318763.798399589490145, 179553.359304535930278 ] } },
{ "type": "Feature", "properties": { "LSOA21CD": "W01001736", "LSOA21NM": "Cardiff 008C", "centroid_method": "heuristic (representative_point + centroid blend)" }, "geometry": { "type": "Point", "coordinates": [ 319314.034534934849944, 181619.282067184132757 ] } },
{ "type": "Feature", "properties": { "LSOA21CD": "W01001737", "LSOA21NM": "Cardiff 039A", "centroid_method": "heuristic (representative_point + centroid blend)" }, "geometry": { "type": "Point", "coordinates": [ 313633.556691543839406, 176690.799501742236316 ] } },
{ "type": "Feature", "properties": { "LSOA21CD": "W01001738", "LSOA21NM": "Cardiff 039B", "centroid_method": "heuristic (representative_point + centroid blend)" }, "geometry": { "type": "Point", "coordinates": [ 312691.230049250938464, 176481.39213608254795 ] } },
{ "type": "Feature", "properties": { "LSOA21CD": "W01001739", "LSOA21NM": "Cardiff 039C", "centroid_method": "heuristic (representative_point + centroid blend)" }, "geometry": { "type": "Point", "coordinates": [ 313284.831415996770374, 176676.635879076377023 ] } },
{ "type": "Feature", "properties": { "LSOA21CD": "W01001740", "LSOA21NM": "Cardiff 039D", "centroid_method": "heuristic (representative_point + centroid blend)" }, "geometry": { "type": "Point", "coordinates": [ 313522.84458079317119, 176246.098617784766247 ] } },
{ "type": "Feature", "properties": { "LSOA21CD": "W01001741", "LSOA21NM": "Cardiff 039E", "centroid_method": "heuristic (representative_point + centroid blend)" }, "geometry": { "type": "Point", "coordinates": [ 312905.043337922892533, 176227.85153449093923 ] } },
{ "type": "Feature", "properties": { "LSOA21CD": "W01001742", "LSOA21NM": "Cardiff 043A", "centroid_method": "heuristic (representative_point + centroid blend)" }, "geometry": { "type": "Point", "coordinates": [ 312819.848386956960894, 175818.628091557591688 ] } },
{ "type": "Feature", "properties": { "LSOA21CD": "W01001743", "LSOA21NM": "Cardiff 043B", "centroid_method": "heuristic (representative_point + centroid blend)" }, "geometry": { "type": "Point", "coordinates": [ 311670.164340376795735, 175804.929158074664883 ] } },
{ "type": "Feature", "properties": { "LSOA21CD": "W01001744", "LSOA21NM": "Cardiff 043C", "centroid_method": "heuristic (representative_point + centroid blend)" }, "geometry": { "type": "Point", "coordinates": [ 312208.074508657620754, 175428.810463676025392 ] } },
{ "type": "Feature", "properties": { "LSOA21CD": "W01001745", "LSOA21NM": "Cardiff 043D", "centroid_method": "heuristic (representative_point + centroid blend)" }, "geometry": { "type": "Point", "coordinates": [ 311728.377719590207562, 175254.426489684963599 ] } },
{ "type": "Feature", "properties": { "LSOA21CD": "W01001746", "LSOA21NM": "Cardiff 041D", "centroid_method": "heuristic (representative_point + centroid blend)" }, "geometry": { "type": "Point", "coordinates": [ 314090.250702512566932, 176725.081835449789651 ] } },
{ "type": "Feature", "properties": { "LSOA21CD": "W01001747", "LSOA21NM": "Cardiff 027A", "centroid_method": "heuristic (representative_point + centroid blend)" }, "geometry": { "type": "Point", "coordinates": [ 313960.325135346851312, 178623.588568965118611 ] } },
{ "type": "Feature", "properties": { "LSOA21CD": "W01001748", "LSOA21NM": "Cardiff 027B", "centroid_method": "heuristic (representative_point + centroid blend)" }, "geometry": { "type": "Point", "coordinates": [ 313845.893207143293694, 178285.941383916884661 ] } },
{ "type": "Feature", "properties": { "LSOA21CD": "W01001749", "LSOA21NM": "Cardiff 027C", "centroid_method": "heuristic (representative_point + centroid blend)" }, "geometry": { "type": "Point", "coordinates": [ 313233.710391655506101, 178366.104046123859007 ] } },
{ "type": "Feature", "properties": { "LSOA21CD": "W01001750", "LSOA21NM": "Cardiff 031A", "centroid_method": "heuristic (representative_point + centroid blend)" }, "geometry": { "type": "Point", "coordinates": [ 314026.508553580148146, 177800.23949628463015 ] } },
{ "type": "Feature", "properties": { "LSOA21CD": "W01001751", "LSOA21NM": "Cardiff 027D", "centroid_method": "heuristic (representative_point + centroid blend)" }, "geometry": { "type": "Point", "coordinates": [ 313223.730156081146561, 177933.430348645575577 ] } },
{ "type": "Feature", "properties": { "LSOA21CD": "W01001752", "LSOA21NM": "Cardiff 031B", "centroid_method": "heuristic (representative_point + centroid blend)" }, "geometry": { "type": "Point", "coordinates": [ 313775.863353485590778, 177280.279220226977486 ] } },
{ "type": "Feature", "properties": { "LSOA21CD": "W01001753", "LSOA21NM": "Cardiff 031C", "centroid_method": "heuristic (representative_point + centroid blend)" }, "geometry": { "type": "Point", "coordinates": [ 313229.047242298023775, 177342.615257491939701 ] } },
{ "type": "Feature", "properties": { "LSOA21CD": "W01001754", "LSOA21NM": "Cardiff 031D", "centroid_method": "heuristic (representative_point + centroid blend)" }, "geometry": { "type": "Point", "coordinates": [ 314414.386739324952941, 177300.434776984155178 ] } },
{ "type": "Feature", "properties": { "LSOA21CD": "W01001755", "LSOA21NM": "Cardiff 025A", "centroid_method": "heuristic (representative_point + centroid blend)" }, "geometry": { "type": "Point", "coordinates": [ 317449.702474230260123, 178526.828571326215751 ] } },
{ "type": "Feature", "properties": { "LSOA21CD": "W01001756", "LSOA21NM": "Cardiff 025B", "centroid_method": "heuristic (representative_point + centroid blend)" }, "geometry": { "type": "Point", "coordinates": [ 316800.328758146497421, 178503.573228967114119 ] } },
{ "type": "Feature", "properties": { "LSOA21CD": "W01001757", "LSOA21NM": "Cardiff 025C", "centroid_method": "heuristic (representative_point + centroid blend)" }, "geometry": { "type": "Point", "coordinates": [ 317298.249856459791772, 178993.578647308226209 ] } },
{ "type": "Feature", "properties": { "LSOA21CD": "W01001758", "LSOA21NM": "Cardiff 025D", "centroid_method": "heuristic (representative_point + centroid blend)" }, "geometry": { "type": "Point", "coordinates": [ 317768.586846636142582, 178769.742288226581877 ] } },
{ "type": "Feature", "properties": { "LSOA21CD": "W01001759", "LSOA21NM": "Cardiff 046A", "centroid_method": "heuristic (representative_point + centroid blend)" }, "geometry": { "type": "Point", "coordinates": [ 316914.541746317001525, 174938.327084375196137 ] } },
{ "type": "Feature", "properties": { "LSOA21CD": "W01001760", "LSOA21NM": "Cardiff 046B", "centroid_method": "heuristic (representative_point + centroid blend)" }, "geometry": { "type": "Point", "coordinates": [ 318277.900898332707584, 174591.139497890428174 ] } },
{ "type": "Feature", "properties": { "LSOA21CD": "W01001761", "LSOA21NM": "Cardiff 046C", "centroid_method": "heuristic (representative_point + centroid blend)" }, "geometry": { "type": "Point", "coordinates": [ 317798.207944052235689, 174774.128447543742368 ] } },
{ "type": "Feature", "properties": { "LSOA21CD": "W01001762", "LSOA21NM": "Cardiff 046D", "centroid_method": "heuristic (representative_point + centroid blend)" }, "geometry": { "type": "Point", "coordinates": [ 317771.03070458030561, 174286.448320602532476 ] } },
{ "type": "Feature", "properties": { "LSOA21CD": "W01001764", "LSOA21NM": "Cardiff 044A", "centroid_method": "heuristic (representative_point + centroid blend)" }, "geometry": { "type": "Point", "coordinates": [ 317790.968075360637158, 175655.943082271434832 ] } },
{ "type": "Feature", "properties": { "LSOA21CD": "W01001765", "LSOA21NM": "Cardiff 044B", "centroid_method": "heuristic (representative_point + centroid blend)" }, "geometry": { "type": "Point", "coordinates": [ 317873.917152928537689, 175304.34939710967592 ] } },
{ "type": "Feature", "properties": { "LSOA21CD": "W01001766", "LSOA21NM": "Cardiff 044C", "centroid_method": "heuristic (representative_point + centroid blend)" }, "geometry": { "type": "Point", "coordinates": [ 317476.121501914982218, 175545.576320700260112 ] } },
{ "type": "Feature", "properties": { "LSOA21CD": "W01001767", "LSOA21NM": "Cardiff 044D", "centroid_method": "heuristic (representative_point + centroid blend)" }, "geometry": { "type": "Point", "coordinates": [ 317538.254581872432027, 175162.295452596357791 ] } },
{ "type": "Feature", "properties": { "LSOA21CD": "W01001768", "LSOA21NM": "Cardiff 044E", "centroid_method": "heuristic (representative_point + centroid blend)" }, "geometry": { "type": "Point", "coordinates": [ 317761.885442799655721, 175076.878486872737994 ] } },
{ "type": "Feature", "properties": { "LSOA21CD": "W01001769", "LSOA21NM": "Cardiff 018A", "centroid_method": "heuristic (representative_point + centroid blend)" }, "geometry": { "type": "Point", "coordinates": [ 317765.924633989518043, 180498.460187429387588 ] } },
{ "type": "Feature", "properties": { "LSOA21CD": "W01001770", "LSOA21NM": "Cardiff 018B", "centroid_method": "heuristic (representative_point + centroid blend)" }, "geometry": { "type": "Point", "coordinates": [ 317808.119863892556168, 179563.419475349946879 ] } },
{ "type": "Feature", "properties": { "LSOA21CD": "W01001771", "LSOA21NM": "Cardiff 018C", "centroid_method": "heuristic (representative_point + centroid blend)" }, "geometry": { "type": "Point", "coordinates": [ 317236.698568165302277, 180547.532707215228584 ] } },
{ "type": "Feature", "properties": { "LSOA21CD": "W01001772", "LSOA21NM": "Cardiff 021A", "centroid_method": "heuristic (representative_point + centroid blend)" }, "geometry": { "type": "Point", "coordinates": [ 316158.256046963448171, 180300.064845666871406 ] } },
{ "type": "Feature", "properties": { "LSOA21CD": "W01001773", "LSOA21NM": "Cardiff 012A", "centroid_method": "heuristic (representative_point + centroid blend)" }, "geometry": { "type": "Point", "coordinates": [ 316819.144613075419329, 180429.97992815048201 ] } },
{ "type": "Feature", "properties": { "LSOA21CD": "W01001774", "LSOA21NM": "Cardiff 018D", "centroid_method": "heuristic (representative_point + centroid blend)" }, "geometry": { "type": "Point", "coordinates": [ 317088.979748356330674, 179946.190848101570737 ] } },
{ "type": "Feature", "properties": { "LSOA21CD": "W01001775", "LSOA21NM": "Cardiff 021B", "centroid_method": "heuristic (representative_point + centroid blend)" }, "geometry": { "type": "Point", "coordinates": [ 316675.947468248428777, 179974.134107750898693 ] } },
{ "type": "Feature", "properties": { "LSOA21CD": "W01001776", "LSOA21NM": "Cardiff 021C", "centroid_method": "heuristic (representative_point + centroid blend)" }, "geometry": { "type": "Point", "coordinates": [ 317072.272551437607035, 179486.717265021172352 ] } },
{ "type": "Feature", "properties": { "LSOA21CD": "W01001777", "LSOA21NM": "Cardiff 001A", "centroid_method": "heuristic (representative_point + centroid blend)" }, "geometry": { "type": "Point", "coordinates": [ 319456.626029855688103, 183611.255076201457996 ] } },
{ "type": "Feature", "properties": { "LSOA21CD": "W01001778", "LSOA21NM": "Cardiff 001B", "centroid_method": "heuristic (representative_point + centroid blend)" }, "geometry": { "type": "Point", "coordinates": [ 317709.77512529597152, 183960.876945765630808 ] } },
{ "type": "Feature", "properties": { "LSOA21CD": "W01001779", "LSOA21NM": "Cardiff 026A", "centroid_method": "heuristic (representative_point + centroid blend)" }, "geometry": { "type": "Point", "coordinates": [ 314931.045984209165908, 178037.066788511234336 ] } },
{ "type": "Feature", "properties": { "LSOA21CD": "W01001780", "LSOA21NM": "Cardiff 026B", "centroid_method": "heuristic (representative_point + centroid blend)" }, "geometry": { "type": "Point", "coordinates": [ 314604.765470758720767, 178710.602389233128633 ] } },
{ "type": "Feature", "properties": { "LSOA21CD": "W01001781", "LSOA21NM": "Cardiff 026C", "centroid_method": "heuristic (representative_point + centroid blend)" }, "geometry": { "type": "Point", "coordinates": [ 315674.004488911072258, 177920.810982072609477 ] } },
{ "type": "Feature", "properties": { "LSOA21CD": "W01001782", "LSOA21NM": "Cardiff 026D", "centroid_method": "heuristic (representative_point + centroid blend)" }, "geometry": { "type": "Point", "coordinates": [ 314919.355862633208744, 177553.830228858278133 ] } },
{ "type": "Feature", "properties": { "LSOA21CD": "W01001783", "LSOA21NM": "Cardiff 026E", "centroid_method": "heuristic (representative_point + centroid blend)" }, "geometry": { "type": "Point", "coordinates": [ 313859.871524693211541, 179327.531520159682259 ] } },
{ "type": "Feature", "properties": { "LSOA21CD": "W01001784", "LSOA21NM": "Cardiff 026F", "centroid_method": "heuristic (representative_point + centroid blend)" }, "geometry": { "type": "Point", "coordinates": [ 314150.878800598264206, 178832.553221168695018 ] } },
{ "type": "Feature", "properties": { "LSOA21CD": "W01001785", "LSOA21NM": "Cardiff 023A", "centroid_method": "heuristic (representative_point + centroid blend)" }, "geometry": { "type": "Point", "coordinates": [ 315713.988212716823909, 179012.587219181325054 ] } },
{ "type": "Feature", "properties": { "LSOA21CD": "W01001786", "LSOA21NM": "Cardiff 023B", "centroid_method": "heuristic (representative_point + centroid blend)" }, "geometry": { "type": "Point", "coordinates": [ 315300.524996910127811, 178673.263276969897561 ] } },
{ "type": "Feature", "properties": { "LSOA21CD": "W01001787", "LSOA21NM": "Cardiff 023C", "centroid_method": "heuristic (representative_point + centroid blend)" }, "geometry": { "type": "Point", "coordinates": [ 316385.688276121742092, 179008.866515808796976 ] } },
{ "type": "Feature", "properties": { "LSOA21CD": "W01001788", "LSOA21NM": "Cardiff 023D", "centroid_method": "heuristic (representative_point + centroid blend)" }, "geometry": { "type": "Point", "coordinates": [ 316005.47302674310049, 178580.953903858200647 ] } },
{ "type": "Feature", "properties": { "LSOA21CD": "W01001789", "LSOA21NM": "Cardiff 023E", "centroid_method": "heuristic (representative_point + centroid blend)" }, "geometry": { "type": "Point", "coordinates": [ 314609.28835752105806, 179431.568861423496855 ] } },
{ "type": "Feature", "properties": { "LSOA21CD": "W01001790", "LSOA21NM": "Cardiff 023F", "centroid_method": "heuristic (representative_point + centroid blend)" }, "geometry": { "type": "Point", "coordinates": [ 315242.4479906730121, 179213.300324299081694 ] } },
{ "type": "Feature", "properties": { "LSOA21CD": "W01001791", "LSOA21NM": "Cardiff 005A", "centroid_method": "heuristic (representative_point + centroid blend)" }, "geometry": { "type": "Point", "coordinates": [ 318106.923500373784918, 181660.898587887495523 ] } },
{ "type": "Feature", "properties": { "LSOA21CD": "W01001792", "LSOA21NM": "Cardiff 005B", "centroid_method": "heuristic (representative_point + centroid blend)" }, "geometry": { "type": "Point", "coordinates": [ 317655.287971599318553, 181072.322847747855121 ] } },
{ "type": "Feature", "properties": { "LSOA21CD": "W01001793", "LSOA21NM": "Cardiff 002A", "centroid_method": "heuristic (representative_point + centroid blend)" }, "geometry": { "type": "Point", "coordinates": [ 317422.910782848251984, 183200.23495092333178 ] } },
{ "type": "Feature", "properties": { "LSOA21CD": "W01001794", "LSOA21NM": "Cardiff 001C", "centroid_method": "heuristic (representative_point + centroid blend)" }, "geometry": { "type": "Point", "coordinates": [ 317724.589015367790125, 183154.331671203137375 ] } },
{ "type": "Feature", "properties": { "LSOA21CD": "W01001795", "LSOA21NM": "Cardiff 002B", "centroid_method": "heuristic (representative_point + centroid blend)" }, "geometry": { "type": "Point", "coordinates": [ 316850.240191854303703, 183118.236752254597377 ] } },
{ "type": "Feature", "properties": { "LSOA21CD": "W01001796", "LSOA21NM": "Cardiff 002C", "centroid_method": "heuristic (representative_point + centroid blend)" }, "geometry": { "type": "Point", "coordinates": [ 317423.304579079442192, 182865.685025665792637 ] } },
{ "type": "Feature", "properties": { "LSOA21CD": "W01001797", "LSOA21NM": "Cardiff 005C", "centroid_method": "heuristic (representative_point + centroid blend)" }, "geometry": { "type": "Point", "coordinates": [ 317688.740873300703242, 182274.431053699285258 ] } },
{ "type": "Feature", "properties": { "LSOA21CD": "W01001798", "LSOA21NM": "Cardiff 002D", "centroid_method": "heuristic (representative_point + centroid blend)" }, "geometry": { "type": "Point", "coordinates": [ 316690.504768645914737, 182595.993431045499165 ] } },
{ "type": "Feature", "properties": { "LSOA21CD": "W01001799", "LSOA21NM": "Cardiff 001D", "centroid_method": "heuristic (representative_point + centroid blend)" }, "geometry": { "type": "Point", "coordinates": [ 318381.807168718834873, 182321.668896281335037 ] } },
{ "type": "Feature", "properties": { "LSOA21CD": "W01001800", "LSOA21NM": "Cardiff 005D", "centroid_method": "heuristic (representative_point + centroid blend)" }, "geometry": { "type": "Point", "coordinates": [ 317184.386534205463249, 182040.40025334735401 ] } },
{ "type": "Feature", "properties": { "LSOA21CD": "W01001802", "LSOA21NM": "Cardiff 007A", "centroid_method": "heuristic (representative_point + centroid blend)" }, "geometry": { "type": "Point", "coordinates": [ 322519.694817122479435, 181179.755156894418178 ] } },
{ "type": "Feature", "properties": { "LSOA21CD": "W01001803", "LSOA21NM": "Cardiff 015A", "centroid_method": "heuristic (representative_point + centroid blend)" }, "geometry": { "type": "Point", "coordinates": [ 322178.963351351791061, 180318.601429072732572 ] } },
{ "type": "Feature", "properties": { "LSOA21CD": "W01001804", "LSOA21NM": "Cardiff 015B", "centroid_method": "heuristic (representative_point + centroid blend)" }, "geometry": { "type": "Point", "coordinates": [ 321883.179409828677308, 180994.442597192188259 ] } },
{ "type": "Feature", "properties": { "LSOA21CD": "W01001805", "LSOA21NM": "Cardiff 015C", "centroid_method": "heuristic (representative_point + centroid blend)" }, "geometry": { "type": "Point", "coordinates": [ 321583.353939493536018, 180482.068385935854167 ] } },
{ "type": "Feature", "properties": { "LSOA21CD": "W01001806", "LSOA21NM": "Cardiff 015D", "centroid_method": "heuristic (representative_point + centroid blend)" }, "geometry": { "type": "Point", "coordinates": [ 321291.9620004495373, 179877.680475107219536 ] } },
{ "type": "Feature", "properties": { "LSOA21CD": "W01001807", "LSOA21NM": "Cardiff 007B", "centroid_method": "heuristic (representative_point + centroid blend)" }, "geometry": { "type": "Point", "coordinates": [ 322357.070161368697882, 181530.51756446971558 ] } },
{ "type": "Feature", "properties": { "LSOA21CD": "W01001808", "LSOA21NM": "Cardiff 007C", "centroid_method": "heuristic (representative_point + centroid blend)" }, "geometry": { "type": "Point", "coordinates": [ 321856.569377292878926, 181439.41482326464029 ] } },
{ "type": "Feature", "properties": { "LSOA21CD": "W01001809", "LSOA21NM": "Cardiff 017A", "centroid_method": "heuristic (representative_point + centroid blend)" }, "geometry": { "type": "Point", "coordinates": [ 319673.81389253877569, 180329.798531579785049 ] } },
{ "type": "Feature", "properties": { "LSOA21CD": "W01001810", "LSOA21NM": "Cardiff 017B", "centroid_method": "heuristic (representative_point + centroid blend)" }, "geometry": { "type": "Point", "coordinates": [ 320352.168511836964171, 180487.934150395187316 ] } },
{ "type": "Feature", "properties": { "LSOA21CD": "W01001811", "LSOA21NM": "Cardiff 009A", "centroid_method": "heuristic (representative_point + centroid blend)" }, "geometry": { "type": "Point", "coordinates": [ 320757.505312669032719, 180400.924577898054849 ] } },
{ "type": "Feature", "properties": { "LSOA21CD": "W01001812", "LSOA21NM": "Cardiff 017C", "centroid_method": "heuristic (representative_point + centroid blend)" }, "geometry": { "type": "Point", "coordinates": [ 319847.111102471593767, 180197.346364682627609 ] } },
{ "type": "Feature", "properties": { "LSOA21CD": "W01001813", "LSOA21NM": "Cardiff 017D", "centroid_method": "heuristic (representative_point + centroid blend)" }, "geometry": { "type": "Point", "coordinates": [ 320155.61461039801361, 179998.56021102485829 ] } },
{ "type": "Feature", "properties": { "LSOA21CD": "W01001814", "LSOA21NM": "Cardiff 017E", "centroid_method": "heuristic (representative_point + centroid blend)" }, "geometry": { "type": "Point", "coordinates": [ 320019.23021267686272, 179482.146227273246041 ] } },
{ "type": "Feature", "properties": { "LSOA21CD": "W01001815", "LSOA21NM": "Cardiff 008D", "centroid_method": "heuristic (representative_point + centroid blend)" }, "geometry": { "type": "Point", "coordinates": [ 320073.07609705615323, 181710.813817356247455 ] } },
{ "type": "Feature", "properties": { "LSOA21CD": "W01001816", "LSOA21NM": "Cardiff 009B", "centroid_method": "heuristic (representative_point + centroid blend)" }, "geometry": { "type": "Point", "coordinates": [ 320897.628012264962308, 181506.031999119848479 ] } },
{ "type": "Feature", "properties": { "LSOA21CD": "W01001817", "LSOA21NM": "Cardiff 009C", "centroid_method": "heuristic (representative_point + centroid blend)" }, "geometry": { "type": "Point", "coordinates": [ 320449.659643723862246, 181697.422630462009693 ] } },
{ "type": "Feature", "properties": { "LSOA21CD": "W01001818", "LSOA21NM": "Cardiff 009D", "centroid_method": "heuristic (representative_point + centroid blend)" }, "geometry": { "type": "Point", "coordinates": [ 320131.50684044015361, 181055.443620181060396 ] } },
{ "type": "Feature", "properties": { "LSOA21CD": "W01001819", "LSOA21NM": "Cardiff 014D", "centroid_method": "heuristic (representative_point + centroid blend)" }, "geometry": { "type": "Point", "coordinates": [ 310186.15442339447327, 182336.979182474140543 ] } },
{ "type": "Feature", "properties": { "LSOA21CD": "W01001820", "LSOA21NM": "Cardiff 006A", "centroid_method": "heuristic (representative_point + centroid blend)" }, "geometry": { "type": "Point", "coordinates": [ 311734.310385963064618, 183237.413636854675133 ] } },
{ "type": "Feature", "properties": { "LSOA21CD": "W01001821", "LSOA21NM": "Cardiff 024A", "centroid_method": "heuristic (representative_point + centroid blend)" }, "geometry": { "type": "Point", "coordinates": [ 319297.606083897640929, 178854.417319961095927 ] } },
{ "type": "Feature", "properties": { "LSOA21CD": "W01001822", "LSOA21NM": "Cardiff 029A", "centroid_method": "heuristic (representative_point + centroid blend)" }, "geometry": { "type": "Point", "coordinates": [ 320556.066568241105415, 178574.292849268065766 ] } },
{ "type": "Feature", "properties": { "LSOA21CD": "W01001823", "LSOA21NM": "Cardiff 029B", "centroid_method": "heuristic (representative_point + centroid blend)" }, "geometry": { "type": "Point", "coordinates": [ 319679.014399227511603, 178115.689398305665236 ] } },
{ "type": "Feature", "properties": { "LSOA21CD": "W01001824", "LSOA21NM": "Cardiff 029C", "centroid_method": "heuristic (representative_point + centroid blend)" }, "geometry": { "type": "Point", "coordinates": [ 319476.300409370334819, 178006.985323805274675 ] } },
{ "type": "Feature", "properties": { "LSOA21CD": "W01001825", "LSOA21NM": "Cardiff 029D", "centroid_method": "heuristic (representative_point + centroid blend)" }, "geometry": { "type": "Point", "coordinates": [ 320480.849292016355321, 178089.067700652347412 ] } },
{ "type": "Feature", "properties": { "LSOA21CD": "W01001826", "LSOA21NM": "Cardiff 024B", "centroid_method": "heuristic (representative_point + centroid blend)" }, "geometry": { "type": "Point", "coordinates": [ 319691.106180188711733, 179079.468702282843878 ] } },
{ "type": "Feature", "properties": { "LSOA21CD": "W01001827", "LSOA21NM": "Cardiff 024C", "centroid_method": "heuristic (representative_point + centroid blend)" }, "geometry": { "type": "Point", "coordinates": [ 318859.405096180678811, 179016.750005444104318 ] } },
{ "type": "Feature", "properties": { "LSOA21CD": "W01001828", "LSOA21NM": "Cardiff 024D", "centroid_method": "heuristic (representative_point + centroid blend)" }, "geometry": { "type": "Point", "coordinates": [ 320294.274801423540339, 178953.771735337737482 ] } },
{ "type": "Feature", "properties": { "LSOA21CD": "W01001829", "LSOA21NM": "Cardiff 033A", "centroid_method": "heuristic (representative_point + centroid blend)" }, "geometry": { "type": "Point", "coordinates": [ 318977.1401309001958, 177526.114926830370678 ] } },
{ "type": "Feature", "properties": { "LSOA21CD": "W01001830", "LSOA21NM": "Cardiff 033B", "centroid_method": "heuristic (representative_point + centroid blend)" }, "geometry": { "type": "Point", "coordinates": [ 319431.616700124461204, 177685.178793809405761 ] } },
{ "type": "Feature", "properties": { "LSOA21CD": "W01001831", "LSOA21NM": "Cardiff 030A", "centroid_method": "heuristic (representative_point + centroid blend)" }, "geometry": { "type": "Point", "coordinates": [ 319133.513795550970826, 177875.22298895593849 ] } },
{ "type": "Feature", "properties": { "LSOA21CD": "W01001832", "LSOA21NM": "Cardiff 033C", "centroid_method": "heuristic (representative_point + centroid blend)" }, "geometry": { "type": "Point", "coordinates": [ 318780.328384750522673, 177430.700140267261304 ] } },
{ "type": "Feature", "properties": { "LSOA21CD": "W01001833", "LSOA21NM": "Cardiff 033D", "centroid_method": "heuristic (representative_point + centroid blend)" }, "geometry": { "type": "Point", "coordinates": [ 319693.798006017343141, 177493.51949796883855 ] } },
{ "type": "Feature", "properties": { "LSOA21CD": "W01001834", "LSOA21NM": "Cardiff 033E", "centroid_method": "heuristic (representative_point + centroid blend)" }, "geometry": { "type": "Point", "coordinates": [ 319202.684141762729269, 177438.300086286180886 ] } },
{ "type": "Feature", "properties": { "LSOA21CD": "W01001835", "LSOA21NM": "Cardiff 033F", "centroid_method": "heuristic (representative_point + centroid blend)" }, "geometry": { "type": "Point", "coordinates": [ 319081.062180336914025, 176975.59593862836482 ] } },
{ "type": "Feature", "properties": { "LSOA21CD": "W01001836", "LSOA21NM": "Cardiff 030B", "centroid_method": "heuristic (representative_point + centroid blend)" }, "geometry": { "type": "Point", "coordinates": [ 318716.636667576269247, 178589.751968722615857 ] } },
{ "type": "Feature", "properties": { "LSOA21CD": "W01001837", "LSOA21NM": "Cardiff 030C", "centroid_method": "heuristic (representative_point + centroid blend)" }, "geometry": { "type": "Point", "coordinates": [ 318640.47162677248707, 178008.899817578494549 ] } },
{ "type": "Feature", "properties": { "LSOA21CD": "W01001838", "LSOA21NM": "Cardiff 030D", "centroid_method": "heuristic (representative_point + centroid blend)" }, "geometry": { "type": "Point", "coordinates": [ 318913.291985653224401, 178176.431848035135772 ] } },
{ "type": "Feature", "properties": { "LSOA21CD": "W01001839", "LSOA21NM": "Cardiff 030E", "centroid_method": "heuristic (representative_point + centroid blend)" }, "geometry": { "type": "Point", "coordinates": [ 318843.188173879228998, 177922.945466961420607 ] } },
{ "type": "Feature", "properties": { "LSOA21CD": "W01001840", "LSOA21NM": "Cardiff 007D", "centroid_method": "heuristic (representative_point + centroid blend)" }, "geometry": { "type": "Point", "coordinates": [ 322956.380572857218795, 181379.367897762684152 ] } },
{ "type": "Feature", "properties": { "LSOA21CD": "W01001841", "LSOA21NM": "Cardiff 003A", "centroid_method": "heuristic (representative_point + centroid blend)" }, "geometry": { "type": "Point", "coordinates": [ 320303.987666874250863, 182744.433710265235277 ] } },
{ "type": "Feature", "properties": { "LSOA21CD": "W01001842", "LSOA21NM": "Cardiff 003B", "centroid_method": "heuristic (representative_point + centroid blend)" }, "geometry": { "type": "Point", "coordinates": [ 321465.332950075156987, 183485.614848752884427 ] } },
{ "type": "Feature", "properties": { "LSOA21CD": "W01001844", "LSOA21NM": "Cardiff 003D", "centroid_method": "heuristic (representative_point + centroid blend)" }, "geometry": { "type": "Point", "coordinates": [ 320958.596852204122115, 182070.159781980473781 ] } },
{ "type": "Feature", "properties": { "LSOA21CD": "W01001846", "LSOA21NM": "Cardiff 006C", "centroid_method": "heuristic (representative_point + centroid blend)" }, "geometry": { "type": "Point", "coordinates": [ 312127.363175033242442, 181519.858609927527141 ] } },
{ "type": "Feature", "properties": { "LSOA21CD": "W01001847", "LSOA21NM": "Cardiff 006D", "centroid_method": "heuristic (representative_point + centroid blend)" }, "geometry": { "type": "Point", "coordinates": [ 312667.466805268777534, 181381.919018409273122 ] } },
{ "type": "Feature", "properties": { "LSOA21CD": "W01001848", "LSOA21NM": "Cardiff 012B", "centroid_method": "heuristic (representative_point + centroid blend)" }, "geometry": { "type": "Point", "coordinates": [ 316459.676154752844013, 180900.959142267907737 ] } },
{ "type": "Feature", "properties": { "LSOA21CD": "W01001849", "LSOA21NM": "Cardiff 004A", "centroid_method": "heuristic (representative_point + centroid blend)" }, "geometry": { "type": "Point", "coordinates": [ 314818.112845276191365, 181980.603800001961645 ] } },
{ "type": "Feature", "properties": { "LSOA21CD": "W01001850", "LSOA21NM": "Cardiff 012C", "centroid_method": "heuristic (representative_point + centroid blend)" }, "geometry": { "type": "Point", "coordinates": [ 316069.006516898050904, 181131.607928066659952 ] } },
{ "type": "Feature", "properties": { "LSOA21CD": "W01001851", "LSOA21NM": "Cardiff 012D", "centroid_method": "heuristic (representative_point + centroid blend)" }, "geometry": { "type": "Point", "coordinates": [ 315476.897262357000727, 180999.063521459058393 ] } },
{ "type": "Feature", "properties": { "LSOA21CD": "W01001852", "LSOA21NM": "Cardiff 004B", "centroid_method": "heuristic (representative_point + centroid blend)" }, "geometry": { "type": "Point", "coordinates": [ 315615.484007261868101, 183034.484116408537375 ] } },
{ "type": "Feature", "properties": { "LSOA21CD": "W01001853", "LSOA21NM": "Cardiff 004C", "centroid_method": "heuristic (representative_point + centroid blend)" }, "geometry": { "type": "Point", "coordinates": [ 316262.367945169389714, 182045.527876638981979 ] } },
{ "type": "Feature", "properties": { "LSOA21CD": "W01001854", "LSOA21NM": "Cardiff 004D", "centroid_method": "heuristic (representative_point + centroid blend)" }, "geometry": { "type": "Point", "coordinates": [ 315913.771780355309602, 181836.888233864796348 ] } },
{ "type": "Feature", "properties": { "LSOA21CD": "W01001855", "LSOA21NM": "Cardiff 042A", "centroid_method": "heuristic (representative_point + centroid blend)" }, "geometry": { "type": "Point", "coordinates": [ 317200.56531836692011, 176087.223847231623949 ] } },
{ "type": "Feature", "properties": { "LSOA21CD": "W01001856", "LSOA21NM": "Cardiff 042B", "centroid_method": "heuristic (representative_point + centroid blend)" }, "geometry": { "type": "Point", "coordinates": [ 317737.285495194781106, 176082.647896843613125 ] } },
{ "type": "Feature", "properties": { "LSOA21CD": "W01001857", "LSOA21NM": "Cardiff 042C", "centroid_method": "heuristic (representative_point + centroid blend)" }, "geometry": { "type": "Point", "coordinates": [ 316990.116308730735909, 176361.086252247623634 ] } },
{ "type": "Feature", "properties": { "LSOA21CD": "W01001858", "LSOA21NM": "Cardiff 034A", "centroid_method": "heuristic (representative_point + centroid blend)" }, "geometry": { "type": "Point", "coordinates": [ 316653.019836834049784, 177580.967853899201145 ] } },
{ "type": "Feature", "properties": { "LSOA21CD": "W01001859", "LSOA21NM": "Cardiff 034B", "centroid_method": "heuristic (representative_point + centroid blend)" }, "geometry": { "type": "Point", "coordinates": [ 316578.723258217156399, 177042.316995948378462 ] } },
{ "type": "Feature", "properties": { "LSOA21CD": "W01001860", "LSOA21NM": "Cardiff 034C", "centroid_method": "heuristic (representative_point + centroid blend)" }, "geometry": { "type": "Point", "coordinates": [ 316814.087772852450144, 176871.925027236167807 ] } },
{ "type": "Feature", "properties": { "LSOA21CD": "W01001861", "LSOA21NM": "Cardiff 034D", "centroid_method": "heuristic (representative_point + centroid blend)" }, "geometry": { "type": "Point", "coordinates": [ 317258.624670101213269, 176836.04782717191847 ] } },
{ "type": "Feature", "properties": { "LSOA21CD": "W01001862", "LSOA21NM": "Cardiff 042D", "centroid_method": "heuristic (representative_point + centroid blend)" }, "geometry": { "type": "Point", "coordinates": [ 317520.498754462751094, 176369.433376835251693 ] } },
{ "type": "Feature", "properties": { "LSOA21CD": "W01001863", "LSOA21NM": "Cardiff 022A", "centroid_method": "heuristic (representative_point + centroid blend)" }, "geometry": { "type": "Point", "coordinates": [ 322011.806040499417577, 178914.225331420311704 ] } },
{ "type": "Feature", "properties": { "LSOA21CD": "W01001864", "LSOA21NM": "Cardiff 022B", "centroid_method": "heuristic (representative_point + centroid blend)" }, "geometry": { "type": "Point", "coordinates": [ 321589.911191715975292, 179402.916888174630003 ] } },
{ "type": "Feature", "properties": { "LSOA21CD": "W01001865", "LSOA21NM": "Cardiff 022C", "centroid_method": "heuristic (representative_point + centroid blend)" }, "geometry": { "type": "Point", "coordinates": [ 322097.92935510573443, 178150.145581147604389 ] } },
{ "type": "Feature", "properties": { "LSOA21CD": "W01001866", "LSOA21NM": "Cardiff 016A", "centroid_method": "heuristic (representative_point + centroid blend)" }, "geometry": { "type": "Point", "coordinates": [ 322582.196739042992704, 180233.956260913866572 ] } },
{ "type": "Feature", "properties": { "LSOA21CD": "W01001867", "LSOA21NM": "Cardiff 016B", "centroid_method": "heuristic (representative_point + centroid blend)" }, "geometry": { "type": "Point", "coordinates": [ 322483.691712287836708, 179512.916320044954773 ] } },
{ "type": "Feature", "properties": { "LSOA21CD": "W01001868", "LSOA21NM": "Cardiff 022D", "centroid_method": "heuristic (representative_point + centroid blend)" }, "geometry": { "type": "Point", "coordinates": [ 322042.607506218017079, 179557.194868006161414 ] } },
{ "type": "Feature", "properties": { "LSOA21CD": "W01001869", "LSOA21NM": "Cardiff 038A", "centroid_method": "heuristic (representative_point + centroid blend)" }, "geometry": { "type": "Point", "coordinates": [ 320472.856805646093562, 177337.530475759354886 ] } },
{ "type": "Feature", "properties": { "LSOA21CD": "W01001870", "LSOA21NM": "Cardiff 037A", "centroid_method": "heuristic (representative_point + centroid blend)" }, "geometry": { "type": "Point", "coordinates": [ 320531.87987535900902, 176877.889875777123962 ] } },
{ "type": "Feature", "properties": { "LSOA21CD": "W01001871", "LSOA21NM": "Cardiff 037B", "centroid_method": "heuristic (representative_point + centroid blend)" }, "geometry": { "type": "Point", "coordinates": [ 321064.652169873006642, 176860.988723850285169 ] } },
{ "type": "Feature", "properties": { "LSOA21CD": "W01001872", "LSOA21NM": "Cardiff 038B", "centroid_method": "heuristic (representative_point + centroid blend)" }, "geometry": { "type": "Point", "coordinates": [ 320066.682476553309243, 176602.931100952846464 ] } },
{ "type": "Feature", "properties": { "LSOA21CD": "W01001873", "LSOA21NM": "Cardiff 038C", "centroid_method": "heuristic (representative_point + centroid blend)" }, "geometry": { "type": "Point", "coordinates": [ 320236.431880029151216, 176214.544954103766941 ] } },
{ "type": "Feature", "properties": { "LSOA21CD": "W01001874", "LSOA21NM": "Cardiff 038D", "centroid_method": "heuristic (representative_point + centroid blend)" }, "geometry": { "type": "Point", "coordinates": [ 320027.012681459658779, 175775.488088893587701 ] } },
{ "type": "Feature", "properties": { "LSOA21CD": "W01001876", "LSOA21NM": "Cardiff 037D", "centroid_method": "heuristic (representative_point + centroid blend)" }, "geometry": { "type": "Point", "coordinates": [ 320796.87410433893092, 177354.713720833067782 ] } },
{ "type": "Feature", "properties": { "LSOA21CD": "W01001877", "LSOA21NM": "Cardiff 011A", "centroid_method": "heuristic (representative_point + centroid blend)" }, "geometry": { "type": "Point", "coordinates": [ 324321.551812856050674, 181762.710207333904691 ] } },
{ "type": "Feature", "properties": { "LSOA21CD": "W01001878", "LSOA21NM": "Cardiff 011B", "centroid_method": "heuristic (representative_point + centroid blend)" }, "geometry": { "type": "Point", "coordinates": [ 323756.36294143111445, 181558.635383849090431 ] } },
{ "type": "Feature", "properties": { "LSOA21CD": "W01001879", "LSOA21NM": "Cardiff 013A", "centroid_method": "heuristic (representative_point + centroid blend)" }, "geometry": { "type": "Point", "coordinates": [ 323629.61188060551649, 180941.737659711099695 ] } },
{ "type": "Feature", "properties": { "LSOA21CD": "W01001880", "LSOA21NM": "Cardiff 013B", "centroid_method": "heuristic (representative_point + centroid blend)" }, "geometry": { "type": "Point", "coordinates": [ 324138.726934112841263, 180867.168955742032267 ] } },
{ "type": "Feature", "properties": { "LSOA21CD": "W01001881", "LSOA21NM": "Cardiff 013C", "centroid_method": "heuristic (representative_point + centroid blend)" }, "geometry": { "type": "Point", "coordinates": [ 323223.885797620401718, 181135.179746820882428 ] } },
{ "type": "Feature", "properties": { "LSOA21CD": "W01001882", "LSOA21NM": "Cardiff 011C", "centroid_method": "heuristic (representative_point + centroid blend)" }, "geometry": { "type": "Point", "coordinates": [ 324898.137114983284846, 180982.461745748529211 ] } },
{ "type": "Feature", "properties": { "LSOA21CD": "W01001883", "LSOA21NM": "Cardiff 016C", "centroid_method": "heuristic (representative_point + centroid blend)" }, "geometry": { "type": "Point", "coordinates": [ 323087.890279192419257, 180593.02605532220332 ] } },
{ "type": "Feature", "properties": { "LSOA21CD": "W01001884", "LSOA21NM": "Cardiff 013D", "centroid_method": "heuristic (representative_point + centroid blend)" }, "geometry": { "type": "Point", "coordinates": [ 323885.722078650491312, 180770.000306830421323 ] } },
{ "type": "Feature", "properties": { "LSOA21CD": "W01001885", "LSOA21NM": "Cardiff 011D", "centroid_method": "heuristic (representative_point + centroid blend)" }, "geometry": { "type": "Point", "coordinates": [ 323587.97826761577744, 179079.459194743947592 ] } },
{ "type": "Feature", "properties": { "LSOA21CD": "W01001886", "LSOA21NM": "Cardiff 016D", "centroid_method": "heuristic (representative_point + centroid blend)" }, "geometry": { "type": "Point", "coordinates": [ 322999.926727002835833, 180000.345807515608612 ] } },
{ "type": "Feature", "properties": { "LSOA21CD": "W01001887", "LSOA21NM": "Cardiff 020A", "centroid_method": "heuristic (representative_point + centroid blend)" }, "geometry": { "type": "Point", "coordinates": [ 315044.972547212440986, 179968.423705426539527 ] } },
{ "type": "Feature", "properties": { "LSOA21CD": "W01001888", "LSOA21NM": "Cardiff 010A", "centroid_method": "heuristic (representative_point + centroid blend)" }, "geometry": { "type": "Point", "coordinates": [ 314332.492625855375081, 180193.767622146260692 ] } },
{ "type": "Feature", "properties": { "LSOA21CD": "W01001889", "LSOA21NM": "Cardiff 020B", "centroid_method": "heuristic (representative_point + centroid blend)" }, "geometry": { "type": "Point", "coordinates": [ 315876.116322571586352, 179917.358596078731352 ] } },
{ "type": "Feature", "properties": { "LSOA21CD": "W01001890", "LSOA21NM": "Cardiff 021D", "centroid_method": "heuristic (representative_point + centroid blend)" }, "geometry": { "type": "Point", "coordinates": [ 316521.375740640796721, 179560.302499255165458 ] } },
{ "type": "Feature", "properties": { "LSOA21CD": "W01001891", "LSOA21NM": "Cardiff 020C", "centroid_method": "heuristic (representative_point + centroid blend)" }, "geometry": { "type": "Point", "coordinates": [ 315494.353579806745984, 179730.254501872957917 ] } },
{ "type": "Feature", "properties": { "LSOA21CD": "W01001892", "LSOA21NM": "Cardiff 020D", "centroid_method": "heuristic (representative_point + centroid blend)" }, "geometry": { "type": "Point", "coordinates": [ 316118.730893631582148, 179415.645643251482397 ] } },
{ "type": "Feature", "properties": { "LSOA21CD": "W01001893", "LSOA21NM": "Cardiff 010B", "centroid_method": "heuristic (representative_point + centroid blend)" }, "geometry": { "type": "Point", "coordinates": [ 313848.992135497392155, 182904.488887409504969 ] } },
{ "type": "Feature", "properties": { "LSOA21CD": "W01001894", "LSOA21NM": "Cardiff 010C", "centroid_method": "heuristic (representative_point + centroid blend)" }, "geometry": { "type": "Point", "coordinates": [ 314579.815855163265951, 181222.011896336771315 ] } },
{ "type": "Feature", "properties": { "LSOA21CD": "W01001895", "LSOA21NM": "Cardiff 010D", "centroid_method": "heuristic (representative_point + centroid blend)" }, "geometry": { "type": "Point", "coordinates": [ 314256.088636577769648, 180817.255161723442143 ] } },
{ "type": "Feature", "properties": { "LSOA21CD": "W01001896", "LSOA21NM": "Cardiff 020E", "centroid_method": "heuristic (representative_point + centroid blend)" }, "geometry": { "type": "Point", "coordinates": [ 315287.386252947966568, 180506.068884772015736 ] } },
{ "type": "Feature", "properties": { "LSOA21CD": "W01001912", "LSOA21NM": "Newport 020E", "centroid_method": "heuristic (representative_point + centroid blend)" }, "geometry": { "type": "Point", "coordinates": [ 328313.478782629128546, 181753.223329568572808 ] } },
{ "type": "Feature", "properties": { "LSOA21CD": "W01001922", "LSOA21NM": "Cardiff 032E", "centroid_method": "heuristic (representative_point + centroid blend)" }, "geometry": { "type": "Point", "coordinates": [ 318558.740775252110325, 177164.287490540678846 ] } },
{ "type": "Feature", "properties": { "LSOA21CD": "W01001940", "LSOA21NM": "Cardiff 048A", "centroid_method": "heuristic (representative_point + centroid blend)" }, "geometry": { "type": "Point", "coordinates": [ 320340.289033563574776, 174394.522719217056874 ] } },
{ "type": "Feature", "properties": { "LSOA21CD": "W01001942", "LSOA21NM": "Cardiff 049B", "centroid_method": "heuristic (representative_point + centroid blend)" }, "geometry": { "type": "Point", "coordinates": [ 318625.954645140911452, 174278.699356032768264 ] } },
{ "type": "Feature", "properties": { "LSOA21CD": "W01001943", "LSOA21NM": "Cardiff 048B", "centroid_method": "heuristic (representative_point + centroid blend)" }, "geometry": { "type": "Point", "coordinates": [ 319325.494329599314369, 174192.559668666392099 ] } },
{ "type": "Feature", "properties": { "LSOA21CD": "W01001944", "LSOA21NM": "Cardiff 048C", "centroid_method": "heuristic (representative_point + centroid blend)" }, "geometry": { "type": "Point", "coordinates": [ 319149.089238150278106, 175440.054558062227443 ] } },
{ "type": "Feature", "properties": { "LSOA21CD": "W01001946", "LSOA21NM": "Cardiff 049C", "centroid_method": "heuristic (representative_point + centroid blend)" }, "geometry": { "type": "Point", "coordinates": [ 318050.821870726300403, 174027.670812238153303 ] } },
{ "type": "Feature", "properties": { "LSOA21CD": "W01001947", "LSOA21NM": "Cardiff 048E", "centroid_method": "heuristic (representative_point + centroid blend)" }, "geometry": { "type": "Point", "coordinates": [ 317311.704658113827463, 173883.265702998643974 ] } },
{ "type": "Feature", "properties": { "LSOA21CD": "W01001948", "LSOA21NM": "Cardiff 006E", "centroid_method": "heuristic (representative_point + centroid blend)" }, "geometry": { "type": "Point", "coordinates": [ 312245.276818835758604, 180180.092694405087968 ] } },
{ "type": "Feature", "properties": { "LSOA21CD": "W01001949", "LSOA21NM": "Cardiff 005F", "centroid_method": "heuristic (representative_point + centroid blend)" }, "geometry": { "type": "Point", "coordinates": [ 316888.781877366360277, 181188.004926940280711 ] } },
{ "type": "Feature", "properties": { "LSOA21CD": "W01001950", "LSOA21NM": "Cardiff 049D", "centroid_method": "heuristic (representative_point + centroid blend)" }, "geometry": { "type": "Point", "coordinates": [ 318663.163552827376407, 174706.768660893285414 ] } },
{ "type": "Feature", "properties": { "LSOA21CD": "W01001951", "LSOA21NM": "Cardiff 049E", "centroid_method": "heuristic (representative_point + centroid blend)" }, "geometry": { "type": "Point", "coordinates": [ 319139.863209188333713, 175877.815702517371392 ] } },
{ "type": "Feature", "properties": { "LSOA21CD": "W01001952", "LSOA21NM": "Cardiff 049F", "centroid_method": "heuristic (representative_point + centroid blend)" }, "geometry": { "type": "Point", "coordinates": [ 318345.394045483903028, 175482.982354662555736 ] } },
{ "type": "Feature", "properties": { "LSOA21CD": "W01001953", "LSOA21NM": "Cardiff 005G", "centroid_method": "heuristic (representative_point + centroid blend)" }, "geometry": { "type": "Point", "coordinates": [ 316892.787819485762157, 181709.827462749788538 ] } },
{ "type": "Feature", "properties": { "LSOA21CD": "W01001954", "LSOA21NM": "Cardiff 006F", "centroid_method": "heuristic (representative_point + centroid blend)" }, "geometry": { "type": "Point", "coordinates": [ 312965.175826808903366, 180591.267407230974641 ] } },
{ "type": "Feature", "properties": { "LSOA21CD": "W01002016", "LSOA21NM": "Cardiff 003E", "centroid_method": "heuristic (representative_point + centroid blend)" }, "geometry": { "type": "Point", "coordinates": [ 323081.861584966129158, 182647.572138285846449 ] } },
{ "type": "Feature", "properties": { "LSOA21CD": "W01002017", "LSOA21NM": "Cardiff 003F", "centroid_method": "heuristic (representative_point + centroid blend)" }, "geometry": { "type": "Point", "coordinates": [ 322199.698060660273768, 182242.859005114296451 ] } },
{ "type": "Feature", "properties": { "LSOA21CD": "W01002018", "LSOA21NM": "Cardiff 003G", "centroid_method": "heuristic (representative_point + centroid blend)" }, "geometry": { "type": "Point", "coordinates": [ 321530.875771839404479, 182011.69670523449895 ] } },
{ "type": "Feature", "properties": { "LSOA21CD": "W01002019", "LSOA21NM": "Cardiff 032H", "centroid_method": "heuristic (representative_point + centroid blend)" }, "geometry": { "type": "Point", "coordinates": [ 318041.029333670740016, 176910.545411110564601 ] } },
{ "type": "Feature", "properties": { "LSOA21CD": "W01002020", "LSOA21NM": "Cardiff 037E", "centroid_method": "heuristic (representative_point + centroid blend)" }, "geometry": { "type": "Point", "coordinates": [ 321537.022344503318891, 177175.412993755249772 ] } },
{ "type": "Feature", "properties": { "LSOA21CD": "W01002021", "LSOA21NM": "Cardiff 037F", "centroid_method": "heuristic (representative_point + centroid blend)" }, "geometry": { "type": "Point", "coordinates": [ 321938.930515061831102, 176891.003165625006659 ] } },
{ "type": "Feature", "properties": { "LSOA21CD": "W01002022", "LSOA21NM": "Cardiff 040F", "centroid_method": "heuristic (representative_point + centroid blend)" }, "geometry": { "type": "Point", "coordinates": [ 315347.197440267424099, 176305.226167726272251 ] } },
{ "type": "Feature", "properties": { "LSOA21CD": "W01002023", "LSOA21NM": "Cardiff 040G", "centroid_method": "heuristic (representative_point + centroid blend)" }, "geometry": { "type": "Point", "coordinates": [ 315848.942999473540112, 176321.294096358469687 ] } },
{ "type": "Feature", "properties": { "LSOA21CD": "W01002024", "LSOA21NM": "Cardiff 048F", "centroid_method": "heuristic (representative_point + centroid blend)" }, "geometry": { "type": "Point", "coordinates": [ 318472.521918429236393, 173482.455764340993483 ] } },
{ "type": "Feature", "properties": { "LSOA21CD": "W01002025", "LSOA21NM": "Cardiff 048G", "centroid_method": "heuristic (representative_point + centroid blend)" }, "geometry": { "type": "Point", "coordinates": [ 318410.617690029495861, 172965.777800805808511 ] } },
{ "type": "Feature", "properties": { "LSOA21CD": "W01002036", "LSOA21NM": "Vale of Glamorgan 005G", "centroid_method": "heuristic (representative_point + centroid blend)" }, "geometry": { "type": "Point", "coordinates": [ 317977.355756305449177, 172453.941827188653406 ] } },
{ "type": "Feature", "properties": { "LSOA21CD": "W01002037", "LSOA21NM": "Vale of Glamorgan 005H", "centroid_method": "heuristic (representative_point + centroid blend)" }, "geometry": { "type": "Point", "coordinates": [ 318585.549520349712111, 172422.288706288120011 ] } }
]
}
