{
"type": "FeatureCollection",
"name": "supply_chargers_ocm_wgs84",
"crs": { "type": "name", "properties": { "name": "urn:ogc:def:crs:OGC:1.3:CRS84" } },
"features": [
{ "type": "Feature", "properties": { "ocm_id": 52763, "name": "NCP Greyfriars Road", "address": "Greyfriars Road", "town": "Cardiff", "postcode": "CF10 3AD", "operator": "BP Pulse (UK)", "operator_id": 32, "status": "Operational", "status_id": 50, "is_operational": true, "usage_type": "Public - Membership Required", "usage_type_id": 4, "is_public": true, "sockets": 4, "connector_types": "BS1363 3 Pin 13 Amp, Type 2 (Socket Only)", "max_power_kw": 7.0, "current_types": "AC (Single-Phase)", "speed_tier": "Fast (5-7kW)", "has_ccs": false, "has_chademo": false, "has_type2": true, "has_type1": false, "usage_cost": "£0.59/kWh; other tariffs available. £1.70 per hour for type 2", "date_verified": "2023-04-03", "date_updated": "2023-04-03", "date_created": "2015-09-10" }, "geometry": { "type": "Point", "coordinates": [ -3.17577, 51.483101 ] } },
{ "type": "Feature", "properties": { "ocm_id": 60879, "name": "St. David's Shopping Centre Car Park", "address": "Hills Street", "town": "Cardiff", "postcode": "CF10 2EQ", "operator": "BP Pulse (UK)", "operator_id": 32, "status": "Operational", "status_id": 50, "is_operational": true, "usage_type": "Public - Membership Required", "usage_type_id": 4, "is_public": true, "sockets": 4, "connector_types": "Type 2 (Socket Only)", "max_power_kw": 7.0, "current_types": "AC (Single-Phase)", "speed_tier": "Fast (5-7kW)", "has_ccs": false, "has_chademo": false, "has_type2": true, "has_type1": false, "usage_cost": "Inclusive; for Polar Plus subscription members only", "date_verified": "2019-03-08", "date_updated": "2019-03-08", "date_created": "2016-02-12" }, "geometry": { "type": "Point", "coordinates": [ -3.17476750000003, 51.47922 ] } },
{ "type": "Feature", "properties": { "ocm_id": 88787, "name": "St David's Shopping Centre", "address": "St David's Shopping Centre Bridge Street Arcade", "town": "", "postcode": "CF10 2EQ", "operator": "Tesla (Tesla-only charging)", "operator_id": 23, "status": "Operational", "status_id": 50, "is_operational": true, "usage_type": "Public - Membership Required", "usage_type_id": 4, "is_public": true, "sockets": 2, "connector_types": "Tesla (Model S/X)", "max_power_kw": 13.0, "current_types": "AC (Three-Phase)", "speed_tier": "Fast (7-22kW)", "has_ccs": false, "has_chademo": false, "has_type2": false, "has_type1": false, "usage_cost": "", "date_verified": "2018-10-03", "date_updated": "2018-10-03", "date_created": "2017-06-09" }, "geometry": { "type": "Point", "coordinates": [ -3.174819, 51.479103 ] } },
{ "type": "Feature", "properties": { "ocm_id": 252108, "name": "St Davids Shopping Centre Car Park", "address": "St Davids Shopping Centre Car Park", "town": "Cardiff", "postcode": "CF10 2EQ", "operator": "BP Pulse (UK)", "operator_id": 32, "status": "Unknown", "status_id": 0, "is_operational": true, "usage_type": "Public - Membership Required", "usage_type_id": 4, "is_public": true, "sockets": 2, "connector_types": "Type 2 (Socket Only)", "max_power_kw": 22.0, "current_types": "AC (Single-Phase), AC (Three-Phase)", "speed_tier": "Fast (7-22kW)", "has_ccs": false, "has_chademo": false, "has_type2": true, "has_type1": false, "usage_cost": "", "date_verified": "2023-05-03", "date_updated": "2023-05-03", "date_created": "2023-03-07" }, "geometry": { "type": "Point", "coordinates": [ -3.173753, 51.479366 ] } },
{ "type": "Feature", "properties": { "ocm_id": 252105, "name": "St Davids Shopping Centre Car Park", "address": "St Davids Shopping Centre Car Park", "town": "Cardiff", "postcode": "CF10 2EQ", "operator": "BP Pulse (UK)", "operator_id": 32, "status": "Unknown", "status_id": 0, "is_operational": true, "usage_type": "Public - Membership Required", "usage_type_id": 4, "is_public": true, "sockets": 2, "connector_types": "Type 2 (Socket Only)", "max_power_kw": 22.0, "current_types": "AC (Single-Phase), AC (Three-Phase)", "speed_tier": "Fast (7-22kW)", "has_ccs": false, "has_chademo": false, "has_type2": true, "has_type1": false, "usage_cost": "", "date_verified": "2023-05-03", "date_updated": "2023-05-03", "date_created": "2023-03-07" }, "geometry": { "type": "Point", "coordinates": [ -3.173709, 51.47934 ] } },
{ "type": "Feature", "properties": { "ocm_id": 209611, "name": "St David's Dewi Sant Shopping Centre", "address": "St David's Dewi Sant Shopping Centre", "town": "Cardiff", "postcode": "CF10 2EQ", "operator": "POD Point (UK)", "operator_id": 3, "status": "Operational", "status_id": 50, "is_operational": true, "usage_type": "Public - Membership Required", "usage_type_id": 4, "is_public": true, "sockets": 2, "connector_types": "Type 2 (Socket Only)", "max_power_kw": 7.0, "current_types": "AC (Single-Phase)", "speed_tier": "Fast (5-7kW)", "has_ccs": false, "has_chademo": false, "has_type2": true, "has_type1": false, "usage_cost": "£0.49/kWh", "date_verified": "2024-07-09", "date_updated": "2024-07-09", "date_created": "2022-10-31" }, "geometry": { "type": "Point", "coordinates": [ -3.174714, 51.478574 ] } },
{ "type": "Feature", "properties": { "ocm_id": 285782, "name": "Castle Mews, Cardiff", "address": "Castle Mews Car Park", "town": "Cardiff", "postcode": "CF10 3EW", "operator": "Connected Kerb", "operator_id": 3509, "status": "Unknown", "status_id": 0, "is_operational": true, "usage_type": "Public", "usage_type_id": 1, "is_public": true, "sockets": 2, "connector_types": "Type 2 (Socket Only)", "max_power_kw": 22.0, "current_types": "AC (Three-Phase)", "speed_tier": "Fast (7-22kW)", "has_ccs": false, "has_chademo": false, "has_type2": true, "has_type1": false, "usage_cost": "", "date_verified": "2023-12-07", "date_updated": "2023-12-07", "date_created": "2023-12-07" }, "geometry": { "type": "Point", "coordinates": [ -3.182573, 51.48512 ] } },
{ "type": "Feature", "properties": { "ocm_id": 259897, "name": "Windsor Place", "address": "Windsor Place", "town": "Cardiff", "postcode": "CF10 3BZ", "operator": "Osprey Charging", "operator_id": 203, "status": "Operational", "status_id": 50, "is_operational": true, "usage_type": "Public - Pay At Location", "usage_type_id": 5, "is_public": true, "sockets": 4, "connector_types": "CCS (Type 2), CHAdeMO", "max_power_kw": 50.0, "current_types": "DC", "speed_tier": "Rapid (22-50kW)", "has_ccs": true, "has_chademo": true, "has_type2": false, "has_type1": false, "usage_cost": "£0.79/kWh", "date_verified": "2024-08-23", "date_updated": "2024-08-23", "date_created": "2023-04-13" }, "geometry": { "type": "Point", "coordinates": [ -3.173242, 51.483881 ] } },
{ "type": "Feature", "properties": { "ocm_id": 260068, "name": "Park Place", "address": "Park Place", "town": "Cardiff", "postcode": "CF10 3RL", "operator": "Osprey Charging", "operator_id": 203, "status": "Operational", "status_id": 50, "is_operational": true, "usage_type": "Public - Pay At Location", "usage_type_id": 5, "is_public": true, "sockets": 4, "connector_types": "CCS (Type 2), CHAdeMO", "max_power_kw": 50.0, "current_types": "DC", "speed_tier": "Rapid (22-50kW)", "has_ccs": true, "has_chademo": true, "has_type2": false, "has_type1": false, "usage_cost": "£0.79/kWh", "date_verified": "2024-07-09", "date_updated": "2024-07-09", "date_created": "2023-04-13" }, "geometry": { "type": "Point", "coordinates": [ -3.176613, 51.485936 ] } },
{ "type": "Feature", "properties": { "ocm_id": 157867, "name": "NCP Dumfries Place", "address": "NCP Dumfries Place", "town": "Cardiff", "postcode": "CF10 3FN", "operator": "BP Pulse (UK)", "operator_id": 32, "status": "Unknown", "status_id": 0, "is_operational": true, "usage_type": "Public - Membership Required", "usage_type_id": 4, "is_public": true, "sockets": 2, "connector_types": "BS1363 3 Pin 13 Amp, Type 2 (Socket Only)", "max_power_kw": 22.0, "current_types": "AC (Single-Phase), AC (Three-Phase)", "speed_tier": "Fast (7-22kW)", "has_ccs": false, "has_chademo": false, "has_type2": true, "has_type1": false, "usage_cost": "", "date_verified": "2023-05-03", "date_updated": "2023-05-03", "date_created": "2020-06-25" }, "geometry": { "type": "Point", "coordinates": [ -3.172482, 51.484352 ] } },
{ "type": "Feature", "properties": { "ocm_id": 157868, "name": "NCP Dumfries Place", "address": "NCP Dumfries Place", "town": "Cardiff", "postcode": "CF10 3FN", "operator": "BP Pulse (UK)", "operator_id": 32, "status": "Unknown", "status_id": 0, "is_operational": true, "usage_type": "Public - Membership Required", "usage_type_id": 4, "is_public": true, "sockets": 2, "connector_types": "BS1363 3 Pin 13 Amp, Type 2 (Socket Only)", "max_power_kw": 22.0, "current_types": "AC (Single-Phase), AC (Three-Phase)", "speed_tier": "Fast (7-22kW)", "has_ccs": false, "has_chademo": false, "has_type2": true, "has_type1": false, "usage_cost": "", "date_verified": "2023-05-03", "date_updated": "2023-05-03", "date_created": "2020-06-25" }, "geometry": { "type": "Point", "coordinates": [ -3.172682, 51.484554 ] } },
{ "type": "Feature", "properties": { "ocm_id": 52910, "name": "NCP Pellet Street", "address": "Pellet Street", "town": "Cardiff", "postcode": "CF10 4FF", "operator": "BP Pulse (UK)", "operator_id": 32, "status": "Operational", "status_id": 50, "is_operational": true, "usage_type": "Public - Membership Required", "usage_type_id": 4, "is_public": true, "sockets": 4, "connector_types": "BS1363 3 Pin 13 Amp, Type 2 (Socket Only)", "max_power_kw": 3.0, "current_types": "AC (Single-Phase)", "speed_tier": "Slow (<5kW)", "has_ccs": false, "has_chademo": false, "has_type2": true, "has_type1": false, "usage_cost": "£0.59/kWh; other tariffs available. Parking fees apply", "date_verified": "2023-04-03", "date_updated": "2023-04-03", "date_created": "2015-09-14" }, "geometry": { "type": "Point", "coordinates": [ -3.17032, 51.478298 ] } },
{ "type": "Feature", "properties": { "ocm_id": 285778, "name": "Sophia Gardens", "address": "Sophia Gardens", "town": "Cardiff", "postcode": "CF11 9HW", "operator": "Connected Kerb", "operator_id": 3509, "status": "Unknown", "status_id": 0, "is_operational": true, "usage_type": "Public", "usage_type_id": 1, "is_public": true, "sockets": 2, "connector_types": "Type 2 (Socket Only)", "max_power_kw": 22.0, "current_types": "AC (Three-Phase)", "speed_tier": "Fast (7-22kW)", "has_ccs": false, "has_chademo": false, "has_type2": true, "has_type1": false, "usage_cost": "", "date_verified": "2023-12-07", "date_updated": "2023-12-07", "date_created": "2023-12-07" }, "geometry": { "type": "Point", "coordinates": [ -3.189366, 51.483564 ] } },
{ "type": "Feature", "properties": { "ocm_id": 47246, "name": "NCP Dumfries Place", "address": "Dumfries Place", "town": "Cardiff", "postcode": "CF10 3FN", "operator": "BP Pulse (UK)", "operator_id": 32, "status": "Operational", "status_id": 50, "is_operational": true, "usage_type": "Public - Membership Required", "usage_type_id": 4, "is_public": true, "sockets": 4, "connector_types": "BS1363 3 Pin 13 Amp, Type 2 (Socket Only)", "max_power_kw": 7.0, "current_types": "AC (Single-Phase)", "speed_tier": "Fast (5-7kW)", "has_ccs": false, "has_chademo": false, "has_type2": true, "has_type1": false, "usage_cost": "Inclusive; for Polar Plus subscription members only. Parking fees apply", "date_verified": "2019-03-06", "date_updated": "2019-03-06", "date_created": "2015-05-20" }, "geometry": { "type": "Point", "coordinates": [ -3.16922, 51.478001 ] } },
{ "type": "Feature", "properties": { "ocm_id": 259924, "name": "King Edward Vii Avenue", "address": "King Edward Vii Avenue", "town": "Cardiff", "postcode": "CF10 3NB", "operator": "Osprey Charging", "operator_id": 203, "status": "Operational", "status_id": 50, "is_operational": true, "usage_type": "Public - Pay At Location", "usage_type_id": 5, "is_public": true, "sockets": 4, "connector_types": "CCS (Type 2), CHAdeMO", "max_power_kw": 50.0, "current_types": "DC", "speed_tier": "Rapid (22-50kW)", "has_ccs": true, "has_chademo": true, "has_type2": false, "has_type1": false, "usage_cost": "£0.79/kWh", "date_verified": "2024-08-13", "date_updated": "2024-08-13", "date_created": "2023-04-13" }, "geometry": { "type": "Point", "coordinates": [ -3.183733, 51.488436 ] } },
{ "type": "Feature", "properties": { "ocm_id": 259891, "name": "Howard Place", "address": "Howard Place", "town": "Cardiff", "postcode": "CF24 0DE", "operator": "Osprey Charging", "operator_id": 203, "status": "Operational", "status_id": 50, "is_operational": true, "usage_type": "Public - Pay At Location", "usage_type_id": 5, "is_public": true, "sockets": 4, "connector_types": "CCS (Type 2), CHAdeMO", "max_power_kw": 50.0, "current_types": "DC", "speed_tier": "Rapid (22-50kW)", "has_ccs": true, "has_chademo": true, "has_type2": false, "has_type1": false, "usage_cost": "£0.79/kWh", "date_verified": "2024-08-13", "date_updated": "2024-08-13", "date_created": "2023-04-13" }, "geometry": { "type": "Point", "coordinates": [ -3.166332585, 51.48399914 ] } },
{ "type": "Feature", "properties": { "ocm_id": 117888, "name": "Ibis Budget Cardiff", "address": "Ibis Budget Cardiff", "town": "Tyndall Street", "postcode": "CF10 4BE", "operator": "BP Pulse (UK)", "operator_id": 32, "status": "Operational", "status_id": 50, "is_operational": true, "usage_type": "Public - Membership Required", "usage_type_id": 4, "is_public": true, "sockets": 1, "connector_types": "Type 2 (Socket Only)", "max_power_kw": 4.0, "current_types": "AC (Single-Phase)", "speed_tier": "Slow (<5kW)", "has_ccs": false, "has_chademo": false, "has_type2": true, "has_type1": false, "usage_cost": "Inclusive; for Polar Plus subscription members only", "date_verified": "2019-03-08", "date_updated": "2019-03-08", "date_created": "2019-03-08" }, "geometry": { "type": "Point", "coordinates": [ -3.168791, 51.476021 ] } },
{ "type": "Feature", "properties": { "ocm_id": 200352, "name": "Mardy Street", "address": "Mardy Street", "town": "Cardiff", "postcode": "CF11 6RD", "operator": "Evolt Network (Swarco E.Connect)", "operator_id": 3341, "status": "Unknown", "status_id": 0, "is_operational": true, "usage_type": "Public - Pay At Location", "usage_type_id": 5, "is_public": true, "sockets": 2, "connector_types": "Type 2 (Socket Only)", "max_power_kw": 7.0, "current_types": "AC (Single-Phase)", "speed_tier": "Fast (5-7kW)", "has_ccs": false, "has_chademo": false, "has_type2": true, "has_type1": false, "usage_cost": "", "date_verified": "2023-12-07", "date_updated": "2023-12-07", "date_created": "2022-08-23" }, "geometry": { "type": "Point", "coordinates": [ -3.185956, 51.474088 ] } },
{ "type": "Feature", "properties": { "ocm_id": 252001, "name": "DRAX00238", "address": "Tyndall Street", "town": "Cardiff", "postcode": "CF10 4BE", "operator": "Drax Energy Solutions Limited", "operator_id": 3614, "status": "Unknown", "status_id": 0, "is_operational": true, "usage_type": "Public - Pay At Location", "usage_type_id": 5, "is_public": true, "sockets": 2, "connector_types": "Type 2 (Socket Only)", "max_power_kw": 22.0, "current_types": "AC (Three-Phase)", "speed_tier": "Fast (7-22kW)", "has_ccs": false, "has_chademo": false, "has_type2": true, "has_type1": false, "usage_cost": "", "date_verified": "2023-05-04", "date_updated": "2023-05-04", "date_created": "2023-03-07" }, "geometry": { "type": "Point", "coordinates": [ -3.16755, 51.47672 ] } },
{ "type": "Feature", "properties": { "ocm_id": 132454, "name": "Rennie Street", "address": "Rennie Street", "town": "Cardiff", "postcode": "CF11 6EG", "operator": "Evolt Network (Swarco E.Connect)", "operator_id": 3341, "status": "Partly Operational (Mixed)", "status_id": 75, "is_operational": true, "usage_type": "Public - Pay At Location", "usage_type_id": 5, "is_public": true, "sockets": 2, "connector_types": "Type 2 (Socket Only)", "max_power_kw": 7.0, "current_types": "AC (Single-Phase)", "speed_tier": "Fast (5-7kW)", "has_ccs": false, "has_chademo": false, "has_type2": true, "has_type1": false, "usage_cost": "£0.31/kWh", "date_verified": "2019-10-02", "date_updated": "2019-10-02", "date_created": "2019-09-30" }, "geometry": { "type": "Point", "coordinates": [ -3.1951, 51.4788 ] } },
{ "type": "Feature", "properties": { "ocm_id": 285830, "name": "North Road", "address": "North Road Car Park", "town": "Cardiff", "postcode": "CF10 3DY", "operator": "Connected Kerb", "operator_id": 3509, "status": "Unknown", "status_id": 0, "is_operational": true, "usage_type": "Public", "usage_type_id": 1, "is_public": true, "sockets": 2, "connector_types": "Type 2 (Socket Only)", "max_power_kw": 7.0, "current_types": "AC (Single-Phase)", "speed_tier": "Fast (5-7kW)", "has_ccs": false, "has_chademo": false, "has_type2": true, "has_type1": false, "usage_cost": "", "date_verified": "2023-12-07", "date_updated": "2023-12-07", "date_created": "2023-12-07" }, "geometry": { "type": "Point", "coordinates": [ -3.188036, 51.490523 ] } },
{ "type": "Feature", "properties": { "ocm_id": 136139, "name": "Maindy Road", "address": "Maindy Road", "town": "Cardiff", "postcode": "CF24 4HQ", "operator": "Evolt Network (Swarco E.Connect)", "operator_id": 3341, "status": "Unknown", "status_id": 0, "is_operational": true, "usage_type": "Public - Pay At Location", "usage_type_id": 5, "is_public": true, "sockets": 2, "connector_types": "Type 2 (Socket Only)", "max_power_kw": 7.0, "current_types": "AC (Single-Phase)", "speed_tier": "Fast (5-7kW)", "has_ccs": false, "has_chademo": false, "has_type2": true, "has_type1": false, "usage_cost": "", "date_verified": "2023-12-07", "date_updated": "2023-12-07", "date_created": "2019-12-24" }, "geometry": { "type": "Point", "coordinates": [ -3.18381, 51.49265 ] } },
{ "type": "Feature", "properties": { "ocm_id": 214123, "name": "DRAX00165", "address": "Schooner Way", "town": "Cardiff", "postcode": "CF10 4RT", "operator": "Drax Energy Solutions Limited", "operator_id": 3614, "status": "Unknown", "status_id": 0, "is_operational": true, "usage_type": "Public - Pay At Location", "usage_type_id": 5, "is_public": true, "sockets": 2, "connector_types": "Type 2 (Socket Only)", "max_power_kw": 22.0, "current_types": "AC (Three-Phase)", "speed_tier": "Fast (7-22kW)", "has_ccs": false, "has_chademo": false, "has_type2": true, "has_type1": false, "usage_cost": "", "date_verified": "2023-05-04", "date_updated": "2023-05-04", "date_created": "2023-02-09" }, "geometry": { "type": "Point", "coordinates": [ -3.16607, 51.47301 ] } },
{ "type": "Feature", "properties": { "ocm_id": 132455, "name": "Severn Road Car Park ", "address": "Severn Road", "town": "Cardiff", "postcode": "CF11 9DX", "operator": "Evolt Network (Swarco E.Connect)", "operator_id": 3341, "status": "Operational", "status_id": 50, "is_operational": true, "usage_type": "Public - Pay At Location", "usage_type_id": 5, "is_public": true, "sockets": 2, "connector_types": "Type 2 (Socket Only)", "max_power_kw": 7.0, "current_types": "AC (Single-Phase)", "speed_tier": "Fast (5-7kW)", "has_ccs": false, "has_chademo": false, "has_type2": true, "has_type1": false, "usage_cost": "£0.31/kWh", "date_verified": "2019-10-02", "date_updated": "2019-10-02", "date_created": "2019-09-30" }, "geometry": { "type": "Point", "coordinates": [ -3.19883, 51.48201 ] } },
{ "type": "Feature", "properties": { "ocm_id": 187690, "name": "Kyveilog Street", "address": "Kyveilog Street", "town": "Cardiff", "postcode": "CF11 9JA", "operator": "Evolt Network (Swarco E.Connect)", "operator_id": 3341, "status": "Unknown", "status_id": 0, "is_operational": true, "usage_type": "Public", "usage_type_id": 1, "is_public": true, "sockets": 2, "connector_types": "Type 2 (Socket Only)", "max_power_kw": 7.0, "current_types": "AC (Single-Phase)", "speed_tier": "Fast (5-7kW)", "has_ccs": false, "has_chademo": false, "has_type2": true, "has_type1": false, "usage_cost": "", "date_verified": "2023-12-07", "date_updated": "2023-12-07", "date_created": "2021-07-12" }, "geometry": { "type": "Point", "coordinates": [ -3.197033, 51.487668 ] } },
{ "type": "Feature", "properties": { "ocm_id": 265999, "name": "EVC Holiday Inn Express Cardiff", "address": "Longueil Close", "town": "Cardiff", "postcode": "CF10 4EE", "operator": "Roam Charging (UK)", "operator_id": 3562, "status": "Operational", "status_id": 50, "is_operational": true, "usage_type": "Public", "usage_type_id": 1, "is_public": true, "sockets": 4, "connector_types": "Type 2 (Tethered Connector) ", "max_power_kw": 22.0, "current_types": "AC (Three-Phase)", "speed_tier": "Fast (7-22kW)", "has_ccs": false, "has_chademo": false, "has_type2": true, "has_type1": false, "usage_cost": "", "date_verified": "2023-05-26", "date_updated": "2023-05-26", "date_created": "2023-05-26" }, "geometry": { "type": "Point", "coordinates": [ -3.164669448584325, 51.472444409730244 ] } },
{ "type": "Feature", "properties": { "ocm_id": 200334, "name": "Redlaver Street", "address": "redlaver Street", "town": "Cardiff", "postcode": "CF117YL", "operator": "Evolt Network (Swarco E.Connect)", "operator_id": 3341, "status": "Unknown", "status_id": 0, "is_operational": true, "usage_type": "Public - Pay At Location", "usage_type_id": 5, "is_public": true, "sockets": 2, "connector_types": "Type 2 (Socket Only)", "max_power_kw": 7.0, "current_types": "AC (Single-Phase)", "speed_tier": "Fast (5-7kW)", "has_ccs": false, "has_chademo": false, "has_type2": true, "has_type1": false, "usage_cost": "", "date_verified": "2023-12-07", "date_updated": "2023-12-07", "date_created": "2022-08-23" }, "geometry": { "type": "Point", "coordinates": [ -3.184647, 51.469115 ] } },
{ "type": "Feature", "properties": { "ocm_id": 200416, "name": "Pontcanna Street", "address": "Pontcanna Street", "town": "Cardiff", "postcode": "CF119HQ", "operator": "Evolt Network (Swarco E.Connect)", "operator_id": 3341, "status": "Unknown", "status_id": 0, "is_operational": true, "usage_type": "Public - Pay At Location", "usage_type_id": 5, "is_public": true, "sockets": 2, "connector_types": "Type 2 (Socket Only)", "max_power_kw": 7.0, "current_types": "AC (Single-Phase)", "speed_tier": "Fast (5-7kW)", "has_ccs": false, "has_chademo": false, "has_type2": true, "has_type1": false, "usage_cost": "", "date_verified": "2023-12-07", "date_updated": "2023-12-07", "date_created": "2022-08-23" }, "geometry": { "type": "Point", "coordinates": [ -3.199894, 51.486898 ] } },
{ "type": "Feature", "properties": { "ocm_id": 115033, "name": "MFG Texaco Ninian", "address": "Sloper Road", "town": "Cardiff", "postcode": "CF11 8BN", "operator": "The GeniePoint Network ( EQUANS EV Solutions )", "operator_id": 150, "status": "Operational", "status_id": 50, "is_operational": true, "usage_type": "Public - Membership Required", "usage_type_id": 4, "is_public": true, "sockets": 3, "connector_types": "CCS (Type 2), CHAdeMO, Type 2 (Tethered Connector) ", "max_power_kw": 50.0, "current_types": "AC (Three-Phase), DC", "speed_tier": "Rapid (22-50kW)", "has_ccs": true, "has_chademo": true, "has_type2": true, "has_type1": false, "usage_cost": "£1.00 + £0.30/kWh", "date_verified": "2019-01-23", "date_updated": "2019-01-23", "date_created": "2019-01-23" }, "geometry": { "type": "Point", "coordinates": [ -3.195624, 51.469647 ] } },
{ "type": "Feature", "properties": { "ocm_id": 47476, "name": "UK Steel Enterprise Cardiff  ", "address": "Cardiff Bay Business Centre, Titan House", "town": "Cardiff ", "postcode": "CF24 5BS", "operator": "Zero Carbon World", "operator_id": 19, "status": "Operational", "status_id": 50, "is_operational": true, "usage_type": "Public", "usage_type_id": 1, "is_public": true, "sockets": 1, "connector_types": "Type 2 (Socket Only)", "max_power_kw": 7.0, "current_types": "AC (Single-Phase)", "speed_tier": "Fast (5-7kW)", "has_ccs": false, "has_chademo": false, "has_type2": true, "has_type1": false, "usage_cost": "", "date_verified": "2015-05-27", "date_updated": "2015-05-27", "date_created": "2015-05-27" }, "geometry": { "type": "Point", "coordinates": [ -3.154874, 51.476339 ] } },
{ "type": "Feature", "properties": { "ocm_id": 285770, "name": "Harvey Street", "address": "Harvey Street Car Park", "town": "Cardiff", "postcode": "CF5 1QW", "operator": "Connected Kerb", "operator_id": 3509, "status": "Unknown", "status_id": 0, "is_operational": true, "usage_type": "Public", "usage_type_id": 1, "is_public": true, "sockets": 2, "connector_types": "Type 2 (Socket Only)", "max_power_kw": 22.0, "current_types": "AC (Three-Phase)", "speed_tier": "Fast (7-22kW)", "has_ccs": false, "has_chademo": false, "has_type2": true, "has_type1": false, "usage_cost": "", "date_verified": "2023-12-07", "date_updated": "2023-12-07", "date_created": "2023-12-07" }, "geometry": { "type": "Point", "coordinates": [ -3.205278, 51.48224 ] } },
{ "type": "Feature", "properties": { "ocm_id": 132459, "name": "Turning Head Car Park - Cardiff", "address": "Penhill Road", "town": "Cardiff", "postcode": "CF11 9QJ", "operator": "Evolt Network (Swarco E.Connect)", "operator_id": 3341, "status": "Operational", "status_id": 50, "is_operational": true, "usage_type": "Public - Pay At Location", "usage_type_id": 5, "is_public": true, "sockets": 2, "connector_types": "Type 2 (Socket Only)", "max_power_kw": 7.0, "current_types": "AC (Single-Phase)", "speed_tier": "Fast (5-7kW)", "has_ccs": false, "has_chademo": false, "has_type2": true, "has_type1": false, "usage_cost": "£0.31/kWh", "date_verified": "2019-10-02", "date_updated": "2019-10-02", "date_created": "2019-09-30" }, "geometry": { "type": "Point", "coordinates": [ -3.2036, 51.48915 ] } },
{ "type": "Feature", "properties": { "ocm_id": 132456, "name": "Anglesey Street - Cardiff", "address": "Anglesey Street", "town": "Cardiff", "postcode": "CF5 1QZ", "operator": "Evolt Network (Swarco E.Connect)", "operator_id": 3341, "status": "Operational", "status_id": 50, "is_operational": true, "usage_type": "Public - Pay At Location", "usage_type_id": 5, "is_public": true, "sockets": 2, "connector_types": "Type 2 (Socket Only)", "max_power_kw": 7.0, "current_types": "AC (Single-Phase)", "speed_tier": "Fast (5-7kW)", "has_ccs": false, "has_chademo": false, "has_type2": true, "has_type1": false, "usage_cost": "£0.31/kWh", "date_verified": "2019-10-02", "date_updated": "2019-10-02", "date_created": "2019-09-30" }, "geometry": { "type": "Point", "coordinates": [ -3.20707, 51.48313 ] } },
{ "type": "Feature", "properties": { "ocm_id": 132462, "name": "Penylan Library Car Park - Cardiff", "address": "Penylan Library Car Park", "town": "Cardiff", "postcode": "CF23 5HW", "operator": "Evolt Network (Swarco E.Connect)", "operator_id": 3341, "status": "Operational", "status_id": 50, "is_operational": true, "usage_type": "Public - Pay At Location", "usage_type_id": 5, "is_public": true, "sockets": 2, "connector_types": "Type 2 (Socket Only)", "max_power_kw": 7.0, "current_types": "AC (Single-Phase)", "speed_tier": "Fast (5-7kW)", "has_ccs": false, "has_chademo": false, "has_type2": true, "has_type1": false, "usage_cost": "£0.31/kWh", "date_verified": "2019-10-02", "date_updated": "2019-10-02", "date_created": "2019-09-30" }, "geometry": { "type": "Point", "coordinates": [ -3.1645, 51.49677 ] } },
{ "type": "Feature", "properties": { "ocm_id": 285931, "name": "Tewkesbury Place", "address": "Tewkesbury Place", "town": "Cardiff", "postcode": "CF24 4QF", "operator": "Connected Kerb", "operator_id": 3509, "status": "Unknown", "status_id": 0, "is_operational": true, "usage_type": "Public", "usage_type_id": 1, "is_public": true, "sockets": 2, "connector_types": "Type 2 (Socket Only)", "max_power_kw": 7.0, "current_types": "AC (Single-Phase)", "speed_tier": "Fast (5-7kW)", "has_ccs": false, "has_chademo": false, "has_type2": true, "has_type1": false, "usage_cost": "", "date_verified": "2023-12-07", "date_updated": "2023-12-07", "date_created": "2023-12-07" }, "geometry": { "type": "Point", "coordinates": [ -3.178055, 51.50026 ] } },
{ "type": "Feature", "properties": { "ocm_id": 101686, "name": "Q-Park Cardiff Bay", "address": "Q-Park Cardiff Bay", "town": "Pierhead Street", "postcode": "CF10 4PH", "operator": "BP Pulse (UK)", "operator_id": 32, "status": "Operational", "status_id": 50, "is_operational": true, "usage_type": "Public - Membership Required", "usage_type_id": 4, "is_public": true, "sockets": 3, "connector_types": "CCS (Type 2), CHAdeMO, Type 2 (Tethered Connector) ", "max_power_kw": 50.0, "current_types": "AC (Three-Phase), DC", "speed_tier": "Rapid (22-50kW)", "has_ccs": true, "has_chademo": true, "has_type2": true, "has_type1": false, "usage_cost": "£0.79/kWh; other tariffs available", "date_verified": "2023-08-23", "date_updated": "2023-08-23", "date_created": "2018-04-04" }, "geometry": { "type": "Point", "coordinates": [ -3.1625, 51.465801 ] } },
{ "type": "Feature", "properties": { "ocm_id": 260025, "name": "Bute Crescent", "address": "Bute Crescent", "town": "Cardiff", "postcode": "CF10 5AN", "operator": "Osprey Charging", "operator_id": 203, "status": "Operational", "status_id": 50, "is_operational": true, "usage_type": "Public - Pay At Location", "usage_type_id": 5, "is_public": true, "sockets": 4, "connector_types": "CCS (Type 2), CHAdeMO", "max_power_kw": 50.0, "current_types": "DC", "speed_tier": "Rapid (22-50kW)", "has_ccs": true, "has_chademo": true, "has_type2": false, "has_type1": false, "usage_cost": "£0.79/kWh", "date_verified": "2024-08-13", "date_updated": "2024-08-13", "date_created": "2023-04-13" }, "geometry": { "type": "Point", "coordinates": [ -3.1649849, 51.464247 ] } },
{ "type": "Feature", "properties": { "ocm_id": 258892, "name": "IKEA Cardiff", "address": "Ferry Road", "town": "Grangetown", "postcode": "CF11 0JR", "operator": "Electric Highway (UK)", "operator_id": 24, "status": "Operational", "status_id": 50, "is_operational": true, "usage_type": "Public - Pay At Location", "usage_type_id": 5, "is_public": true, "sockets": 3, "connector_types": "CCS (Type 2), CHAdeMO, Type 2 (Socket Only)", "max_power_kw": 50.0, "current_types": "AC (Three-Phase), DC", "speed_tier": "Rapid (22-50kW)", "has_ccs": true, "has_chademo": true, "has_type2": true, "has_type1": false, "usage_cost": "DC: £0.79/kWh", "date_verified": "2023-11-30", "date_updated": "2023-11-30", "date_created": "2023-03-26" }, "geometry": { "type": "Point", "coordinates": [ -3.188446, 51.462816 ] } },
{ "type": "Feature", "properties": { "ocm_id": 132460, "name": "Stallcourt Avenue - Cardiff", "address": "Stallcourt Avenue", "town": "Cardiff", "postcode": "CF23 5AN", "operator": "Evolt Network (Swarco E.Connect)", "operator_id": 3341, "status": "Operational", "status_id": 50, "is_operational": true, "usage_type": "Public - Pay At Location", "usage_type_id": 5, "is_public": true, "sockets": 2, "connector_types": "Type 2 (Socket Only)", "max_power_kw": 7.0, "current_types": "AC (Single-Phase)", "speed_tier": "Fast (5-7kW)", "has_ccs": false, "has_chademo": false, "has_type2": true, "has_type1": false, "usage_cost": "£0.31/kWh", "date_verified": "2019-10-02", "date_updated": "2019-10-02", "date_created": "2019-09-30" }, "geometry": { "type": "Point", "coordinates": [ -3.15485, 51.4946 ] } },
{ "type": "Feature", "properties": { "ocm_id": 132461, "name": "Waterloo Road - Cardiff", "address": "Waterloo Road", "town": "Cardiff", "postcode": "CF23 5DX", "operator": "Evolt Network (Swarco E.Connect)", "operator_id": 3341, "status": "Operational", "status_id": 50, "is_operational": true, "usage_type": "Public - Pay At Location", "usage_type_id": 5, "is_public": true, "sockets": 2, "connector_types": "Type 2 (Socket Only)", "max_power_kw": 7.0, "current_types": "AC (Single-Phase)", "speed_tier": "Fast (5-7kW)", "has_ccs": false, "has_chademo": false, "has_type2": true, "has_type1": false, "usage_cost": "£0.31/kWh", "date_verified": "2019-10-02", "date_updated": "2019-10-02", "date_created": "2019-09-30" }, "geometry": { "type": "Point", "coordinates": [ -3.15663, 51.49655 ] } },
{ "type": "Feature", "properties": { "ocm_id": 9814, "name": "Wessex Garages Cardiff", "address": "Hadfield Road", "town": "Cardiff", "postcode": "CF11 8AQ", "operator": "(Business Owner at Location)", "operator_id": 45, "status": "Unknown", "status_id": 0, "is_operational": true, "usage_type": "Private - For Staff, Visitors or Customers", "usage_type_id": 6, "is_public": false, "sockets": 4, "connector_types": "BS1363 3 Pin 13 Amp, CHAdeMO", "max_power_kw": 50.0, "current_types": "AC (Single-Phase), DC", "speed_tier": "Rapid (22-50kW)", "has_ccs": false, "has_chademo": true, "has_type2": false, "has_type1": false, "usage_cost": "Free", "date_verified": "2018-06-14", "date_updated": "2018-06-14", "date_created": "2012-04-30" }, "geometry": { "type": "Point", "coordinates": [ -3.20170359999997, 51.4665486 ] } },
{ "type": "Feature", "properties": { "ocm_id": 260002, "name": "Britannia Quay", "address": "Britannia Quay", "town": "Cardiff", "postcode": "CF10 4PB", "operator": "Osprey Charging", "operator_id": 203, "status": "Operational", "status_id": 50, "is_operational": true, "usage_type": "Public - Pay At Location", "usage_type_id": 5, "is_public": true, "sockets": 4, "connector_types": "CCS (Type 2), CHAdeMO", "max_power_kw": 50.0, "current_types": "DC", "speed_tier": "Rapid (22-50kW)", "has_ccs": true, "has_chademo": true, "has_type2": false, "has_type1": false, "usage_cost": "£0.79/kWh", "date_verified": "2024-08-29", "date_updated": "2024-08-29", "date_created": "2023-04-13" }, "geometry": { "type": "Point", "coordinates": [ -3.160242, 51.464363 ] } },
{ "type": "Feature", "properties": { "ocm_id": 251500, "name": "Bettws Lane Car Park, Newport", "address": "Bettws Lane Car Park", "town": "Cardiff", "postcode": "CF10 5SG", "operator": "Connected Kerb", "operator_id": 3509, "status": "Unknown", "status_id": 0, "is_operational": true, "usage_type": "Public", "usage_type_id": 1, "is_public": true, "sockets": 2, "connector_types": "Type 2 (Socket Only)", "max_power_kw": 7.0, "current_types": "AC (Single-Phase)", "speed_tier": "Fast (5-7kW)", "has_ccs": false, "has_chademo": false, "has_type2": true, "has_type1": false, "usage_cost": "", "date_verified": "2023-05-04", "date_updated": "2023-05-04", "date_created": "2023-03-07" }, "geometry": { "type": "Point", "coordinates": [ -3.168205, 51.461555 ] } },
{ "type": "Feature", "properties": { "ocm_id": 94121, "name": "Wessex Garages Cardiff", "address": "289 Penarth Road", "town": "Cardiff", "postcode": "CF11 8AQ", "operator": "Nissan UK Dealer Network", "operator_id": 7, "status": "Operational", "status_id": 50, "is_operational": true, "usage_type": "Public - Membership Required", "usage_type_id": 4, "is_public": true, "sockets": 2, "connector_types": "Type 2 (Socket Only)", "max_power_kw": 7.0, "current_types": "AC (Single-Phase)", "speed_tier": "Fast (5-7kW)", "has_ccs": false, "has_chademo": false, "has_type2": true, "has_type1": false, "usage_cost": "1", "date_verified": "2024-11-15", "date_updated": "2024-11-15", "date_created": "2017-10-17" }, "geometry": { "type": "Point", "coordinates": [ -3.206283, 51.468083 ] } },
{ "type": "Feature", "properties": { "ocm_id": 127599, "name": "Voco St David's Hotel", "address": "Voco St David's Hotel", "town": "", "postcode": "cf10 5sd", "operator": "Tesla (Tesla-only charging)", "operator_id": 23, "status": "Operational", "status_id": 50, "is_operational": true, "usage_type": "Public - Membership Required", "usage_type_id": 4, "is_public": true, "sockets": 2, "connector_types": "Tesla (Model S/X)", "max_power_kw": 7.0, "current_types": "AC (Three-Phase)", "speed_tier": "Fast (5-7kW)", "has_ccs": false, "has_chademo": false, "has_type2": false, "has_type1": false, "usage_cost": "", "date_verified": "2019-06-05", "date_updated": "2019-06-05", "date_created": "2019-06-05" }, "geometry": { "type": "Point", "coordinates": [ -3.167412, 51.460517 ] } },
{ "type": "Feature", "properties": { "ocm_id": 285780, "name": "Star Hub", "address": "Star Hub Car Park", "town": "Cardiff", "postcode": "CF24 2SJ", "operator": "Connected Kerb", "operator_id": 3509, "status": "Unknown", "status_id": 0, "is_operational": true, "usage_type": "Public", "usage_type_id": 1, "is_public": true, "sockets": 2, "connector_types": "Type 2 (Socket Only)", "max_power_kw": 22.0, "current_types": "AC (Three-Phase)", "speed_tier": "Fast (7-22kW)", "has_ccs": false, "has_chademo": false, "has_type2": true, "has_type1": false, "usage_cost": "", "date_verified": "2023-12-07", "date_updated": "2023-12-07", "date_created": "2023-12-07" }, "geometry": { "type": "Point", "coordinates": [ -3.143337, 51.484894 ] } },
{ "type": "Feature", "properties": { "ocm_id": 210279, "name": "Tesco Extra-Cardiff", "address": "Excelsior Estate", "town": "Excelsior Road", "postcode": "CF14 3AT", "operator": "POD Point (UK)", "operator_id": 3, "status": "Operational", "status_id": 50, "is_operational": true, "usage_type": "Public - Membership Required", "usage_type_id": 4, "is_public": true, "sockets": 6, "connector_types": "CCS (Type 2), CHAdeMO, Type 2 (Socket Only)", "max_power_kw": 50.0, "current_types": "AC (Single-Phase), AC (Three-Phase), DC", "speed_tier": "Rapid (22-50kW)", "has_ccs": true, "has_chademo": true, "has_type2": true, "has_type1": false, "usage_cost": "£0.44/kWh", "date_verified": "2023-10-09", "date_updated": "2023-10-09", "date_created": "2022-12-07" }, "geometry": { "type": "Point", "coordinates": [ -3.2071764, 51.49791839 ] } },
{ "type": "Feature", "properties": { "ocm_id": 260691, "name": "University of Wales Hospital", "address": "Heath Road", "town": "Cardiff", "postcode": "CF14 4XW", "operator": "POD Point (UK)", "operator_id": 3, "status": "Operational", "status_id": 50, "is_operational": true, "usage_type": "Public - Membership Required", "usage_type_id": 4, "is_public": true, "sockets": 12, "connector_types": "Type 2 (Socket Only)", "max_power_kw": 7.0, "current_types": "AC (Single-Phase)", "speed_tier": "Fast (5-7kW)", "has_ccs": false, "has_chademo": false, "has_type2": true, "has_type1": false, "usage_cost": "£0.272/kWh", "date_verified": "2024-07-09", "date_updated": "2024-07-09", "date_created": "2023-04-26" }, "geometry": { "type": "Point", "coordinates": [ -3.18741, 51.50591 ] } },
{ "type": "Feature", "properties": { "ocm_id": 132457, "name": "Victoria Park Road - Cardiff", "address": "Victoria Park Road", "town": "Cardiff", "postcode": "CF5 1EZ", "operator": "Evolt Network (Swarco E.Connect)", "operator_id": 3341, "status": "Operational", "status_id": 50, "is_operational": true, "usage_type": "Public - Pay At Location", "usage_type_id": 5, "is_public": true, "sockets": 2, "connector_types": "Type 2 (Socket Only)", "max_power_kw": 7.0, "current_types": "AC (Single-Phase)", "speed_tier": "Fast (5-7kW)", "has_ccs": false, "has_chademo": false, "has_type2": true, "has_type1": false, "usage_cost": "£0.31/kWh", "date_verified": "2019-10-02", "date_updated": "2019-10-02", "date_created": "2019-09-30" }, "geometry": { "type": "Point", "coordinates": [ -3.21936, 51.48322 ] } },
{ "type": "Feature", "properties": { "ocm_id": 132458, "name": "Butleigh Avenue - Cardiff", "address": "Butleigh Avenue", "town": "Cardiff", "postcode": "CF5 1AP", "operator": "Evolt Network (Swarco E.Connect)", "operator_id": 3341, "status": "Operational", "status_id": 50, "is_operational": true, "usage_type": "Public - Pay At Location", "usage_type_id": 5, "is_public": true, "sockets": 2, "connector_types": "Type 2 (Socket Only)", "max_power_kw": 7.0, "current_types": "AC (Single-Phase)", "speed_tier": "Fast (5-7kW)", "has_ccs": false, "has_chademo": false, "has_type2": true, "has_type1": false, "usage_cost": "£0.31/kWh", "date_verified": "2019-10-02", "date_updated": "2019-10-02", "date_created": "2019-09-30" }, "geometry": { "type": "Point", "coordinates": [ -3.22232, 51.48595 ] } },
{ "type": "Feature", "properties": { "ocm_id": 200454, "name": "Llandaff High Street Car Park", "address": "Llandaff High Street Car Park", "town": "Cardiff", "postcode": "CF5 2DX", "operator": "Evolt Network (Swarco E.Connect)", "operator_id": 3341, "status": "Unknown", "status_id": 0, "is_operational": true, "usage_type": "Public - Pay At Location", "usage_type_id": 5, "is_public": true, "sockets": 2, "connector_types": "Type 2 (Socket Only)", "max_power_kw": 7.0, "current_types": "AC (Single-Phase)", "speed_tier": "Fast (5-7kW)", "has_ccs": false, "has_chademo": false, "has_type2": true, "has_type1": false, "usage_cost": "", "date_verified": "2023-12-07", "date_updated": "2023-12-07", "date_created": "2022-08-23" }, "geometry": { "type": "Point", "coordinates": [ -3.218335, 51.494256 ] } },
{ "type": "Feature", "properties": { "ocm_id": 205042, "name": "Tesco Extra-Cardiff Pengam", "address": "Eastern Bay Road", "town": "Pengam Green", "postcode": "CF24 2HP", "operator": "POD Point (UK)", "operator_id": 3, "status": "Operational", "status_id": 50, "is_operational": true, "usage_type": "Public - Membership Required", "usage_type_id": 4, "is_public": true, "sockets": 4, "connector_types": "Type 2 (Socket Only)", "max_power_kw": 7.0, "current_types": "AC (Single-Phase)", "speed_tier": "Fast (5-7kW)", "has_ccs": false, "has_chademo": false, "has_type2": true, "has_type1": false, "usage_cost": "£0.44/kWh", "date_verified": "2023-04-12", "date_updated": "2023-04-12", "date_created": "2022-10-03" }, "geometry": { "type": "Point", "coordinates": [ -3.127919, 51.487998 ] } },
{ "type": "Feature", "properties": { "ocm_id": 285963, "name": "College Road, Cardiff", "address": "College Road", "town": "Cardiff", "postcode": "CF14 2HJ", "operator": "Connected Kerb", "operator_id": 3509, "status": "Unknown", "status_id": 0, "is_operational": true, "usage_type": "Public", "usage_type_id": 1, "is_public": true, "sockets": 2, "connector_types": "Type 2 (Socket Only)", "max_power_kw": 22.0, "current_types": "AC (Three-Phase)", "speed_tier": "Fast (7-22kW)", "has_ccs": false, "has_chademo": false, "has_type2": true, "has_type1": false, "usage_cost": "", "date_verified": "2023-12-07", "date_updated": "2023-12-07", "date_created": "2023-12-07" }, "geometry": { "type": "Point", "coordinates": [ -3.220884, 51.502182 ] } },
{ "type": "Feature", "properties": { "ocm_id": 285666, "name": "Tesco Superstore - Penarth", "address": "Terra Nova Way", "town": "Penarth", "postcode": "CF64 1SA", "operator": "POD Point (UK)", "operator_id": 3, "status": "Unknown", "status_id": 0, "is_operational": true, "usage_type": "Public", "usage_type_id": 1, "is_public": true, "sockets": 2, "connector_types": "Type 2 (Socket Only)", "max_power_kw": 7.0, "current_types": "AC (Single-Phase)", "speed_tier": "Fast (5-7kW)", "has_ccs": false, "has_chademo": false, "has_type2": true, "has_type1": false, "usage_cost": "", "date_verified": "2025-03-10", "date_updated": "2025-03-10", "date_created": "2023-12-07" }, "geometry": { "type": "Point", "coordinates": [ -3.186151, 51.445999 ] } },
{ "type": "Feature", "properties": { "ocm_id": 259952, "name": "Three Arches", "address": "Three Arches", "town": "Heathwood Road", "postcode": "CF14 4HS", "operator": "Osprey Charging", "operator_id": 203, "status": "Operational", "status_id": 50, "is_operational": true, "usage_type": "Public - Pay At Location", "usage_type_id": 5, "is_public": true, "sockets": 4, "connector_types": "CCS (Type 2), CHAdeMO", "max_power_kw": 75.0, "current_types": "DC", "speed_tier": "Ultra-Rapid (50-100kW)", "has_ccs": true, "has_chademo": true, "has_type2": false, "has_type1": false, "usage_cost": "£0.79/kWh", "date_verified": "2024-08-29", "date_updated": "2024-08-29", "date_created": "2023-04-13" }, "geometry": { "type": "Point", "coordinates": [ -3.180886, 51.519434 ] } },
{ "type": "Feature", "properties": { "ocm_id": 187747, "name": "Cardiff & Vale University Health Board", "address": "Woodlands House", "town": "Cardiff", "postcode": "CF14 4HH", "operator": "POD Point (UK)", "operator_id": 3, "status": "Unknown", "status_id": 0, "is_operational": true, "usage_type": "Public", "usage_type_id": 1, "is_public": true, "sockets": 1, "connector_types": "Type 2 (Socket Only)", "max_power_kw": 7.0, "current_types": "AC (Single-Phase)", "speed_tier": "Fast (5-7kW)", "has_ccs": false, "has_chademo": false, "has_type2": true, "has_type1": false, "usage_cost": "", "date_verified": "2023-05-04", "date_updated": "2023-05-04", "date_created": "2021-07-12" }, "geometry": { "type": "Point", "coordinates": [ -3.194338, 51.520046 ] } },
{ "type": "Feature", "properties": { "ocm_id": 285657, "name": "Arcott Street, Barry", "address": "Arcott Street", "town": "Barry", "postcode": "CF64 1ET", "operator": "Connected Kerb", "operator_id": 3509, "status": "Unknown", "status_id": 0, "is_operational": true, "usage_type": "Public", "usage_type_id": 1, "is_public": true, "sockets": 2, "connector_types": "Type 2 (Socket Only)", "max_power_kw": 22.0, "current_types": "AC (Three-Phase)", "speed_tier": "Fast (7-22kW)", "has_ccs": false, "has_chademo": false, "has_type2": true, "has_type1": false, "usage_cost": "", "date_verified": "2023-12-07", "date_updated": "2023-12-07", "date_created": "2023-12-07" }, "geometry": { "type": "Point", "coordinates": [ -3.176069, 51.44093 ] } },
{ "type": "Feature", "properties": { "ocm_id": 286066, "name": "Penlline Road, Cardiff", "address": "Penlline Road Car Park", "town": "Cardiff", "postcode": "CF14 2AA", "operator": "Connected Kerb", "operator_id": 3509, "status": "Unknown", "status_id": 0, "is_operational": true, "usage_type": "Public", "usage_type_id": 1, "is_public": true, "sockets": 3, "connector_types": "CCS (Type 2), CHAdeMO, Type 2 (Tethered Connector) ", "max_power_kw": 50.0, "current_types": "AC (Three-Phase), DC", "speed_tier": "Rapid (22-50kW)", "has_ccs": true, "has_chademo": true, "has_type2": true, "has_type1": false, "usage_cost": "", "date_verified": "2025-10-14", "date_updated": "2025-10-14", "date_created": "2023-12-07" }, "geometry": { "type": "Point", "coordinates": [ -3.22064918648698, 51.514429096004591 ] } },
{ "type": "Feature", "properties": { "ocm_id": 285651, "name": "Albert Road, Barry", "address": "Albert Road, Vale of Glamorgan", "town": "Barry", "postcode": "CF64 1BZ", "operator": "Connected Kerb", "operator_id": 3509, "status": "Unknown", "status_id": 0, "is_operational": true, "usage_type": "Public", "usage_type_id": 1, "is_public": true, "sockets": 2, "connector_types": "Type 2 (Socket Only)", "max_power_kw": 7.0, "current_types": "AC (Single-Phase)", "speed_tier": "Fast (5-7kW)", "has_ccs": false, "has_chademo": false, "has_type2": true, "has_type1": false, "usage_cost": "", "date_verified": "2023-12-07", "date_updated": "2023-12-07", "date_created": "2023-12-07" }, "geometry": { "type": "Point", "coordinates": [ -3.173322, 51.439078 ] } },
{ "type": "Feature", "properties": { "ocm_id": 100171, "name": "InstaVolt Bannatyne Health Club & Spa", "address": "Parc Ty Glas", "town": "Cardiff", "postcode": "CF14 5DU", "operator": "InstaVolt Ltd", "operator_id": 3296, "status": "Operational", "status_id": 50, "is_operational": true, "usage_type": "Public - Pay At Location", "usage_type_id": 5, "is_public": true, "sockets": 4, "connector_types": "CCS (Type 2), CHAdeMO", "max_power_kw": 50.0, "current_types": "DC", "speed_tier": "Rapid (22-50kW)", "has_ccs": true, "has_chademo": true, "has_type2": false, "has_type1": false, "usage_cost": "£0.75/kWh", "date_verified": "2023-04-03", "date_updated": "2023-04-03", "date_created": "2018-02-15" }, "geometry": { "type": "Point", "coordinates": [ -3.1918042, 51.5242172 ] } },
{ "type": "Feature", "properties": { "ocm_id": 200520, "name": "Ty Glas Road", "address": "Ty Glas Road", "town": "Cardiff", "postcode": "CF14 5EB", "operator": "The GeniePoint Network ( EQUANS EV Solutions )", "operator_id": 150, "status": "Unknown", "status_id": 0, "is_operational": true, "usage_type": "Public - Pay At Location", "usage_type_id": 5, "is_public": true, "sockets": 3, "connector_types": "CHAdeMO, Type 2 (Tethered Connector) ", "max_power_kw": 50.0, "current_types": "AC (Three-Phase), DC", "speed_tier": "Rapid (22-50kW)", "has_ccs": false, "has_chademo": true, "has_type2": true, "has_type1": false, "usage_cost": "", "date_verified": "2023-02-09", "date_updated": "2023-02-09", "date_created": "2022-08-23" }, "geometry": { "type": "Point", "coordinates": [ -3.202318, 51.52515 ] } },
{ "type": "Feature", "properties": { "ocm_id": 214029, "name": "Cliff Parade Car Park", "address": "Cliff Parade Car Park", "town": "Penarth", "postcode": "CF64 5BP", "operator": "Connected Kerb", "operator_id": 3509, "status": "Unknown", "status_id": 0, "is_operational": true, "usage_type": "Public - Pay At Location", "usage_type_id": 5, "is_public": true, "sockets": 2, "connector_types": "Type 2 (Socket Only)", "max_power_kw": 7.0, "current_types": "AC (Single-Phase)", "speed_tier": "Fast (5-7kW)", "has_ccs": false, "has_chademo": false, "has_type2": true, "has_type1": false, "usage_cost": "", "date_verified": "2023-02-13", "date_updated": "2023-02-13", "date_created": "2023-02-09" }, "geometry": { "type": "Point", "coordinates": [ -3.17186, 51.42745 ] } },
{ "type": "Feature", "properties": { "ocm_id": 256844, "name": "Spire Cardiff Hospital", "address": "Croescadarn Road", "town": "Cardiff", "postcode": "CF23 8XL", "operator": "Vend Electric", "operator_id": 3473, "status": "Operational", "status_id": 50, "is_operational": true, "usage_type": "Public - Membership Required", "usage_type_id": 4, "is_public": true, "sockets": 4, "connector_types": "Type 2 (Socket Only)", "max_power_kw": 11.0, "current_types": "AC (Three-Phase)", "speed_tier": "Fast (7-22kW)", "has_ccs": false, "has_chademo": false, "has_type2": true, "has_type1": false, "usage_cost": "£0.20/kWh", "date_verified": "2023-03-13", "date_updated": "2023-03-13", "date_created": "2023-03-13" }, "geometry": { "type": "Point", "coordinates": [ -3.141247088908067, 51.530774592319752 ] } },
{ "type": "Feature", "properties": { "ocm_id": 16281, "name": "G24 Innovations", "address": "Newlands Road", "town": "Newport", "postcode": "CF3 2GH", "operator": "POD Point (UK)", "operator_id": 3, "status": "Unknown", "status_id": 0, "is_operational": true, "usage_type": "Private - For Staff, Visitors or Customers", "usage_type_id": 6, "is_public": false, "sockets": 2, "connector_types": "BS1363 3 Pin 13 Amp", "max_power_kw": 3.0, "current_types": "AC (Single-Phase)", "speed_tier": "Slow (<5kW)", "has_ccs": false, "has_chademo": false, "has_type2": false, "has_type1": false, "usage_cost": "Free", "date_verified": "2017-10-10", "date_updated": "2017-10-10", "date_created": "2013-03-27" }, "geometry": { "type": "Point", "coordinates": [ -3.101256, 51.506864 ] } },
{ "type": "Feature", "properties": { "ocm_id": 201478, "name": "Tesla Cardiff", "address": "Croescadarn Road", "town": "Cardiff", "postcode": "CF23 8HE", "operator": "Tesla (including non-tesla)", "operator_id": 3534, "status": "Operational", "status_id": 50, "is_operational": true, "usage_type": "Public - Membership Required", "usage_type_id": 4, "is_public": true, "sockets": 8, "connector_types": "CCS (Type 2)", "max_power_kw": 250.0, "current_types": "DC", "speed_tier": "Ultra-Rapid (>100kW)", "has_ccs": true, "has_chademo": false, "has_type2": false, "has_type1": false, "usage_cost": "", "date_verified": "2022-09-01", "date_updated": "2022-09-01", "date_created": "2022-09-01" }, "geometry": { "type": "Point", "coordinates": [ -3.139770854898643, 51.53149670395635 ] } },
{ "type": "Feature", "properties": { "ocm_id": 13553, "name": "ASDA Cardiff Coryton Supercentre", "address": "1 Longwood Drive", "town": "Cardiff", "postcode": "CF14 7EW", "operator": "BP Pulse (UK)", "operator_id": 32, "status": "Operational", "status_id": 50, "is_operational": true, "usage_type": "Public - Membership Required", "usage_type_id": 4, "is_public": true, "sockets": 4, "connector_types": "BS1363 3 Pin 13 Amp, Type 2 (Socket Only)", "max_power_kw": 7.0, "current_types": "AC (Single-Phase)", "speed_tier": "Fast (5-7kW)", "has_ccs": false, "has_chademo": false, "has_type2": true, "has_type1": false, "usage_cost": "Inclusive; for Polar Plus subscription members only", "date_verified": "2019-03-05", "date_updated": "2019-03-05", "date_created": "2012-11-07" }, "geometry": { "type": "Point", "coordinates": [ -3.242433, 51.524136 ] } },
{ "type": "Feature", "properties": { "ocm_id": 149140, "name": "Tesco Extra-Culverhouse Cross", "address": "Culverhouse Cross", "town": "Cardiff", "postcode": "CF5 6XQ", "operator": "POD Point (UK)", "operator_id": 3, "status": "Operational", "status_id": 50, "is_operational": true, "usage_type": "Public - Membership Required", "usage_type_id": 4, "is_public": true, "sockets": 4, "connector_types": "Type 2 (Socket Only)", "max_power_kw": 7.0, "current_types": "AC (Single-Phase)", "speed_tier": "Fast (5-7kW)", "has_ccs": false, "has_chademo": false, "has_type2": true, "has_type1": false, "usage_cost": "£0.44/kWh", "date_verified": "2023-04-09", "date_updated": "2023-04-09", "date_created": "2020-02-19" }, "geometry": { "type": "Point", "coordinates": [ -3.274567, 51.466577 ] } },
{ "type": "Feature", "properties": { "ocm_id": 259469, "name": "InstaVolt Valegate Retail Park", "address": "Valegate Retail Park", "town": "Cardiff", "postcode": "CF5 6EH", "operator": "InstaVolt Ltd", "operator_id": 3296, "status": "Operational", "status_id": 50, "is_operational": true, "usage_type": "Public - Pay At Location", "usage_type_id": 5, "is_public": true, "sockets": 4, "connector_types": "CCS (Type 2), CHAdeMO", "max_power_kw": 120.0, "current_types": "DC", "speed_tier": "Ultra-Rapid (>100kW)", "has_ccs": true, "has_chademo": true, "has_type2": false, "has_type1": false, "usage_cost": "£0.75/kWh", "date_verified": "2023-04-03", "date_updated": "2023-04-03", "date_created": "2023-04-03" }, "geometry": { "type": "Point", "coordinates": [ -3.2746159, 51.464141 ] } },
{ "type": "Feature", "properties": { "ocm_id": 286092, "name": "Tesco Superstore - St Mellons", "address": "Crickhowell Road", "town": "Cardiff", "postcode": "CF3 0EF", "operator": "POD Point (UK)", "operator_id": 3, "status": "Unknown", "status_id": 0, "is_operational": true, "usage_type": "Public", "usage_type_id": 1, "is_public": true, "sockets": 2, "connector_types": "Type 2 (Socket Only)", "max_power_kw": 7.0, "current_types": "AC (Single-Phase)", "speed_tier": "Fast (5-7kW)", "has_ccs": false, "has_chademo": false, "has_type2": true, "has_type1": false, "usage_cost": "", "date_verified": "2025-03-10", "date_updated": "2025-03-10", "date_created": "2023-12-07" }, "geometry": { "type": "Point", "coordinates": [ -3.103756, 51.524775 ] } },
{ "type": "Feature", "properties": { "ocm_id": 258962, "name": "Welcome Break Cardiff Gate Services", "address": "M4 Motorway", "town": "Cardiff", "postcode": "CF23 8RA", "operator": "GridServe", "operator_id": 3430, "status": "Operational", "status_id": 50, "is_operational": true, "usage_type": "Public - Pay At Location", "usage_type_id": 5, "is_public": true, "sockets": 5, "connector_types": "CCS (Type 2), CHAdeMO, Type 2 (Socket Only)", "max_power_kw": 60.0, "current_types": "AC (Three-Phase), DC", "speed_tier": "Ultra-Rapid (50-100kW)", "has_ccs": true, "has_chademo": true, "has_type2": true, "has_type1": false, "usage_cost": "DC (contactless): £0.85/kWh, DC (GRIDSERVE app): £0.79/kWh", "date_verified": "2025-04-28", "date_updated": "2025-04-28", "date_created": "2023-03-26" }, "geometry": { "type": "Point", "coordinates": [ -3.129829, 51.539266 ] } },
{ "type": "Feature", "properties": { "ocm_id": 260847, "name": "Cosmeston Lakes Country Car Park", "address": "Cosmeston Lakes Country Car Park", "town": "Penarth", "postcode": "CF64 5UY", "operator": "Connected Kerb", "operator_id": 3509, "status": "Unknown", "status_id": 0, "is_operational": true, "usage_type": "Public", "usage_type_id": 1, "is_public": true, "sockets": 2, "connector_types": "Type 2 (Socket Only)", "max_power_kw": 22.0, "current_types": "AC (Three-Phase)", "speed_tier": "Fast (7-22kW)", "has_ccs": false, "has_chademo": false, "has_type2": true, "has_type1": false, "usage_cost": "", "date_verified": "2023-05-03", "date_updated": "2023-05-03", "date_created": "2023-05-01" }, "geometry": { "type": "Point", "coordinates": [ -3.182292, 51.415938 ] } },
{ "type": "Feature", "properties": { "ocm_id": 127106, "name": "Dŵr Cymru Welsh Water St. Mellons", "address": "St. Mellons Business Park", "town": "Cardiff", "postcode": "CF3 0LT", "operator": "Hubsta", "operator_id": 3356, "status": "Operational", "status_id": 50, "is_operational": true, "usage_type": "Private - For Staff, Visitors or Customers", "usage_type_id": 6, "is_public": false, "sockets": 2, "connector_types": "Type 2 (Socket Only)", "max_power_kw": 7.0, "current_types": "AC (Single-Phase)", "speed_tier": "Fast (5-7kW)", "has_ccs": false, "has_chademo": false, "has_type2": true, "has_type1": false, "usage_cost": "", "date_verified": "2019-05-27", "date_updated": "2019-05-27", "date_created": "2019-05-27" }, "geometry": { "type": "Point", "coordinates": [ -3.081929, 51.529847 ] } },
{ "type": "Feature", "properties": { "ocm_id": 285575, "name": "Cadoxton Moors Community Centre, Barry", "address": "Cadoxton Moors Community Centre", "town": "Barry", "postcode": "CF63 2NX", "operator": "Connected Kerb", "operator_id": 3509, "status": "Unknown", "status_id": 0, "is_operational": true, "usage_type": "Public", "usage_type_id": 1, "is_public": true, "sockets": 2, "connector_types": "Type 2 (Socket Only)", "max_power_kw": 22.0, "current_types": "AC (Three-Phase)", "speed_tier": "Fast (7-22kW)", "has_ccs": false, "has_chademo": false, "has_type2": true, "has_type1": false, "usage_cost": "", "date_verified": "2023-12-07", "date_updated": "2023-12-07", "date_created": "2023-12-07" }, "geometry": { "type": "Point", "coordinates": [ -3.242214, 51.411935 ] } },
{ "type": "Feature", "properties": { "ocm_id": 214011, "name": "DRAX00227", "address": "Malthouse Avenue", "town": "Cardiff", "postcode": "CF23 8RA", "operator": "Drax Energy Solutions Limited", "operator_id": 3614, "status": "Unknown", "status_id": 0, "is_operational": true, "usage_type": "Public - Pay At Location", "usage_type_id": 5, "is_public": true, "sockets": 2, "connector_types": "Type 2 (Socket Only)", "max_power_kw": 22.0, "current_types": "AC (Three-Phase)", "speed_tier": "Fast (7-22kW)", "has_ccs": false, "has_chademo": false, "has_type2": true, "has_type1": false, "usage_cost": "", "date_verified": "2023-05-04", "date_updated": "2023-05-04", "date_created": "2023-02-09" }, "geometry": { "type": "Point", "coordinates": [ -3.24684, 51.4113 ] } },
{ "type": "Feature", "properties": { "ocm_id": 285584, "name": "Victoria Park Community Centre, Barry", "address": "Victoria Park Community Centre", "town": "Barry", "postcode": "CF63 1JY", "operator": "Connected Kerb", "operator_id": 3509, "status": "Unknown", "status_id": 0, "is_operational": true, "usage_type": "Public", "usage_type_id": 1, "is_public": true, "sockets": 2, "connector_types": "Type 2 (Socket Only)", "max_power_kw": 22.0, "current_types": "AC (Three-Phase)", "speed_tier": "Fast (7-22kW)", "has_ccs": false, "has_chademo": false, "has_type2": true, "has_type1": false, "usage_cost": "", "date_verified": "2023-12-07", "date_updated": "2023-12-07", "date_created": "2023-12-07" }, "geometry": { "type": "Point", "coordinates": [ -3.255916, 51.414496 ] } },
{ "type": "Feature", "properties": { "ocm_id": 285600, "name": "Gibbinsdown & Treharne Community Centre", "address": "Gibbinsdown and Treharne Community Centre", "town": "Barry", "postcode": "CF62 9DF", "operator": "Connected Kerb", "operator_id": 3509, "status": "Unknown", "status_id": 0, "is_operational": true, "usage_type": "Public", "usage_type_id": 1, "is_public": true, "sockets": 2, "connector_types": "Type 2 (Socket Only)", "max_power_kw": 22.0, "current_types": "AC (Three-Phase)", "speed_tier": "Fast (7-22kW)", "has_ccs": false, "has_chademo": false, "has_type2": true, "has_type1": false, "usage_cost": "", "date_verified": "2023-12-07", "date_updated": "2023-12-07", "date_created": "2023-12-07" }, "geometry": { "type": "Point", "coordinates": [ -3.267057, 51.418548 ] } },
{ "type": "Feature", "properties": { "ocm_id": 259010, "name": "Moto Cardiff West Services", "address": "Moto Cardiff West Services", "town": "", "postcode": "CF72 8SA", "operator": "Electric Highway (UK)", "operator_id": 24, "status": "Operational", "status_id": 50, "is_operational": true, "usage_type": "Public - Pay At Location", "usage_type_id": 5, "is_public": true, "sockets": 19, "connector_types": "CCS (Type 2), CHAdeMO, Type 2 (Socket Only)", "max_power_kw": 350.0, "current_types": "AC (Three-Phase), DC", "speed_tier": "Ultra-Rapid (>100kW)", "has_ccs": true, "has_chademo": true, "has_type2": true, "has_type1": false, "usage_cost": "DC: £0.79/kWh,AC: £0.49/kWh", "date_verified": "2025-03-10", "date_updated": "2025-03-10", "date_created": "2023-03-26" }, "geometry": { "type": "Point", "coordinates": [ -3.306853, 51.508914 ] } },
{ "type": "Feature", "properties": { "ocm_id": 24153, "name": "National Trust Dyffryn Gardens", "address": "St Nicholas", "town": "Vale of Glamorgan", "postcode": "CF5 6SU", "operator": "Zero Carbon World", "operator_id": 19, "status": "Operational", "status_id": 50, "is_operational": true, "usage_type": "Public", "usage_type_id": 1, "is_public": true, "sockets": 1, "connector_types": "Type 2 (Socket Only)", "max_power_kw": 7.0, "current_types": "AC (Single-Phase)", "speed_tier": "Fast (5-7kW)", "has_ccs": false, "has_chademo": false, "has_type2": true, "has_type1": false, "usage_cost": "", "date_verified": "2023-06-11", "date_updated": "2023-06-11", "date_created": "2014-07-09" }, "geometry": { "type": "Point", "coordinates": [ -3.301556, 51.444863 ] } },
{ "type": "Feature", "properties": { "ocm_id": 187633, "name": "Port Road West", "address": "Port Road West", "town": "Barry", "postcode": "CF62 8ZJ", "operator": "POD Point (UK)", "operator_id": 3, "status": "Operational", "status_id": 50, "is_operational": true, "usage_type": "Public - Membership Required", "usage_type_id": 4, "is_public": true, "sockets": 2, "connector_types": "Type 2 (Socket Only)", "max_power_kw": 7.0, "current_types": "AC (Single-Phase)", "speed_tier": "Fast (5-7kW)", "has_ccs": false, "has_chademo": false, "has_type2": true, "has_type1": false, "usage_cost": "£0.35/kWh", "date_verified": "2024-12-03", "date_updated": "2024-12-03", "date_created": "2021-07-12" }, "geometry": { "type": "Point", "coordinates": [ -3.287487, 51.415471 ] } },
{ "type": "Feature", "properties": { "ocm_id": 173041, "name": "Tesco Superstore-Barry", "address": "Stirling Road", "town": "Shopping Precinct", "postcode": "CF62 8NX", "operator": "POD Point (UK)", "operator_id": 3, "status": "Operational", "status_id": 50, "is_operational": true, "usage_type": "Public - Membership Required", "usage_type_id": 4, "is_public": true, "sockets": 6, "connector_types": "CCS (Type 2), CHAdeMO, Type 2 (Socket Only)", "max_power_kw": 50.0, "current_types": "AC (Single-Phase), AC (Three-Phase), DC", "speed_tier": "Rapid (22-50kW)", "has_ccs": true, "has_chademo": true, "has_type2": true, "has_type1": false, "usage_cost": "£0.49/kWh", "date_verified": "2024-04-20", "date_updated": "2024-04-20", "date_created": "2021-03-02" }, "geometry": { "type": "Point", "coordinates": [ -3.290265, 51.414462 ] } },
{ "type": "Feature", "properties": { "ocm_id": 286412, "name": "Llantwit Fardre Leisure Centre, Pontypridd", "address": "Llantwit Fardre Leisure Centre", "town": "Cardiff", "postcode": "CF38 1DN", "operator": "Connected Kerb", "operator_id": 3509, "status": "Unknown", "status_id": 0, "is_operational": true, "usage_type": "Public", "usage_type_id": 1, "is_public": true, "sockets": 1, "connector_types": "Type 2 (Socket Only)", "max_power_kw": 22.0, "current_types": "AC (Three-Phase)", "speed_tier": "Fast (7-22kW)", "has_ccs": false, "has_chademo": false, "has_type2": true, "has_type1": false, "usage_cost": "", "date_verified": "2023-12-07", "date_updated": "2023-12-07", "date_created": "2023-12-07" }, "geometry": { "type": "Point", "coordinates": [ -3.3184, 51.567693 ] } }
]
}
