{"type": "FeatureCollection", "name": "supply_chargers_ocm", "crs": {"type": "name", "properties": {"name": "urn:ogc:def:crs:OGC:1.3:CRS84"}}, "features": [{"type": "Feature", "properties": {"ocm_id": 52763, "address": "Greyfriars Road", "town": "Cardiff", "postcode": "CF10 3AD", "num_points": 2.0, "usage_cost": "£0.59/kWh; other tariffs available. £1.70 per hour for type 2", "status_type_id": 50.0, "operator_id": 32, "data_provider_id": 1, "operator": "MFG EV Power / ESB Energy", "status": "Operational", "is_operational": true, "is_public": true, "sockets": 2, "speed_tier": "Fast", "name": "NCP Greyfriars Road"}, "geometry": {"type": "Point", "coordinates": [-3.17577, 51.483101]}}, {"type": "Feature", "properties": {"ocm_id": 60879, "address": "Hills Street", "town": "Cardiff", "postcode": "CF10 2EQ", "num_points": 4.0, "usage_cost": "Inclusive; for Polar Plus subscription members only", "status_type_id": 50.0, "operator_id": 32, "data_provider_id": 1, "operator": "MFG EV Power / ESB Energy", "status": "Operational", "is_operational": true, "is_public": true, "sockets": 4, "speed_tier": "Workplace/Free", "name": "St. David's Shopping Centre Car Park"}, "geometry": {"type": "Point", "coordinates": [-3.17476750000003, 51.47922]}}, {"type": "Feature", "properties": {"ocm_id": 88787, "address": "St David's Shopping Centre Bridge Street Arcade", "town": null, "postcode": "CF10 2EQ", "num_points": 2.0, "usage_cost": null, "status_type_id": 50.0, "operator_id": 23, "data_provider_id": 1, "operator": "BP Pulse", "status": "Operational", "is_operational": true, "is_public": true, "sockets": 2, "speed_tier": "Mixed (7-50kW)", "name": "St David's Shopping Centre"}, "geometry": {"type": "Point", "coordinates": [-3.174819, 51.479103]}}, {"type": "Feature", "properties": {"ocm_id": 252108, "address": "St Davids Shopping Centre Car Park", "town": "Cardiff", "postcode": "CF10 2EQ", "num_points": null, "usage_cost": null, "status_type_id": null, "operator_id": 32, "data_provider_id": 18, "operator": "MFG EV Power / ESB Energy", "status": "Unknown", "is_operational": true, "is_public": true, "sockets": 1, "speed_tier": "Mixed (7-50kW)", "name": "St Davids Shopping Centre Car Park"}, "geometry": {"type": "Point", "coordinates": [-3.173753, 51.479366]}}, {"type": "Feature", "properties": {"ocm_id": 252105, "address": "St Davids Shopping Centre Car Park", "town": "Cardiff", "postcode": "CF10 2EQ", "num_points": null, "usage_cost": null, "status_type_id": null, "operator_id": 32, "data_provider_id": 18, "operator": "MFG EV Power / ESB Energy", "status": "Unknown", "is_operational": true, "is_public": true, "sockets": 1, "speed_tier": "Mixed (7-50kW)", "name": "St Davids Shopping Centre Car Park"}, "geometry": {"type": "Point", "coordinates": [-3.173709, 51.47934]}}, {"type": "Feature", "properties": {"ocm_id": 209611, "address": "St David's Dewi Sant Shopping Centre", "town": "Cardiff", "postcode": "CF10 2EQ", "num_points": 2.0, "usage_cost": "£0.49/kWh", "status_type_id": 50.0, "operator_id": 3, "data_provider_id": 1, "operator": "Pod Point", "status": "Operational", "is_operational": true, "is_public": true, "sockets": 2, "speed_tier": "Fast", "name": "St David's Dewi Sant Shopping Centre"}, "geometry": {"type": "Point", "coordinates": [-3.174714, 51.478574]}}, {"type": "Feature", "properties": {"ocm_id": 285782, "address": "Castle Mews Car Park", "town": "Cardiff", "postcode": "CF10 3EW", "num_points": null, "usage_cost": null, "status_type_id": 0.0, "operator_id": 3509, "data_provider_id": 18, "operator": "ubitricity", "status": "Unknown", "is_operational": true, "is_public": true, "sockets": 1, "speed_tier": "Slow (5-7kW)", "name": "Castle Mews, Cardiff"}, "geometry": {"type": "Point", "coordinates": [-3.182573, 51.48512]}}, {"type": "Feature", "properties": {"ocm_id": 259897, "address": "Windsor Place", "town": "Cardiff", "postcode": "CF10 3BZ", "num_points": 4.0, "usage_cost": "£0.79/kWh", "status_type_id": 50.0, "operator_id": 203, "data_provider_id": 1, "operator": "Connected Kerb", "status": "Operational", "is_operational": true, "is_public": true, "sockets": 4, "speed_tier": "Rapid (high £/kWh)", "name": "Windsor Place"}, "geometry": {"type": "Point", "coordinates": [-3.173242, 51.483881]}}, {"type": "Feature", "properties": {"ocm_id": 260068, "address": "Park Place", "town": "Cardiff", "postcode": "CF10 3RL", "num_points": 4.0, "usage_cost": "£0.79/kWh", "status_type_id": 50.0, "operator_id": 203, "data_provider_id": 1, "operator": "Connected Kerb", "status": "Operational", "is_operational": true, "is_public": true, "sockets": 4, "speed_tier": "Rapid (high £/kWh)", "name": "Park Place"}, "geometry": {"type": "Point", "coordinates": [-3.176613, 51.485936]}}, {"type": "Feature", "properties": {"ocm_id": 157867, "address": "NCP Dumfries Place", "town": "Cardiff", "postcode": "CF10 3FN", "num_points": null, "usage_cost": null, "status_type_id": null, "operator_id": 32, "data_provider_id": 18, "operator": "MFG EV Power / ESB Energy", "status": "Unknown", "is_operational": true, "is_public": true, "sockets": 1, "speed_tier": "Mixed (7-50kW)", "name": "NCP Dumfries Place"}, "geometry": {"type": "Point", "coordinates": [-3.172482, 51.484352]}}, {"type": "Feature", "properties": {"ocm_id": 157868, "address": "NCP Dumfries Place", "town": "Cardiff", "postcode": "CF10 3FN", "num_points": null, "usage_cost": null, "status_type_id": null, "operator_id": 32, "data_provider_id": 18, "operator": "MFG EV Power / ESB Energy", "status": "Unknown", "is_operational": true, "is_public": true, "sockets": 1, "speed_tier": "Mixed (7-50kW)", "name": "NCP Dumfries Place"}, "geometry": {"type": "Point", "coordinates": [-3.172682, 51.484554]}}, {"type": "Feature", "properties": {"ocm_id": 52910, "address": "Pellet Street", "town": "Cardiff", "postcode": "CF10 4FF", "num_points": 3.0, "usage_cost": "£0.59/kWh; other tariffs available. Parking fees apply", "status_type_id": 50.0, "operator_id": 32, "data_provider_id": 1, "operator": "MFG EV Power / ESB Energy", "status": "Operational", "is_operational": true, "is_public": true, "sockets": 3, "speed_tier": "Fast", "name": "NCP Pellet Street"}, "geometry": {"type": "Point", "coordinates": [-3.17032, 51.478298]}}, {"type": "Feature", "properties": {"ocm_id": 285778, "address": "Sophia Gardens", "town": "Cardiff", "postcode": "CF11 9HW", "num_points": null, "usage_cost": null, "status_type_id": 0.0, "operator_id": 3509, "data_provider_id": 18, "operator": "ubitricity", "status": "Unknown", "is_operational": true, "is_public": true, "sockets": 1, "speed_tier": "Slow (5-7kW)", "name": "Sophia Gardens"}, "geometry": {"type": "Point", "coordinates": [-3.189366, 51.483564]}}, {"type": "Feature", "properties": {"ocm_id": 47246, "address": "Dumfries Place", "town": "Cardiff", "postcode": "CF10 3FN", "num_points": 2.0, "usage_cost": "Inclusive; for Polar Plus subscription members only. Parking fees apply", "status_type_id": 50.0, "operator_id": 32, "data_provider_id": 1, "operator": "MFG EV Power / ESB Energy", "status": "Operational", "is_operational": true, "is_public": true, "sockets": 2, "speed_tier": "Workplace/Free", "name": "NCP Dumfries Place"}, "geometry": {"type": "Point", "coordinates": [-3.16922, 51.478001]}}, {"type": "Feature", "properties": {"ocm_id": 259924, "address": "King Edward Vii Avenue", "town": "Cardiff", "postcode": "CF10 3NB", "num_points": 2.0, "usage_cost": "£0.79/kWh", "status_type_id": 50.0, "operator_id": 203, "data_provider_id": 1, "operator": "Connected Kerb", "status": "Operational", "is_operational": true, "is_public": true, "sockets": 2, "speed_tier": "Rapid (high £/kWh)", "name": "King Edward Vii Avenue"}, "geometry": {"type": "Point", "coordinates": [-3.183733, 51.488436]}}, {"type": "Feature", "properties": {"ocm_id": 259891, "address": "Howard Place", "town": "Cardiff", "postcode": "CF24 0DE", "num_points": 4.0, "usage_cost": "£0.79/kWh", "status_type_id": 50.0, "operator_id": 203, "data_provider_id": 1, "operator": "Connected Kerb", "status": "Operational", "is_operational": true, "is_public": true, "sockets": 4, "speed_tier": "Rapid (high £/kWh)", "name": "Howard Place"}, "geometry": {"type": "Point", "coordinates": [-3.166332585, 51.48399914]}}, {"type": "Feature", "properties": {"ocm_id": 117888, "address": "Ibis Budget Cardiff", "town": "Tyndall Street", "postcode": "CF10 4BE", "num_points": 1.0, "usage_cost": "Inclusive; for Polar Plus subscription members only", "status_type_id": 50.0, "operator_id": 32, "data_provider_id": 1, "operator": "MFG EV Power / ESB Energy", "status": "Operational", "is_operational": true, "is_public": true, "sockets": 1, "speed_tier": "Workplace/Free", "name": "Ibis Budget Cardiff"}, "geometry": {"type": "Point", "coordinates": [-3.168791, 51.476021]}}, {"type": "Feature", "properties": {"ocm_id": 200352, "address": "Mardy Street", "town": "Cardiff", "postcode": "CF11 6RD", "num_points": null, "usage_cost": null, "status_type_id": null, "operator_id": 3341, "data_provider_id": 18, "operator": "Believ", "status": "Unknown", "is_operational": true, "is_public": true, "sockets": 1, "speed_tier": "Fast (7-22kW)", "name": "Mardy Street"}, "geometry": {"type": "Point", "coordinates": [-3.185956, 51.474088]}}, {"type": "Feature", "properties": {"ocm_id": 252001, "address": "Tyndall Street", "town": "Cardiff", "postcode": "CF10 4BE", "num_points": null, "usage_cost": null, "status_type_id": null, "operator_id": 3614, "data_provider_id": 18, "operator": "GRIDSERVE", "status": "Unknown", "is_operational": true, "is_public": true, "sockets": 1, "speed_tier": "Rapid (50-350kW)", "name": "DRAX00238"}, "geometry": {"type": "Point", "coordinates": [-3.16755, 51.47672]}}, {"type": "Feature", "properties": {"ocm_id": 132454, "address": "Rennie Street", "town": "Cardiff", "postcode": "CF11 6EG", "num_points": 2.0, "usage_cost": "£0.31/kWh", "status_type_id": 75.0, "operator_id": 3341, "data_provider_id": 1, "operator": "Believ", "status": "Partly Operational", "is_operational": true, "is_public": true, "sockets": 2, "speed_tier": "Fast (7-22kW)", "name": "Rennie Street"}, "geometry": {"type": "Point", "coordinates": [-3.1951, 51.4788]}}, {"type": "Feature", "properties": {"ocm_id": 285830, "address": "North Road Car Park", "town": "Cardiff", "postcode": "CF10 3DY", "num_points": null, "usage_cost": null, "status_type_id": 0.0, "operator_id": 3509, "data_provider_id": 18, "operator": "ubitricity", "status": "Unknown", "is_operational": true, "is_public": true, "sockets": 1, "speed_tier": "Slow (5-7kW)", "name": "North Road"}, "geometry": {"type": "Point", "coordinates": [-3.188036, 51.490523]}}, {"type": "Feature", "properties": {"ocm_id": 136139, "address": "Maindy Road", "town": "Cardiff", "postcode": "CF24 4HQ", "num_points": null, "usage_cost": null, "status_type_id": null, "operator_id": 3341, "data_provider_id": 18, "operator": "Believ", "status": "Unknown", "is_operational": true, "is_public": true, "sockets": 1, "speed_tier": "Fast (7-22kW)", "name": "Maindy Road"}, "geometry": {"type": "Point", "coordinates": [-3.18381, 51.49265]}}, {"type": "Feature", "properties": {"ocm_id": 214123, "address": "Schooner Way", "town": "Cardiff", "postcode": "CF10 4RT", "num_points": null, "usage_cost": null, "status_type_id": null, "operator_id": 3614, "data_provider_id": 18, "operator": "GRIDSERVE", "status": "Unknown", "is_operational": true, "is_public": true, "sockets": 1, "speed_tier": "Rapid (50-350kW)", "name": "DRAX00165"}, "geometry": {"type": "Point", "coordinates": [-3.16607, 51.47301]}}, {"type": "Feature", "properties": {"ocm_id": 132455, "address": "Severn Road", "town": "Cardiff", "postcode": "CF11 9DX", "num_points": 2.0, "usage_cost": "£0.31/kWh", "status_type_id": 50.0, "operator_id": 3341, "data_provider_id": 1, "operator": "Believ", "status": "Operational", "is_operational": true, "is_public": true, "sockets": 2, "speed_tier": "Fast (7-22kW)", "name": "Severn Road Car Park "}, "geometry": {"type": "Point", "coordinates": [-3.19883, 51.48201]}}, {"type": "Feature", "properties": {"ocm_id": 187690, "address": "Kyveilog Street", "town": "Cardiff", "postcode": "CF11 9JA", "num_points": null, "usage_cost": null, "status_type_id": null, "operator_id": 3341, "data_provider_id": 18, "operator": "Believ", "status": "Unknown", "is_operational": true, "is_public": true, "sockets": 1, "speed_tier": "Fast (7-22kW)", "name": "Kyveilog Street"}, "geometry": {"type": "Point", "coordinates": [-3.197033, 51.487668]}}, {"type": "Feature", "properties": {"ocm_id": 265999, "address": "Longueil Close", "town": "Cardiff", "postcode": "CF10 4EE", "num_points": 4.0, "usage_cost": null, "status_type_id": 50.0, "operator_id": 3562, "data_provider_id": 1, "operator": "EVC Ltd", "status": "Operational", "is_operational": true, "is_public": true, "sockets": 4, "speed_tier": "Fast (7-22kW)", "name": "EVC Holiday Inn Express Cardiff"}, "geometry": {"type": "Point", "coordinates": [-3.164669448584325, 51.472444409730244]}}, {"type": "Feature", "properties": {"ocm_id": 200334, "address": "redlaver Street", "town": "Cardiff", "postcode": "CF117YL", "num_points": null, "usage_cost": null, "status_type_id": null, "operator_id": 3341, "data_provider_id": 18, "operator": "Believ", "status": "Unknown", "is_operational": true, "is_public": true, "sockets": 1, "speed_tier": "Fast (7-22kW)", "name": "Redlaver Street"}, "geometry": {"type": "Point", "coordinates": [-3.184647, 51.469115]}}, {"type": "Feature", "properties": {"ocm_id": 200416, "address": "Pontcanna Street", "town": "Cardiff", "postcode": "CF119HQ", "num_points": null, "usage_cost": null, "status_type_id": null, "operator_id": 3341, "data_provider_id": 18, "operator": "Believ", "status": "Unknown", "is_operational": true, "is_public": true, "sockets": 1, "speed_tier": "Fast (7-22kW)", "name": "Pontcanna Street"}, "geometry": {"type": "Point", "coordinates": [-3.199894, 51.486898]}}, {"type": "Feature", "properties": {"ocm_id": 115033, "address": "Sloper Road", "town": "Cardiff", "postcode": "CF11 8BN", "num_points": 1.0, "usage_cost": "£1.00 + £0.30/kWh", "status_type_id": 50.0, "operator_id": 150, "data_provider_id": 1, "operator": "Osprey", "status": "Operational", "is_operational": true, "is_public": true, "sockets": 1, "speed_tier": "Rapid (50-150kW)", "name": "MFG Texaco Ninian"}, "geometry": {"type": "Point", "coordinates": [-3.195624, 51.469647]}}, {"type": "Feature", "properties": {"ocm_id": 47476, "address": "Cardiff Bay Business Centre, Titan House", "town": "Cardiff ", "postcode": "CF24 5BS", "num_points": 1.0, "usage_cost": "", "status_type_id": 50.0, "operator_id": 19, "data_provider_id": 1, "operator": "National Trust / Workplace", "status": "Operational", "is_operational": true, "is_public": true, "sockets": 1, "speed_tier": "Unknown", "name": "UK Steel Enterprise Cardiff  "}, "geometry": {"type": "Point", "coordinates": [-3.154874, 51.476339]}}, {"type": "Feature", "properties": {"ocm_id": 285770, "address": "Harvey Street Car Park", "town": "Cardiff", "postcode": "CF5 1QW", "num_points": null, "usage_cost": null, "status_type_id": 0.0, "operator_id": 3509, "data_provider_id": 18, "operator": "ubitricity", "status": "Unknown", "is_operational": true, "is_public": true, "sockets": 1, "speed_tier": "Slow (5-7kW)", "name": "Harvey Street"}, "geometry": {"type": "Point", "coordinates": [-3.205278, 51.48224]}}, {"type": "Feature", "properties": {"ocm_id": 132459, "address": "Penhill Road", "town": "Cardiff", "postcode": "CF11 9QJ", "num_points": 2.0, "usage_cost": "£0.31/kWh", "status_type_id": 50.0, "operator_id": 3341, "data_provider_id": 1, "operator": "Believ", "status": "Operational", "is_operational": true, "is_public": true, "sockets": 2, "speed_tier": "Fast (7-22kW)", "name": "Turning Head Car Park - Cardiff"}, "geometry": {"type": "Point", "coordinates": [-3.2036, 51.48915]}}, {"type": "Feature", "properties": {"ocm_id": 132456, "address": "Anglesey Street", "town": "Cardiff", "postcode": "CF5 1QZ", "num_points": 2.0, "usage_cost": "£0.31/kWh", "status_type_id": 50.0, "operator_id": 3341, "data_provider_id": 1, "operator": "Believ", "status": "Operational", "is_operational": true, "is_public": true, "sockets": 2, "speed_tier": "Fast (7-22kW)", "name": "Anglesey Street - Cardiff"}, "geometry": {"type": "Point", "coordinates": [-3.20707, 51.48313]}}, {"type": "Feature", "properties": {"ocm_id": 132462, "address": "Penylan Library Car Park", "town": "Cardiff", "postcode": "CF23 5HW", "num_points": 2.0, "usage_cost": "£0.31/kWh", "status_type_id": 50.0, "operator_id": 3341, "data_provider_id": 1, "operator": "Believ", "status": "Operational", "is_operational": true, "is_public": true, "sockets": 2, "speed_tier": "Fast (7-22kW)", "name": "Penylan Library Car Park - Cardiff"}, "geometry": {"type": "Point", "coordinates": [-3.1645, 51.49677]}}, {"type": "Feature", "properties": {"ocm_id": 285931, "address": "Tewkesbury Place", "town": "Cardiff", "postcode": "CF24 4QF", "num_points": null, "usage_cost": null, "status_type_id": 0.0, "operator_id": 3509, "data_provider_id": 18, "operator": "ubitricity", "status": "Unknown", "is_operational": true, "is_public": true, "sockets": 1, "speed_tier": "Slow (5-7kW)", "name": "Tewkesbury Place"}, "geometry": {"type": "Point", "coordinates": [-3.178055, 51.50026]}}, {"type": "Feature", "properties": {"ocm_id": 101686, "address": "Q-Park Cardiff Bay", "town": "Pierhead Street", "postcode": "CF10 4PH", "num_points": 1.0, "usage_cost": "£0.79/kWh; other tariffs available", "status_type_id": 50.0, "operator_id": 32, "data_provider_id": 1, "operator": "MFG EV Power / ESB Energy", "status": "Operational", "is_operational": true, "is_public": true, "sockets": 1, "speed_tier": "Rapid (high £/kWh)", "name": "Q-Park Cardiff Bay"}, "geometry": {"type": "Point", "coordinates": [-3.1625, 51.465801]}}, {"type": "Feature", "properties": {"ocm_id": 260025, "address": "Bute Crescent", "town": "Cardiff", "postcode": "CF10 5AN", "num_points": 4.0, "usage_cost": "£0.79/kWh", "status_type_id": 50.0, "operator_id": 203, "data_provider_id": 1, "operator": "Connected Kerb", "status": "Operational", "is_operational": true, "is_public": true, "sockets": 4, "speed_tier": "Rapid (high £/kWh)", "name": "Bute Crescent"}, "geometry": {"type": "Point", "coordinates": [-3.1649849, 51.464247]}}, {"type": "Feature", "properties": {"ocm_id": 258892, "address": "Ferry Road", "town": "Grangetown", "postcode": "CF11 0JR", "num_points": 2.0, "usage_cost": "DC: £0.79/kWh", "status_type_id": 50.0, "operator_id": 24, "data_provider_id": 1, "operator": "InstaVolt", "status": "Operational", "is_operational": true, "is_public": true, "sockets": 2, "speed_tier": "Rapid/DC", "name": "IKEA Cardiff"}, "geometry": {"type": "Point", "coordinates": [-3.188446, 51.462816]}}, {"type": "Feature", "properties": {"ocm_id": 132460, "address": "Stallcourt Avenue", "town": "Cardiff", "postcode": "CF23 5AN", "num_points": 2.0, "usage_cost": "£0.31/kWh", "status_type_id": 50.0, "operator_id": 3341, "data_provider_id": 1, "operator": "Believ", "status": "Operational", "is_operational": true, "is_public": true, "sockets": 2, "speed_tier": "Fast (7-22kW)", "name": "Stallcourt Avenue - Cardiff"}, "geometry": {"type": "Point", "coordinates": [-3.15485, 51.4946]}}, {"type": "Feature", "properties": {"ocm_id": 132461, "address": "Waterloo Road", "town": "Cardiff", "postcode": "CF23 5DX", "num_points": 2.0, "usage_cost": "£0.31/kWh", "status_type_id": 50.0, "operator_id": 3341, "data_provider_id": 1, "operator": "Believ", "status": "Operational", "is_operational": true, "is_public": true, "sockets": 2, "speed_tier": "Fast (7-22kW)", "name": "Waterloo Road - Cardiff"}, "geometry": {"type": "Point", "coordinates": [-3.15663, 51.49655]}}, {"type": "Feature", "properties": {"ocm_id": 9814, "address": "Hadfield Road", "town": "Cardiff", "postcode": "CF11 8AQ", "num_points": 3.0, "usage_cost": "Free", "status_type_id": 0.0, "operator_id": 45, "data_provider_id": 1, "operator": "Tesla", "status": "Unknown", "is_operational": true, "is_public": true, "sockets": 3, "speed_tier": "Workplace/Free", "name": "Wessex Garages Cardiff"}, "geometry": {"type": "Point", "coordinates": [-3.20170359999997, 51.4665486]}}, {"type": "Feature", "properties": {"ocm_id": 260002, "address": "Britannia Quay", "town": "Cardiff", "postcode": "CF10 4PB", "num_points": 2.0, "usage_cost": "£0.79/kWh", "status_type_id": 50.0, "operator_id": 203, "data_provider_id": 1, "operator": "Connected Kerb", "status": "Operational", "is_operational": true, "is_public": true, "sockets": 2, "speed_tier": "Rapid (high £/kWh)", "name": "Britannia Quay"}, "geometry": {"type": "Point", "coordinates": [-3.160242, 51.464363]}}, {"type": "Feature", "properties": {"ocm_id": 251500, "address": "Bettws Lane Car Park", "town": "Cardiff", "postcode": "CF10 5SG", "num_points": null, "usage_cost": null, "status_type_id": null, "operator_id": 3509, "data_provider_id": 18, "operator": "ubitricity", "status": "Unknown", "is_operational": true, "is_public": true, "sockets": 1, "speed_tier": "Slow (5-7kW)", "name": "Bettws Lane Car Park, Newport"}, "geometry": {"type": "Point", "coordinates": [-3.168205, 51.461555]}}, {"type": "Feature", "properties": {"ocm_id": 94121, "address": "289 Penarth Road", "town": "Cardiff", "postcode": "CF11 8AQ", "num_points": 2.0, "usage_cost": "1", "status_type_id": 50.0, "operator_id": 7, "data_provider_id": 1, "operator": "Nissan/BMW Dealers", "status": "Operational", "is_operational": true, "is_public": true, "sockets": 2, "speed_tier": "Fast (7-50kW)", "name": "Wessex Garages Cardiff"}, "geometry": {"type": "Point", "coordinates": [-3.206283, 51.468083]}}, {"type": "Feature", "properties": {"ocm_id": 127599, "address": "Voco St David's Hotel", "town": null, "postcode": "cf10 5sd", "num_points": 2.0, "usage_cost": null, "status_type_id": 50.0, "operator_id": 23, "data_provider_id": 1, "operator": "BP Pulse", "status": "Operational", "is_operational": true, "is_public": true, "sockets": 2, "speed_tier": "Mixed (7-50kW)", "name": "Voco St David's Hotel"}, "geometry": {"type": "Point", "coordinates": [-3.167412, 51.460517]}}, {"type": "Feature", "properties": {"ocm_id": 285780, "address": "Star Hub Car Park", "town": "Cardiff", "postcode": "CF24 2SJ", "num_points": null, "usage_cost": null, "status_type_id": 0.0, "operator_id": 3509, "data_provider_id": 18, "operator": "ubitricity", "status": "Unknown", "is_operational": true, "is_public": true, "sockets": 1, "speed_tier": "Slow (5-7kW)", "name": "Star Hub"}, "geometry": {"type": "Point", "coordinates": [-3.143337, 51.484894]}}, {"type": "Feature", "properties": {"ocm_id": 210279, "address": "Excelsior Estate", "town": "Excelsior Road", "postcode": "CF14 3AT", "num_points": 4.0, "usage_cost": "£0.44/kWh", "status_type_id": 50.0, "operator_id": 3, "data_provider_id": 1, "operator": "Pod Point", "status": "Operational", "is_operational": true, "is_public": true, "sockets": 4, "speed_tier": "Fast", "name": "Tesco Extra-Cardiff"}, "geometry": {"type": "Point", "coordinates": [-3.2071764, 51.49791839]}}, {"type": "Feature", "properties": {"ocm_id": 260691, "address": "Heath Road", "town": "Cardiff", "postcode": "CF14 4XW", "num_points": 12.0, "usage_cost": "£0.272/kWh", "status_type_id": 50.0, "operator_id": 3, "data_provider_id": 1, "operator": "Pod Point", "status": "Operational", "is_operational": true, "is_public": true, "sockets": 12, "speed_tier": "Fast (7-22kW)", "name": "University of Wales Hospital"}, "geometry": {"type": "Point", "coordinates": [-3.18741, 51.50591]}}, {"type": "Feature", "properties": {"ocm_id": 132457, "address": "Victoria Park Road", "town": "Cardiff", "postcode": "CF5 1EZ", "num_points": 2.0, "usage_cost": "£0.31/kWh", "status_type_id": 50.0, "operator_id": 3341, "data_provider_id": 1, "operator": "Believ", "status": "Operational", "is_operational": true, "is_public": true, "sockets": 2, "speed_tier": "Fast (7-22kW)", "name": "Victoria Park Road - Cardiff"}, "geometry": {"type": "Point", "coordinates": [-3.21936, 51.48322]}}, {"type": "Feature", "properties": {"ocm_id": 132458, "address": "Butleigh Avenue", "town": "Cardiff", "postcode": "CF5 1AP", "num_points": 2.0, "usage_cost": "£0.31/kWh", "status_type_id": 50.0, "operator_id": 3341, "data_provider_id": 1, "operator": "Believ", "status": "Operational", "is_operational": true, "is_public": true, "sockets": 2, "speed_tier": "Fast (7-22kW)", "name": "Butleigh Avenue - Cardiff"}, "geometry": {"type": "Point", "coordinates": [-3.22232, 51.48595]}}, {"type": "Feature", "properties": {"ocm_id": 200454, "address": "Llandaff High Street Car Park", "town": "Cardiff", "postcode": "CF5 2DX", "num_points": null, "usage_cost": null, "status_type_id": null, "operator_id": 3341, "data_provider_id": 18, "operator": "Believ", "status": "Unknown", "is_operational": true, "is_public": true, "sockets": 1, "speed_tier": "Fast (7-22kW)", "name": "Llandaff High Street Car Park"}, "geometry": {"type": "Point", "coordinates": [-3.218335, 51.494256]}}, {"type": "Feature", "properties": {"ocm_id": 205042, "address": "Eastern Bay Road", "town": "Pengam Green", "postcode": "CF24 2HP", "num_points": 4.0, "usage_cost": "£0.44/kWh", "status_type_id": 50.0, "operator_id": 3, "data_provider_id": 1, "operator": "Pod Point", "status": "Operational", "is_operational": true, "is_public": true, "sockets": 4, "speed_tier": "Fast", "name": "Tesco Extra-Cardiff Pengam"}, "geometry": {"type": "Point", "coordinates": [-3.127919, 51.487998]}}, {"type": "Feature", "properties": {"ocm_id": 285963, "address": "College Road", "town": "Cardiff", "postcode": "CF14 2HJ", "num_points": null, "usage_cost": null, "status_type_id": 0.0, "operator_id": 3509, "data_provider_id": 18, "operator": "ubitricity", "status": "Unknown", "is_operational": true, "is_public": true, "sockets": 1, "speed_tier": "Slow (5-7kW)", "name": "College Road, Cardiff"}, "geometry": {"type": "Point", "coordinates": [-3.220884, 51.502182]}}, {"type": "Feature", "properties": {"ocm_id": 285666, "address": "Terra Nova Way", "town": "Penarth", "postcode": "CF64 1SA", "num_points": null, "usage_cost": null, "status_type_id": 0.0, "operator_id": 3, "data_provider_id": 1, "operator": "Pod Point", "status": "Unknown", "is_operational": true, "is_public": true, "sockets": 1, "speed_tier": "Fast (7-22kW)", "name": "Tesco Superstore - Penarth"}, "geometry": {"type": "Point", "coordinates": [-3.186151, 51.445999]}}, {"type": "Feature", "properties": {"ocm_id": 259952, "address": "Three Arches", "town": "Heathwood Road", "postcode": "CF14 4HS", "num_points": 4.0, "usage_cost": "£0.79/kWh", "status_type_id": 50.0, "operator_id": 203, "data_provider_id": 1, "operator": "Connected Kerb", "status": "Operational", "is_operational": true, "is_public": true, "sockets": 4, "speed_tier": "Rapid (high £/kWh)", "name": "Three Arches"}, "geometry": {"type": "Point", "coordinates": [-3.180886, 51.519434]}}, {"type": "Feature", "properties": {"ocm_id": 187747, "address": "Woodlands House", "town": "Cardiff", "postcode": "CF14 4HH", "num_points": null, "usage_cost": null, "status_type_id": null, "operator_id": 3, "data_provider_id": 18, "operator": "Pod Point", "status": "Unknown", "is_operational": true, "is_public": true, "sockets": 1, "speed_tier": "Fast (7-22kW)", "name": "Cardiff & Vale University Health Board"}, "geometry": {"type": "Point", "coordinates": [-3.194338, 51.520046]}}, {"type": "Feature", "properties": {"ocm_id": 285657, "address": "Arcott Street", "town": "Barry", "postcode": "CF64 1ET", "num_points": null, "usage_cost": null, "status_type_id": 0.0, "operator_id": 3509, "data_provider_id": 18, "operator": "ubitricity", "status": "Unknown", "is_operational": true, "is_public": true, "sockets": 1, "speed_tier": "Slow (5-7kW)", "name": "Arcott Street, Barry"}, "geometry": {"type": "Point", "coordinates": [-3.176069, 51.44093]}}, {"type": "Feature", "properties": {"ocm_id": 286066, "address": "Penlline Road Car Park", "town": "Cardiff", "postcode": "CF14 2AA", "num_points": 2.0, "usage_cost": null, "status_type_id": 0.0, "operator_id": 3509, "data_provider_id": 1, "operator": "ubitricity", "status": "Unknown", "is_operational": true, "is_public": true, "sockets": 2, "speed_tier": "Slow (5-7kW)", "name": "Penlline Road, Cardiff"}, "geometry": {"type": "Point", "coordinates": [-3.22064918648698, 51.51442909600459]}}, {"type": "Feature", "properties": {"ocm_id": 285651, "address": "Albert Road, Vale of Glamorgan", "town": "Barry", "postcode": "CF64 1BZ", "num_points": null, "usage_cost": null, "status_type_id": 0.0, "operator_id": 3509, "data_provider_id": 18, "operator": "ubitricity", "status": "Unknown", "is_operational": true, "is_public": true, "sockets": 1, "speed_tier": "Slow (5-7kW)", "name": "Albert Road, Barry"}, "geometry": {"type": "Point", "coordinates": [-3.173322, 51.439078]}}, {"type": "Feature", "properties": {"ocm_id": 100171, "address": "Parc Ty Glas", "town": "Cardiff", "postcode": "CF14 5DU", "num_points": 2.0, "usage_cost": "£0.75/kWh", "status_type_id": 50.0, "operator_id": 3296, "data_provider_id": 1, "operator": "mer (UK)", "status": "Operational", "is_operational": true, "is_public": true, "sockets": 2, "speed_tier": "Rapid (high £/kWh)", "name": "InstaVolt Bannatyne Health Club & Spa"}, "geometry": {"type": "Point", "coordinates": [-3.1918042, 51.5242172]}}, {"type": "Feature", "properties": {"ocm_id": 200520, "address": "Ty Glas Road", "town": "Cardiff", "postcode": "CF14 5EB", "num_points": null, "usage_cost": null, "status_type_id": null, "operator_id": 150, "data_provider_id": 18, "operator": "Osprey", "status": "Unknown", "is_operational": true, "is_public": true, "sockets": 1, "speed_tier": "Rapid (50-150kW)", "name": "Ty Glas Road"}, "geometry": {"type": "Point", "coordinates": [-3.202318, 51.52515]}}, {"type": "Feature", "properties": {"ocm_id": 214029, "address": "Cliff Parade Car Park", "town": "Penarth", "postcode": "CF64 5BP", "num_points": null, "usage_cost": null, "status_type_id": null, "operator_id": 3509, "data_provider_id": 18, "operator": "ubitricity", "status": "Unknown", "is_operational": true, "is_public": true, "sockets": 1, "speed_tier": "Slow (5-7kW)", "name": "Cliff Parade Car Park"}, "geometry": {"type": "Point", "coordinates": [-3.17186, 51.42745]}}, {"type": "Feature", "properties": {"ocm_id": 256844, "address": "Croescadarn Road", "town": "Cardiff", "postcode": "CF23 8XL", "num_points": 4.0, "usage_cost": "£0.20/kWh", "status_type_id": 50.0, "operator_id": 3473, "data_provider_id": 1, "operator": "Spire Healthcare", "status": "Operational", "is_operational": true, "is_public": true, "sockets": 4, "speed_tier": "Unknown", "name": "Spire Cardiff Hospital"}, "geometry": {"type": "Point", "coordinates": [-3.141247088908067, 51.53077459231975]}}, {"type": "Feature", "properties": {"ocm_id": 16281, "address": "Newlands Road", "town": "Newport", "postcode": "CF3 2GH", "num_points": 2.0, "usage_cost": "Free", "status_type_id": 0.0, "operator_id": 3, "data_provider_id": 1, "operator": "Pod Point", "status": "Unknown", "is_operational": true, "is_public": true, "sockets": 2, "speed_tier": "Workplace/Free", "name": "G24 Innovations"}, "geometry": {"type": "Point", "coordinates": [-3.101256, 51.506864]}}, {"type": "Feature", "properties": {"ocm_id": 201478, "address": "Croescadarn Road", "town": "Cardiff", "postcode": "CF23 8HE", "num_points": 8.0, "usage_cost": null, "status_type_id": 50.0, "operator_id": 3534, "data_provider_id": 1, "operator": "Tesla (Destination)", "status": "Operational", "is_operational": true, "is_public": true, "sockets": 8, "speed_tier": "Fast (7-22kW)", "name": "Tesla Cardiff"}, "geometry": {"type": "Point", "coordinates": [-3.139770854898643, 51.53149670395635]}}, {"type": "Feature", "properties": {"ocm_id": 13553, "address": "1 Longwood Drive", "town": "Cardiff", "postcode": "CF14 7EW", "num_points": 2.0, "usage_cost": "Inclusive; for Polar Plus subscription members only", "status_type_id": 50.0, "operator_id": 32, "data_provider_id": 1, "operator": "MFG EV Power / ESB Energy", "status": "Operational", "is_operational": true, "is_public": true, "sockets": 2, "speed_tier": "Workplace/Free", "name": "ASDA Cardiff Coryton Supercentre"}, "geometry": {"type": "Point", "coordinates": [-3.242433, 51.524136]}}, {"type": "Feature", "properties": {"ocm_id": 149140, "address": "Culverhouse Cross", "town": "Cardiff", "postcode": "CF5 6XQ", "num_points": 4.0, "usage_cost": "£0.44/kWh", "status_type_id": 50.0, "operator_id": 3, "data_provider_id": 1, "operator": "Pod Point", "status": "Operational", "is_operational": true, "is_public": true, "sockets": 4, "speed_tier": "Fast", "name": "Tesco Extra-Culverhouse Cross"}, "geometry": {"type": "Point", "coordinates": [-3.274567, 51.466577]}}, {"type": "Feature", "properties": {"ocm_id": 259469, "address": "Valegate Retail Park", "town": "Cardiff", "postcode": "CF5 6EH", "num_points": 2.0, "usage_cost": "£0.75/kWh", "status_type_id": 50.0, "operator_id": 3296, "data_provider_id": 1, "operator": "mer (UK)", "status": "Operational", "is_operational": true, "is_public": true, "sockets": 2, "speed_tier": "Rapid (high £/kWh)", "name": "InstaVolt Valegate Retail Park"}, "geometry": {"type": "Point", "coordinates": [-3.2746159, 51.464141]}}, {"type": "Feature", "properties": {"ocm_id": 286092, "address": "Crickhowell Road", "town": "Cardiff", "postcode": "CF3 0EF", "num_points": null, "usage_cost": null, "status_type_id": 0.0, "operator_id": 3, "data_provider_id": 1, "operator": "Pod Point", "status": "Unknown", "is_operational": true, "is_public": true, "sockets": 1, "speed_tier": "Fast (7-22kW)", "name": "Tesco Superstore - St Mellons"}, "geometry": {"type": "Point", "coordinates": [-3.103756, 51.524775]}}, {"type": "Feature", "properties": {"ocm_id": 258962, "address": "M4 Motorway", "town": "Cardiff", "postcode": "CF23 8RA", "num_points": 4.0, "usage_cost": "DC (contactless): £0.85/kWh, DC (GRIDSERVE app): £0.79/kWh", "status_type_id": 50.0, "operator_id": 3430, "data_provider_id": 1, "operator": "Applegreen Electric", "status": "Operational", "is_operational": true, "is_public": true, "sockets": 4, "speed_tier": "Rapid/DC", "name": "Welcome Break Cardiff Gate Services"}, "geometry": {"type": "Point", "coordinates": [-3.129829, 51.539266]}}, {"type": "Feature", "properties": {"ocm_id": 260847, "address": "Cosmeston Lakes Country Car Park", "town": "Penarth", "postcode": "CF64 5UY", "num_points": null, "usage_cost": null, "status_type_id": null, "operator_id": 3509, "data_provider_id": 18, "operator": "ubitricity", "status": "Unknown", "is_operational": true, "is_public": true, "sockets": 1, "speed_tier": "Slow (5-7kW)", "name": "Cosmeston Lakes Country Car Park"}, "geometry": {"type": "Point", "coordinates": [-3.182292, 51.415938]}}, {"type": "Feature", "properties": {"ocm_id": 127106, "address": "St. Mellons Business Park", "town": "Cardiff", "postcode": "CF3 0LT", "num_points": 2.0, "usage_cost": null, "status_type_id": 50.0, "operator_id": 3356, "data_provider_id": 1, "operator": "Welsh Water (Workplace)", "status": "Operational", "is_operational": true, "is_public": true, "sockets": 2, "speed_tier": "Unknown", "name": "Dŵr Cymru Welsh Water St. Mellons"}, "geometry": {"type": "Point", "coordinates": [-3.081929, 51.529847]}}, {"type": "Feature", "properties": {"ocm_id": 101139, "address": "Sully Moors Road", "town": "Sully", "postcode": "CF64", "num_points": 2.0, "usage_cost": "Free", "status_type_id": 50.0, "operator_id": 202, "data_provider_id": 1, "operator": "Industrial / Private", "status": "Operational", "is_operational": true, "is_public": true, "sockets": 2, "speed_tier": "Workplace/Free", "name": "Barry Power Station"}, "geometry": {"type": "Point", "coordinates": [-3.228540095770313, 51.409163004328384]}}, {"type": "Feature", "properties": {"ocm_id": 285575, "address": "Cadoxton Moors Community Centre", "town": "Barry", "postcode": "CF63 2NX", "num_points": null, "usage_cost": null, "status_type_id": 0.0, "operator_id": 3509, "data_provider_id": 18, "operator": "ubitricity", "status": "Unknown", "is_operational": true, "is_public": true, "sockets": 1, "speed_tier": "Slow (5-7kW)", "name": "Cadoxton Moors Community Centre, Barry"}, "geometry": {"type": "Point", "coordinates": [-3.242214, 51.411935]}}, {"type": "Feature", "properties": {"ocm_id": 214011, "address": "Malthouse Avenue", "town": "Cardiff", "postcode": "CF23 8RA", "num_points": null, "usage_cost": null, "status_type_id": null, "operator_id": 3614, "data_provider_id": 18, "operator": "GRIDSERVE", "status": "Unknown", "is_operational": true, "is_public": true, "sockets": 1, "speed_tier": "Rapid (50-350kW)", "name": "DRAX00227"}, "geometry": {"type": "Point", "coordinates": [-3.24684, 51.4113]}}, {"type": "Feature", "properties": {"ocm_id": 285584, "address": "Victoria Park Community Centre", "town": "Barry", "postcode": "CF63 1JY", "num_points": null, "usage_cost": null, "status_type_id": 0.0, "operator_id": 3509, "data_provider_id": 18, "operator": "ubitricity", "status": "Unknown", "is_operational": true, "is_public": true, "sockets": 1, "speed_tier": "Slow (5-7kW)", "name": "Victoria Park Community Centre, Barry"}, "geometry": {"type": "Point", "coordinates": [-3.255916, 51.414496]}}, {"type": "Feature", "properties": {"ocm_id": 285600, "address": "Gibbinsdown and Treharne Community Centre", "town": "Barry", "postcode": "CF62 9DF", "num_points": null, "usage_cost": null, "status_type_id": 0.0, "operator_id": 3509, "data_provider_id": 18, "operator": "ubitricity", "status": "Unknown", "is_operational": true, "is_public": true, "sockets": 1, "speed_tier": "Slow (5-7kW)", "name": "Gibbinsdown & Treharne Community Centre"}, "geometry": {"type": "Point", "coordinates": [-3.267057, 51.418548]}}, {"type": "Feature", "properties": {"ocm_id": 259010, "address": "Moto Cardiff West Services", "town": null, "postcode": "CF72 8SA", "num_points": 15.0, "usage_cost": "DC: £0.79/kWh,AC: £0.49/kWh", "status_type_id": 50.0, "operator_id": 24, "data_provider_id": 1, "operator": "InstaVolt", "status": "Operational", "is_operational": true, "is_public": true, "sockets": 15, "speed_tier": "Rapid/DC", "name": "Moto Cardiff West Services"}, "geometry": {"type": "Point", "coordinates": [-3.306853, 51.508914]}}, {"type": "Feature", "properties": {"ocm_id": 24153, "address": "St Nicholas", "town": "Vale of Glamorgan", "postcode": "CF5 6SU", "num_points": 1.0, "usage_cost": null, "status_type_id": 50.0, "operator_id": 19, "data_provider_id": 1, "operator": "National Trust / Workplace", "status": "Operational", "is_operational": true, "is_public": true, "sockets": 1, "speed_tier": "Unknown", "name": "National Trust Dyffryn Gardens"}, "geometry": {"type": "Point", "coordinates": [-3.301556, 51.444863]}}, {"type": "Feature", "properties": {"ocm_id": 285542, "address": "Court Road Multi Storey Car Park, Vale Of Gla", "town": "Cardiff", "postcode": "CF63 4AF", "num_points": null, "usage_cost": null, "status_type_id": 0.0, "operator_id": 3509, "data_provider_id": 18, "operator": "ubitricity", "status": "Unknown", "is_operational": true, "is_public": true, "sockets": 1, "speed_tier": "Slow (5-7kW)", "name": "Court Road Multi Storey, Barry"}, "geometry": {"type": "Point", "coordinates": [-3.263081, 51.407148]}}, {"type": "Feature", "properties": {"ocm_id": 285544, "address": "Barry Library Car Park", "town": "Barry", "postcode": "CF63 4EL", "num_points": null, "usage_cost": null, "status_type_id": 0.0, "operator_id": 3509, "data_provider_id": 18, "operator": "ubitricity", "status": "Unknown", "is_operational": true, "is_public": true, "sockets": 1, "speed_tier": "Slow (5-7kW)", "name": "Barry Library, Barry"}, "geometry": {"type": "Point", "coordinates": [-3.26647, 51.40736]}}, {"type": "Feature", "properties": {"ocm_id": 187633, "address": "Port Road West", "town": "Barry", "postcode": "CF62 8ZJ", "num_points": 2.0, "usage_cost": "£0.35/kWh", "status_type_id": 50.0, "operator_id": 3, "data_provider_id": 1, "operator": "Pod Point", "status": "Operational", "is_operational": true, "is_public": true, "sockets": 2, "speed_tier": "Fast (7-22kW)", "name": "Port Road West"}, "geometry": {"type": "Point", "coordinates": [-3.287487, 51.415471]}}, {"type": "Feature", "properties": {"ocm_id": 285529, "address": "Thompson Street Car Park, Vale of Glamorgan", "town": "Barry", "postcode": "CF63 4LH", "num_points": null, "usage_cost": null, "status_type_id": 0.0, "operator_id": 3509, "data_provider_id": 18, "operator": "ubitricity", "status": "Unknown", "is_operational": true, "is_public": true, "sockets": 1, "speed_tier": "Slow (5-7kW)", "name": "Thompson Street, Barry"}, "geometry": {"type": "Point", "coordinates": [-3.270489, 51.40487]}}, {"type": "Feature", "properties": {"ocm_id": 200652, "address": "Castle Street", "town": "Caerphilly", "postcode": "CF83 1JL", "num_points": null, "usage_cost": null, "status_type_id": null, "operator_id": 3615, "data_provider_id": 18, "operator": "Dragon Charging", "status": "Unknown", "is_operational": true, "is_public": true, "sockets": 1, "speed_tier": "Fast (7-22kW)", "name": "The Twyn Car Park, Caerphilly"}, "geometry": {"type": "Point", "coordinates": [-3.21807, 51.574885]}}, {"type": "Feature", "properties": {"ocm_id": 173041, "address": "Stirling Road", "town": "Shopping Precinct", "postcode": "CF62 8NX", "num_points": 4.0, "usage_cost": "£0.49/kWh", "status_type_id": 50.0, "operator_id": 3, "data_provider_id": 1, "operator": "Pod Point", "status": "Operational", "is_operational": true, "is_public": true, "sockets": 4, "speed_tier": "Fast", "name": "Tesco Superstore-Barry"}, "geometry": {"type": "Point", "coordinates": [-3.290265, 51.414462]}}, {"type": "Feature", "properties": {"ocm_id": 285526, "address": "Kendrick Road Car Park, Vale of Glamorgan", "town": "Barry", "postcode": "CF63 4HD", "num_points": null, "usage_cost": null, "status_type_id": 0.0, "operator_id": 3509, "data_provider_id": 18, "operator": "ubitricity", "status": "Unknown", "is_operational": true, "is_public": true, "sockets": 1, "speed_tier": "Slow (5-7kW)", "name": "Kendrick Road, Barry"}, "geometry": {"type": "Point", "coordinates": [-3.27213, 51.404091]}}, {"type": "Feature", "properties": {"ocm_id": 135576, "address": "Waterfront Retail Park", "town": "Barry", "postcode": "CF64 4BA", "num_points": 2.0, "usage_cost": "£0.75/kWh", "status_type_id": 50.0, "operator_id": 3296, "data_provider_id": 1, "operator": "mer (UK)", "status": "Operational", "is_operational": true, "is_public": true, "sockets": 2, "speed_tier": "Rapid (high £/kWh)", "name": "InstaVolt Waterfront Retail Park"}, "geometry": {"type": "Point", "coordinates": [-3.268866, 51.401095]}}, {"type": "Feature", "properties": {"ocm_id": 167024, "address": "44 Castle St", "town": "Caerphilly", "postcode": "CF83 1NU", "num_points": null, "usage_cost": "£1 connection fee then 30p per kw", "status_type_id": 50.0, "operator_id": 150, "data_provider_id": 1, "operator": "Osprey", "status": "Operational", "is_operational": true, "is_public": true, "sockets": 1, "speed_tier": "Rapid (50-150kW)", "name": "Morrisons Caerphilly"}, "geometry": {"type": "Point", "coordinates": [-3.215604, 51.57727]}}, {"type": "Feature", "properties": {"ocm_id": 260057, "address": "Nantgarw Road", "town": "Caerphilly", "postcode": "CF83 2AX", "num_points": 4.0, "usage_cost": "£0.79/kWh", "status_type_id": 50.0, "operator_id": 203, "data_provider_id": 1, "operator": "Connected Kerb", "status": "Operational", "is_operational": true, "is_public": true, "sockets": 4, "speed_tier": "Rapid (high £/kWh)", "name": "Red Kite Pub & Restaurant"}, "geometry": {"type": "Point", "coordinates": [-3.2447787, 51.5713]}}, {"type": "Feature", "properties": {"ocm_id": 213993, "address": "Penny Way", "town": "Barry", "postcode": "CF63 4BA", "num_points": null, "usage_cost": null, "status_type_id": null, "operator_id": 150, "data_provider_id": 18, "operator": "Osprey", "status": "Unknown", "is_operational": true, "is_public": true, "sockets": 1, "speed_tier": "Rapid (50-150kW)", "name": "Morrisons"}, "geometry": {"type": "Point", "coordinates": [-3.271728, 51.401489]}}, {"type": "Feature", "properties": {"ocm_id": 286425, "address": "Aber Railway Station, Nantgarw Road", "town": "Carephilly", "postcode": "CF83 1AT", "num_points": null, "usage_cost": null, "status_type_id": 0.0, "operator_id": 3509, "data_provider_id": 18, "operator": "ubitricity", "status": "Unknown", "is_operational": true, "is_public": true, "sockets": 1, "speed_tier": "Slow (5-7kW)", "name": "Aber Railway Station, Nantgarw Road"}, "geometry": {"type": "Point", "coordinates": [-3.23067, 51.576004]}}, {"type": "Feature", "properties": {"ocm_id": 285518, "address": "Broad Street, Vale Of Glamorgan", "town": "Barry", "postcode": "CF62 7AH", "num_points": null, "usage_cost": null, "status_type_id": 0.0, "operator_id": 3509, "data_provider_id": 18, "operator": "ubitricity", "status": "Unknown", "is_operational": true, "is_public": true, "sockets": 1, "speed_tier": "Slow (5-7kW)", "name": "Broad Street, Barry"}, "geometry": {"type": "Point", "coordinates": [-3.277924, 51.401858]}}, {"type": "Feature", "properties": {"ocm_id": 251106, "address": "BSC2 Carpark", "town": "Barry", "postcode": "CF62 5QL", "num_points": null, "usage_cost": null, "status_type_id": null, "operator_id": 3509, "data_provider_id": 18, "operator": "ubitricity", "status": "Unknown", "is_operational": true, "is_public": true, "sockets": 1, "speed_tier": "Slow (5-7kW)", "name": "BSC2 Carpark"}, "geometry": {"type": "Point", "coordinates": [-3.27942, 51.400511]}}, {"type": "Feature", "properties": {"ocm_id": 47114, "address": "Ffordd y Mileniwm", "town": "Barry", "postcode": "CF62 5AT", "num_points": 4.0, "usage_cost": "Inclusive; for Polar Plus subscription members only", "status_type_id": 50.0, "operator_id": 32, "data_provider_id": 1, "operator": "MFG EV Power / ESB Energy", "status": "Operational", "is_operational": true, "is_public": true, "sockets": 4, "speed_tier": "Workplace/Free", "name": "ASDA Barry Superstore"}, "geometry": {"type": "Point", "coordinates": [-3.278613, 51.397175]}}, {"type": "Feature", "properties": {"ocm_id": 259892, "address": "Green Lady", "town": "Pontygwindy Raod", "postcode": "CF83 3HF", "num_points": 4.0, "usage_cost": "£0.79/kWh", "status_type_id": 50.0, "operator_id": 203, "data_provider_id": 1, "operator": "Connected Kerb", "status": "Operational", "is_operational": true, "is_public": true, "sockets": 4, "speed_tier": "Rapid (high £/kWh)", "name": "Green Lady"}, "geometry": {"type": "Point", "coordinates": [-3.219711, 51.584257]}}, {"type": "Feature", "properties": {"ocm_id": 285479, "address": "Nell?s Point Car Park", "town": "Barry", "postcode": "CF62 5AH", "num_points": null, "usage_cost": null, "status_type_id": 0.0, "operator_id": 3509, "data_provider_id": 18, "operator": "ubitricity", "status": "Unknown", "is_operational": true, "is_public": true, "sockets": 1, "speed_tier": "Slow (5-7kW)", "name": "Nell?s Point, Barry"}, "geometry": {"type": "Point", "coordinates": [-3.270785, 51.391034]}}, {"type": "Feature", "properties": {"ocm_id": 285483, "address": "Harbour Road Car Park", "town": "Barry", "postcode": "CF62 5BJ", "num_points": null, "usage_cost": null, "status_type_id": 0.0, "operator_id": 3509, "data_provider_id": 18, "operator": "ubitricity", "status": "Unknown", "is_operational": true, "is_public": true, "sockets": 1, "speed_tier": "Slow (5-7kW)", "name": "Harbour Road, Barry"}, "geometry": {"type": "Point", "coordinates": [-3.278988, 51.392784]}}, {"type": "Feature", "properties": {"ocm_id": 286506, "address": "Parc Pontypandy Crossways Retail Park", "town": "Caerphilly", "postcode": "CF83 3NL", "num_points": null, "usage_cost": null, "status_type_id": 0.0, "operator_id": 3, "data_provider_id": 1, "operator": "Pod Point", "status": "Unknown", "is_operational": true, "is_public": true, "sockets": 1, "speed_tier": "Fast (7-22kW)", "name": "Tesco Superstore - Caerphilly"}, "geometry": {"type": "Point", "coordinates": [-3.21213, 51.589753]}}, {"type": "Feature", "properties": {"ocm_id": 200709, "address": "Navigation Street", "town": "Trethomas", "postcode": "CF83 8DJ", "num_points": null, "usage_cost": null, "status_type_id": null, "operator_id": 3615, "data_provider_id": 18, "operator": "Dragon Charging", "status": "Unknown", "is_operational": true, "is_public": true, "sockets": 1, "speed_tier": "Fast (7-22kW)", "name": "Navigation Street Car Park"}, "geometry": {"type": "Point", "coordinates": [-3.18374, 51.592386]}}, {"type": "Feature", "properties": {"ocm_id": 149810, "address": "Parc Pontypandy", "town": "Caerphilly", "postcode": "CF83 3GX", "num_points": 2.0, "usage_cost": "£0.75/kWh", "status_type_id": 50.0, "operator_id": 3296, "data_provider_id": 1, "operator": "mer (UK)", "status": "Operational", "is_operational": true, "is_public": true, "sockets": 2, "speed_tier": "Rapid (high £/kWh)", "name": "Gallagher Retail Park"}, "geometry": {"type": "Point", "coordinates": [-3.2150822, 51.5904159]}}, {"type": "Feature", "properties": {"ocm_id": 268050, "address": "Renishaw plc Miskin", "town": "Pontyclun", "postcode": "CF72 8XY", "num_points": null, "usage_cost": null, "status_type_id": null, "operator_id": 5, "data_provider_id": 18, "operator": "Charge Your Car", "status": "Unknown", "is_operational": true, "is_public": true, "sockets": 1, "speed_tier": "Unknown", "name": "MISKIN V21"}, "geometry": {"type": "Point", "coordinates": [-3.35311, 51.506801]}}, {"type": "Feature", "properties": {"ocm_id": 268046, "address": "Renishaw plc Miskin", "town": "Pontyclun", "postcode": "CF72 8XY", "num_points": null, "usage_cost": null, "status_type_id": null, "operator_id": 5, "data_provider_id": 18, "operator": "Charge Your Car", "status": "Unknown", "is_operational": true, "is_public": true, "sockets": 1, "speed_tier": "Unknown", "name": "MISKIN A3"}, "geometry": {"type": "Point", "coordinates": [-3.353569, 51.506204]}}, {"type": "Feature", "properties": {"ocm_id": 268047, "address": "Renishaw plc Miskin", "town": "Pontyclun", "postcode": "CF72 8XY", "num_points": null, "usage_cost": null, "status_type_id": null, "operator_id": 5, "data_provider_id": 18, "operator": "Charge Your Car", "status": "Unknown", "is_operational": true, "is_public": true, "sockets": 1, "speed_tier": "Unknown", "name": "MISKIN A10"}, "geometry": {"type": "Point", "coordinates": [-3.353846, 51.506315]}}, {"type": "Feature", "properties": {"ocm_id": 268048, "address": "Renishaw plc Miskin", "town": "Pontyclun", "postcode": "CF72 8XY", "num_points": null, "usage_cost": null, "status_type_id": null, "operator_id": 5, "data_provider_id": 18, "operator": "Charge Your Car", "status": "Unknown", "is_operational": true, "is_public": true, "sockets": 1, "speed_tier": "Unknown", "name": "MISKIN A19"}, "geometry": {"type": "Point", "coordinates": [-3.354223, 51.506439]}}, {"type": "Feature", "properties": {"ocm_id": 127107, "address": "Celtic Springs Business Park", "town": "Newport", "postcode": "NP10  8FZ", "num_points": 2.0, "usage_cost": null, "status_type_id": 50.0, "operator_id": 3356, "data_provider_id": 1, "operator": "Welsh Water (Workplace)", "status": "Operational", "is_operational": true, "is_public": true, "sockets": 2, "speed_tier": "Unknown", "name": "Dŵr Cymru Welsh Water Newport"}, "geometry": {"type": "Point", "coordinates": [-3.044388, 51.557838]}}, {"type": "Feature", "properties": {"ocm_id": 285482, "address": "Bron Y Mor Car Park, Vale of Glamorgan", "town": "Barry", "postcode": "CF62 6SW", "num_points": null, "usage_cost": null, "status_type_id": 0.0, "operator_id": 3509, "data_provider_id": 18, "operator": "ubitricity", "status": "Unknown", "is_operational": true, "is_public": true, "sockets": 1, "speed_tier": "Slow (5-7kW)", "name": "Bron Y Mor, Barry"}, "geometry": {"type": "Point", "coordinates": [-3.292299, 51.392234]}}, {"type": "Feature", "properties": {"ocm_id": 286565, "address": "The Crescent Car Park, Machen", "town": "Caerphilly", "postcode": "CF83 8ND", "num_points": null, "usage_cost": null, "status_type_id": 0.0, "operator_id": 3509, "data_provider_id": 18, "operator": "ubitricity", "status": "Unknown", "is_operational": true, "is_public": true, "sockets": 1, "speed_tier": "Slow (5-7kW)", "name": "The Crescent, Machen"}, "geometry": {"type": "Point", "coordinates": [-3.142358, 51.595006]}}, {"type": "Feature", "properties": {"ocm_id": 136569, "address": "Upper Boat, Pontypridd, South Wales", "town": "Pontypridd", "postcode": "CF37 5YE", "num_points": null, "usage_cost": null, "status_type_id": null, "operator_id": 3, "data_provider_id": 1, "operator": "Pod Point", "status": "Unknown", "is_operational": true, "is_public": true, "sockets": 1, "speed_tier": "Fast (7-22kW)", "name": "Griffin Mill Garages - Nissan"}, "geometry": {"type": "Point", "coordinates": [-3.288163, 51.576502]}}, {"type": "Feature", "properties": {"ocm_id": 285476, "address": "Knap Terrace Car Park, Vale of Glamorgan", "town": "Barry", "postcode": "CF62 6TA", "num_points": null, "usage_cost": null, "status_type_id": 0.0, "operator_id": 3509, "data_provider_id": 18, "operator": "ubitricity", "status": "Unknown", "is_operational": true, "is_public": true, "sockets": 1, "speed_tier": "Slow (5-7kW)", "name": "Knap Terrace, Barry"}, "geometry": {"type": "Point", "coordinates": [-3.296315, 51.390169]}}, {"type": "Feature", "properties": {"ocm_id": 289978, "address": "Aubrey Arms", "town": "Swansea Road", "postcode": "CF5 6TQ", "num_points": 2.0, "usage_cost": "£0.79/kWh", "status_type_id": 50.0, "operator_id": 203, "data_provider_id": 1, "operator": "Connected Kerb", "status": "Operational", "is_operational": true, "is_public": true, "sockets": 2, "speed_tier": "Rapid (high £/kWh)", "name": "Aubrey Arms"}, "geometry": {"type": "Point", "coordinates": [-3.36277, 51.456726]}}, {"type": "Feature", "properties": {"ocm_id": 54514, "address": "Upper Boat", "town": "Pontypridd", "postcode": "CF37 5YH", "num_points": 2.0, "usage_cost": "Free", "status_type_id": 50.0, "operator_id": 7, "data_provider_id": 1, "operator": "Nissan/BMW Dealers", "status": "Operational", "is_operational": true, "is_public": true, "sockets": 2, "speed_tier": "Workplace/Free", "name": "Griffin Mill Garages-Nissan"}, "geometry": {"type": "Point", "coordinates": [-3.294382, 51.57472]}}, {"type": "Feature", "properties": {"ocm_id": 92837, "address": "The Hyundai Centre", "town": "Pontypridd", "postcode": "CF37 5YH", "num_points": 3.0, "usage_cost": "Free", "status_type_id": 0.0, "operator_id": 3, "data_provider_id": 1, "operator": "Pod Point", "status": "Unknown", "is_operational": true, "is_public": true, "sockets": 3, "speed_tier": "Workplace/Free", "name": "The Hyundai Centre-Hutchings Hyundai"}, "geometry": {"type": "Point", "coordinates": [-3.295223, 51.575511]}}, {"type": "Feature", "properties": {"ocm_id": 112843, "address": "Lakeside Drive", "town": "Newport", "postcode": "NP10 8BB", "num_points": 1.0, "usage_cost": "£0.79/kWh; other tariffs available", "status_type_id": 50.0, "operator_id": 32, "data_provider_id": 1, "operator": "MFG EV Power / ESB Energy", "status": "Operational", "is_operational": true, "is_public": true, "sockets": 1, "speed_tier": "Rapid (high £/kWh)", "name": "Holiday Inn Express Newport"}, "geometry": {"type": "Point", "coordinates": [-3.0361, 51.5606]}}, {"type": "Feature", "properties": {"ocm_id": 285485, "address": "Porthkerry Park Car Park, Vale Of Glamorgan", "town": "Barry", "postcode": "CF62 3BY", "num_points": null, "usage_cost": null, "status_type_id": 0.0, "operator_id": 3509, "data_provider_id": 18, "operator": "ubitricity", "status": "Unknown", "is_operational": true, "is_public": true, "sockets": 1, "speed_tier": "Slow (5-7kW)", "name": "Porthkerry Park, Barry"}, "geometry": {"type": "Point", "coordinates": [-3.315205, 51.393979]}}, {"type": "Feature", "properties": {"ocm_id": 286412, "address": "Llantwit Fardre Leisure Centre", "town": "Cardiff", "postcode": "CF38 1DN", "num_points": null, "usage_cost": null, "status_type_id": 0.0, "operator_id": 3509, "data_provider_id": 18, "operator": "ubitricity", "status": "Unknown", "is_operational": true, "is_public": true, "sockets": 1, "speed_tier": "Slow (5-7kW)", "name": "Llantwit Fardre Leisure Centre, Pontypridd"}, "geometry": {"type": "Point", "coordinates": [-3.3184, 51.567693]}}, {"type": "Feature", "properties": {"ocm_id": 286475, "address": "Gelli-Hirion Industrial Estate", "town": "Pontypridd", "postcode": "CF37 5SN", "num_points": null, "usage_cost": null, "status_type_id": 0.0, "operator_id": 3, "data_provider_id": 1, "operator": "Pod Point", "status": "Unknown", "is_operational": true, "is_public": true, "sockets": 1, "speed_tier": "Fast (7-22kW)", "name": "Tesco Extra - Pontypridd"}, "geometry": {"type": "Point", "coordinates": [-3.296328, 51.580388]}}, {"type": "Feature", "properties": {"ocm_id": 31389, "address": " ", "town": "Newport  ", "postcode": "NP10 8YW", "num_points": 1.0, "usage_cost": "", "status_type_id": 50.0, "operator_id": 19, "data_provider_id": 1, "operator": "National Trust / Workplace", "status": "Operational", "is_operational": true, "is_public": true, "sockets": 1, "speed_tier": "Unknown", "name": "National Trust Tredegar House"}, "geometry": {"type": "Point", "coordinates": [-3.028106, 51.561601]}}, {"type": "Feature", "properties": {"ocm_id": 200715, "address": "Aberfawr Rd", "town": "Abertridwr", "postcode": "CF83 4EJ", "num_points": null, "usage_cost": null, "status_type_id": null, "operator_id": 3615, "data_provider_id": 18, "operator": "Dragon Charging", "status": "Unknown", "is_operational": true, "is_public": true, "sockets": 1, "speed_tier": "Fast (7-22kW)", "name": "Abertridwr Library"}, "geometry": {"type": "Point", "coordinates": [-3.26841, 51.595]}}, {"type": "Feature", "properties": {"ocm_id": 157910, "address": "South Wales", "town": "Newport", "postcode": "NP10 8QQ", "num_points": null, "usage_cost": null, "status_type_id": null, "operator_id": 32, "data_provider_id": 18, "operator": "MFG EV Power / ESB Energy", "status": "Unknown", "is_operational": true, "is_public": true, "sockets": 1, "speed_tier": "Mixed (7-50kW)", "name": "Concept House"}, "geometry": {"type": "Point", "coordinates": [-3.029248, 51.567146]}}, {"type": "Feature", "properties": {"ocm_id": 259992, "address": "Hawthorn Inn", "town": "Pontypridd", "postcode": "CF37 5AG", "num_points": 4.0, "usage_cost": "£0.79/kWh", "status_type_id": 50.0, "operator_id": 203, "data_provider_id": 1, "operator": "Connected Kerb", "status": "Operational", "is_operational": true, "is_public": true, "sockets": 4, "speed_tier": "Rapid (high £/kWh)", "name": "Hawthorn Inn"}, "geometry": {"type": "Point", "coordinates": [-3.307423, 51.580159]}}, {"type": "Feature", "properties": {"ocm_id": 200729, "address": "Station Road", "town": "Llanbradach", "postcode": "CF83 3LF", "num_points": null, "usage_cost": null, "status_type_id": null, "operator_id": 3615, "data_provider_id": 18, "operator": "Dragon Charging", "status": "Unknown", "is_operational": true, "is_public": true, "sockets": 1, "speed_tier": "Fast (7-22kW)", "name": "Station Road Car Park"}, "geometry": {"type": "Point", "coordinates": [-3.23128, 51.6044]}}, {"type": "Feature", "properties": {"ocm_id": 157804, "address": "Rhoose", "town": "Cardiff", "postcode": "CF62 3BT", "num_points": null, "usage_cost": "£0.79/kWh; other tariffs available", "status_type_id": null, "operator_id": 32, "data_provider_id": 1, "operator": "MFG EV Power / ESB Energy", "status": "Unknown", "is_operational": true, "is_public": true, "sockets": 1, "speed_tier": "Rapid (high £/kWh)", "name": "Holiday Inn Express Cardiff Airport Port Road"}, "geometry": {"type": "Point", "coordinates": [-3.332942, 51.397797]}}, {"type": "Feature", "properties": {"ocm_id": 187801, "address": "Rogerstone", "town": "Newport", "postcode": "NP10 9NA", "num_points": 1.0, "usage_cost": "£0.63/kWh; other tariffs available", "status_type_id": 50.0, "operator_id": 136, "data_provider_id": 1, "operator": "Drax / Opus Energy", "status": "Operational", "is_operational": true, "is_public": true, "sockets": 1, "speed_tier": "Fast", "name": "Rogerstone"}, "geometry": {"type": "Point", "coordinates": [-3.052874, 51.584775]}}, {"type": "Feature", "properties": {"ocm_id": 173047, "address": "Pontymister Industrial Estate", "town": "Newport Road", "postcode": "NP11 6NP", "num_points": 4.0, "usage_cost": "£0.49/kWh", "status_type_id": 50.0, "operator_id": 3, "data_provider_id": 1, "operator": "Pod Point", "status": "Operational", "is_operational": true, "is_public": true, "sockets": 4, "speed_tier": "Fast", "name": "Tesco Extra-Risca"}, "geometry": {"type": "Point", "coordinates": [-3.097831, 51.60259]}}, {"type": "Feature", "properties": {"ocm_id": 200637, "address": "Newport", "town": "Newport", "postcode": "NP10 8YJ", "num_points": null, "usage_cost": null, "status_type_id": null, "operator_id": 3615, "data_provider_id": 18, "operator": "Dragon Charging", "status": "Unknown", "is_operational": true, "is_public": true, "sockets": 1, "speed_tier": "Fast (7-22kW)", "name": "Tredegar Park, Newport"}, "geometry": {"type": "Point", "coordinates": [-3.021717, 51.569014]}}, {"type": "Feature", "properties": {"ocm_id": 214501, "address": "Azalea Road", "town": "Rogerstone", "postcode": "NP10 9SA", "num_points": null, "usage_cost": null, "status_type_id": null, "operator_id": 150, "data_provider_id": 18, "operator": "Osprey", "status": "Unknown", "is_operational": true, "is_public": true, "sockets": 1, "speed_tier": "Rapid (50-150kW)", "name": "Azalea Road"}, "geometry": {"type": "Point", "coordinates": [-3.078313, 51.597099]}}, {"type": "Feature", "properties": {"ocm_id": 214500, "address": "Rivermead Centre Car Par", "town": "Newport", "postcode": "NP10 9LZ", "num_points": null, "usage_cost": null, "status_type_id": null, "operator_id": 3509, "data_provider_id": 18, "operator": "ubitricity", "status": "Unknown", "is_operational": true, "is_public": true, "sockets": 1, "speed_tier": "Slow (5-7kW)", "name": "Rivermead Centre Car Park, Newport"}, "geometry": {"type": "Point", "coordinates": [-3.070126, 51.594429]}}, {"type": "Feature", "properties": {"ocm_id": 213043, "address": "Western Valley Road", "town": "Newport", "postcode": "NP10 9DU", "num_points": 2.0, "usage_cost": "£0.65/kWh", "status_type_id": 50.0, "operator_id": 3496, "data_provider_id": 1, "operator": "Local Authority", "status": "Operational", "is_operational": true, "is_public": true, "sockets": 2, "speed_tier": "Fast", "name": "Pye Corner Railway Station"}, "geometry": {"type": "Point", "coordinates": [-3.041134763146971, 51.58147283050593]}}, {"type": "Feature", "properties": {"ocm_id": 259470, "address": "Afon Ebbw Road", "town": "Newport", "postcode": "NP10 9HZ", "num_points": 2.0, "usage_cost": "£0.75/kWh", "status_type_id": 50.0, "operator_id": 3296, "data_provider_id": 1, "operator": "mer (UK)", "status": "Operational", "is_operational": true, "is_public": true, "sockets": 2, "speed_tier": "Rapid (high £/kWh)", "name": "InstaVolt McDonald's Meadowland"}, "geometry": {"type": "Point", "coordinates": [-3.0765198, 51.5974622]}}, {"type": "Feature", "properties": {"ocm_id": 173611, "address": "", "town": "Newport", "postcode": "NP10 9LG", "num_points": null, "usage_cost": null, "status_type_id": 0.0, "operator_id": 150, "data_provider_id": 18, "operator": "Osprey", "status": "Unknown", "is_operational": true, "is_public": true, "sockets": 1, "speed_tier": "Rapid (50-150kW)", "name": "NP10 9LG"}, "geometry": {"type": "Point", "coordinates": [-3.066715, 51.595108]}}, {"type": "Feature", "properties": {"ocm_id": 205043, "address": "Green Park", "town": "Talbot Green", "postcode": "CF72 8RB", "num_points": 4.0, "usage_cost": "£0.44/kWh", "status_type_id": 50.0, "operator_id": 3, "data_provider_id": 1, "operator": "Pod Point", "status": "Operational", "is_operational": true, "is_public": true, "sockets": 4, "speed_tier": "Fast", "name": "Tesco Extra-Pontyclun Talbot Green"}, "geometry": {"type": "Point", "coordinates": [-3.377051, 51.534967]}}, {"type": "Feature", "properties": {"ocm_id": 286190, "address": "Llantrisant Leisure Centre", "town": "Cardiff", "postcode": "CF72 8DL", "num_points": null, "usage_cost": null, "status_type_id": 0.0, "operator_id": 3509, "data_provider_id": 18, "operator": "ubitricity", "status": "Unknown", "is_operational": true, "is_public": true, "sockets": 1, "speed_tier": "Slow (5-7kW)", "name": "Llantrisant Leisure Centre"}, "geometry": {"type": "Point", "coordinates": [-3.375303, 51.538982]}}, {"type": "Feature", "properties": {"ocm_id": 214513, "address": "18 William Street", "town": "Cwmfelinfach", "postcode": "NP23 7T", "num_points": null, "usage_cost": null, "status_type_id": null, "operator_id": 3509, "data_provider_id": 18, "operator": "ubitricity", "status": "Unknown", "is_operational": true, "is_public": true, "sockets": 1, "speed_tier": "Slow (5-7kW)", "name": "William Street, CWM"}, "geometry": {"type": "Point", "coordinates": [-3.175779, 51.616531]}}, {"type": "Feature", "properties": {"ocm_id": 286231, "address": "Heol y Sarn Car Park", "town": "Cardiff", "postcode": "CF72 8QQ", "num_points": null, "usage_cost": null, "status_type_id": 0.0, "operator_id": 3509, "data_provider_id": 18, "operator": "ubitricity", "status": "Unknown", "is_operational": true, "is_public": true, "sockets": 1, "speed_tier": "Slow (5-7kW)", "name": "Heol y Sarn, Llantrisant"}, "geometry": {"type": "Point", "coordinates": [-3.374162, 51.543779]}}, {"type": "Feature", "properties": {"ocm_id": 254801, "address": "Maesglas Community Centre", "town": "Newport", "postcode": "NP20 3XT", "num_points": null, "usage_cost": null, "status_type_id": null, "operator_id": 3509, "data_provider_id": 18, "operator": "ubitricity", "status": "Unknown", "is_operational": true, "is_public": true, "sockets": 1, "speed_tier": "Slow (5-7kW)", "name": "Maesglas Community Centre"}, "geometry": {"type": "Point", "coordinates": [-3.012681, 51.570924]}}, {"type": "Feature", "properties": {"ocm_id": 200735, "address": "Tredegar St", "town": "Risca", "postcode": "NP11 6BU", "num_points": null, "usage_cost": null, "status_type_id": null, "operator_id": 3615, "data_provider_id": 18, "operator": "Dragon Charging", "status": "Unknown", "is_operational": true, "is_public": true, "sockets": 1, "speed_tier": "Fast (7-22kW)", "name": "Longbridge Car Park"}, "geometry": {"type": "Point", "coordinates": [-3.10156, 51.61]}}, {"type": "Feature", "properties": {"ocm_id": 175217, "address": "Cardiff Road", "town": "Newport", "postcode": "NP20 3BP", "num_points": 2.0, "usage_cost": "£0.74/kWh; other tariffs available", "status_type_id": 50.0, "operator_id": 38, "data_provider_id": 1, "operator": "Lidl (Customer)", "status": "Operational", "is_operational": true, "is_public": true, "sockets": 2, "speed_tier": "Rapid (high £/kWh)", "name": "Lidl-Cardiff Road"}, "geometry": {"type": "Point", "coordinates": [-3.012668, 51.57173]}}, {"type": "Feature", "properties": {"ocm_id": 286666, "address": "Commerical Road, Cwmfelinfach,", "town": "Cardiff Capital Region", "postcode": "NP11 7HT", "num_points": null, "usage_cost": null, "status_type_id": 0.0, "operator_id": 3509, "data_provider_id": 18, "operator": "ubitricity", "status": "Unknown", "is_operational": true, "is_public": true, "sockets": 1, "speed_tier": "Slow (5-7kW)", "name": "Commercial Buildings, Cwmfelinfach Car Park"}, "geometry": {"type": "Point", "coordinates": [-3.178465, 51.618888]}}, {"type": "Feature", "properties": {"ocm_id": 214491, "address": "Gaer Community Centre", "town": "Newport", "postcode": "NP20 3GY", "num_points": null, "usage_cost": null, "status_type_id": null, "operator_id": 3509, "data_provider_id": 18, "operator": "ubitricity", "status": "Unknown", "is_operational": true, "is_public": true, "sockets": 1, "speed_tier": "Slow (5-7kW)", "name": "Gaer Community Centre"}, "geometry": {"type": "Point", "coordinates": [-3.018607, 51.577668]}}, {"type": "Feature", "properties": {"ocm_id": 286088, "address": "Heol Yr Osaf, Syphon Street", "town": "Cardiff", "postcode": "CF72 9DN", "num_points": null, "usage_cost": null, "status_type_id": 0.0, "operator_id": 3509, "data_provider_id": 18, "operator": "ubitricity", "status": "Unknown", "is_operational": true, "is_public": true, "sockets": 1, "speed_tier": "Slow (5-7kW)", "name": "Heol Yr Osaf (Lease), Rhondda Cynon Taf"}, "geometry": {"type": "Point", "coordinates": [-3.393564, 51.522581]}}, {"type": "Feature", "properties": {"ocm_id": 261000, "address": "Talbot Green Community Centre", "town": "Pontyclun", "postcode": "CF72 8HS", "num_points": null, "usage_cost": null, "status_type_id": null, "operator_id": 3509, "data_provider_id": 18, "operator": "ubitricity", "status": "Unknown", "is_operational": true, "is_public": true, "sockets": 1, "speed_tier": "Slow (5-7kW)", "name": "Talbot Green Community Centre"}, "geometry": {"type": "Point", "coordinates": [-3.389699, 51.534238]}}, {"type": "Feature", "properties": {"ocm_id": 213978, "address": "Rhoose Interchange Park & Ride Car Park 1", "town": "Barry", "postcode": "CF62 3BH", "num_points": null, "usage_cost": null, "status_type_id": null, "operator_id": 3509, "data_provider_id": 18, "operator": "ubitricity", "status": "Unknown", "is_operational": true, "is_public": true, "sockets": 1, "speed_tier": "Slow (5-7kW)", "name": "Rhoose Interchange Park & Ride Car Park 1"}, "geometry": {"type": "Point", "coordinates": [-3.34864, 51.386694]}}, {"type": "Feature", "properties": {"ocm_id": 286668, "address": "Gladstone Street", "town": "Cardiff", "postcode": "NP11 7PA", "num_points": 2.0, "usage_cost": "£0.53/kWh", "status_type_id": 50.0, "operator_id": 3509, "data_provider_id": 1, "operator": "ubitricity", "status": "Operational", "is_operational": true, "is_public": true, "sockets": 2, "speed_tier": "Fast", "name": "Gladstone Street, Crosskeys"}, "geometry": {"type": "Point", "coordinates": [-3.127808, 51.620183]}}, {"type": "Feature", "properties": {"ocm_id": 200791, "address": "High Street", "town": "Ynysddu", "postcode": "NP11 7JJ", "num_points": null, "usage_cost": null, "status_type_id": null, "operator_id": 3615, "data_provider_id": 18, "operator": "Dragon Charging", "status": "Unknown", "is_operational": true, "is_public": true, "sockets": 1, "speed_tier": "Fast (7-22kW)", "name": "High Street Car Park"}, "geometry": {"type": "Point", "coordinates": [-3.18574, 51.625277]}}, {"type": "Feature", "properties": {"ocm_id": 286505, "address": "Allt Yr Yn Avenue", "town": "Newport", "postcode": "NP20 5DE", "num_points": null, "usage_cost": null, "status_type_id": 0.0, "operator_id": 3615, "data_provider_id": 18, "operator": "Dragon Charging", "status": "Unknown", "is_operational": true, "is_public": true, "sockets": 1, "speed_tier": "Fast (7-22kW)", "name": "Ridgeway, Newport"}, "geometry": {"type": "Point", "coordinates": [-3.020376, 51.589091]}}, {"type": "Feature", "properties": {"ocm_id": 173607, "address": "Waterloo Road", "town": "Newport", "postcode": "NP20 4FP", "num_points": null, "usage_cost": null, "status_type_id": 0.0, "operator_id": 150, "data_provider_id": 18, "operator": "Osprey", "status": "Unknown", "is_operational": true, "is_public": true, "sockets": 1, "speed_tier": "Rapid (50-150kW)", "name": "Waterloo Road"}, "geometry": {"type": "Point", "coordinates": [-3.003861, 51.579385]}}, {"type": "Feature", "properties": {"ocm_id": 286424, "address": "Alice Street", "town": "Newport", "postcode": "NP20 2HF", "num_points": null, "usage_cost": null, "status_type_id": 0.0, "operator_id": 3615, "data_provider_id": 18, "operator": "Dragon Charging", "status": "Unknown", "is_operational": true, "is_public": true, "sockets": 1, "speed_tier": "Fast (7-22kW)", "name": "Alice Street, Newport"}, "geometry": {"type": "Point", "coordinates": [-2.993198, 51.572216]}}, {"type": "Feature", "properties": {"ocm_id": 286423, "address": "Alexandra Road", "town": "Newport", "postcode": "NP20 2JF", "num_points": null, "usage_cost": null, "status_type_id": 0.0, "operator_id": 3615, "data_provider_id": 18, "operator": "Dragon Charging", "status": "Unknown", "is_operational": true, "is_public": true, "sockets": 1, "speed_tier": "Fast (7-22kW)", "name": "Alexandra Road, Newport"}, "geometry": {"type": "Point", "coordinates": [-2.989939, 51.572152]}}, {"type": "Feature", "properties": {"ocm_id": 146644, "address": "Heol-Y-Sarn", "town": "Pontyclun", "postcode": "CF72 8YT", "num_points": 4.0, "usage_cost": "£0.45/kWh", "status_type_id": 50.0, "operator_id": 3, "data_provider_id": 1, "operator": "Pod Point", "status": "Operational", "is_operational": true, "is_public": true, "sockets": 4, "speed_tier": "Fast", "name": "The Royal Mint Experience"}, "geometry": {"type": "Point", "coordinates": [-3.388255, 51.55405]}}, {"type": "Feature", "properties": {"ocm_id": 200645, "address": "Mill Parade", "town": "Newport", "postcode": "NP20 2JS", "num_points": null, "usage_cost": null, "status_type_id": null, "operator_id": 3615, "data_provider_id": 18, "operator": "Dragon Charging", "status": "Unknown", "is_operational": true, "is_public": true, "sockets": 1, "speed_tier": "Fast (7-22kW)", "name": "Mill Parade Car Park"}, "geometry": {"type": "Point", "coordinates": [-2.98795, 51.5713]}}, {"type": "Feature", "properties": {"ocm_id": 195119, "address": "Royal Gwent Hospital", "town": "Cardiff Rd", "postcode": "NP20 2UB", "num_points": 4.0, "usage_cost": "£0.21573/kWh,£0.22912/kWh", "status_type_id": 50.0, "operator_id": 3, "data_provider_id": 1, "operator": "Pod Point", "status": "Operational", "is_operational": true, "is_public": true, "sockets": 4, "speed_tier": "Fast (7-22kW)", "name": "Royal Gwent Hospital"}, "geometry": {"type": "Point", "coordinates": [-2.997171, 51.579502]}}, {"type": "Feature", "properties": {"ocm_id": 286470, "address": "Alma Street", "town": "Newport", "postcode": "NP20 2RB", "num_points": null, "usage_cost": null, "status_type_id": 0.0, "operator_id": 3615, "data_provider_id": 18, "operator": "Dragon Charging", "status": "Unknown", "is_operational": true, "is_public": true, "sockets": 1, "speed_tier": "Fast (7-22kW)", "name": "Alma Street, Newport"}, "geometry": {"type": "Point", "coordinates": [-2.992493, 51.579757]}}, {"type": "Feature", "properties": {"ocm_id": 100630, "address": "Godfrey Road", "town": "Newport", "postcode": "NP20 4UR", "num_points": 2.0, "usage_cost": "£0.35/kWh", "status_type_id": 50.0, "operator_id": 3, "data_provider_id": 1, "operator": "Pod Point", "status": "Operational", "is_operational": true, "is_public": true, "sockets": 2, "speed_tier": "Fast (7-22kW)", "name": "Civic Centre-Newport"}, "geometry": {"type": "Point", "coordinates": [-3.005291, 51.589288]}}, {"type": "Feature", "properties": {"ocm_id": 193329, "address": "Faulkner Road", "town": "Newport", "postcode": "NP20", "num_points": 4.0, "usage_cost": "£0.65/kWh", "status_type_id": 50.0, "operator_id": 3496, "data_provider_id": 1, "operator": "Local Authority", "status": "Operational", "is_operational": true, "is_public": true, "sockets": 4, "speed_tier": "Fast", "name": "Faulkner Road Car Park"}, "geometry": {"type": "Point", "coordinates": [-3.00387, 51.588719]}}, {"type": "Feature", "properties": {"ocm_id": 254825, "address": "Stow Hill", "town": "Newport", "postcode": "NP20 4DX", "num_points": null, "usage_cost": null, "status_type_id": null, "operator_id": 3615, "data_provider_id": 18, "operator": "Dragon Charging", "status": "Unknown", "is_operational": true, "is_public": true, "sockets": 1, "speed_tier": "Fast (7-22kW)", "name": "Stow Hill Car Park, Newport"}, "geometry": {"type": "Point", "coordinates": [-2.99694, 51.584522]}}, {"type": "Feature", "properties": {"ocm_id": 101758, "address": "Park Square", "town": "Newport", "postcode": "NP20 4EN", "num_points": 2.0, "usage_cost": "£0.35/kWh. Parking Fees apply", "status_type_id": 50.0, "operator_id": 3, "data_provider_id": 1, "operator": "Pod Point", "status": "Operational", "is_operational": true, "is_public": true, "sockets": 2, "speed_tier": "Fast (7-22kW)", "name": "Park Square MSCP"}, "geometry": {"type": "Point", "coordinates": [-2.995132, 51.58409]}}, {"type": "Feature", "properties": {"ocm_id": 100511, "address": "5 Enterprise Way", "town": "Newport", "postcode": "NP20 2AJ", "num_points": 2.0, "usage_cost": "£0.75/kWh", "status_type_id": 50.0, "operator_id": 3296, "data_provider_id": 1, "operator": "mer (UK)", "status": "Operational", "is_operational": true, "is_public": true, "sockets": 2, "speed_tier": "Rapid (high £/kWh)", "name": "Bannatyne Health Club & Spa - Newport"}, "geometry": {"type": "Point", "coordinates": [-2.98594523691065, 51.5794931503907]}}, {"type": "Feature", "properties": {"ocm_id": 108590, "address": "John Frost Square", "town": "Newport", "postcode": "NP20 1HY", "num_points": 4.0, "usage_cost": null, "status_type_id": 50.0, "operator_id": 198, "data_provider_id": 1, "operator": "NewMotion / Shell Recharge", "status": "Operational", "is_operational": true, "is_public": true, "sockets": 4, "speed_tier": "Fast (7-22kW)", "name": "Kingsway Shopping Centre"}, "geometry": {"type": "Point", "coordinates": [-2.9930234, 51.5849366]}}, {"type": "Feature", "properties": {"ocm_id": 195124, "address": "Ysbyty Ystrad Fawr", "town": null, "postcode": "CF82 7GP", "num_points": 4.0, "usage_cost": "£0.21573/kWh,£0.22912/kWh", "status_type_id": 50.0, "operator_id": 3, "data_provider_id": 1, "operator": "Pod Point", "status": "Operational", "is_operational": true, "is_public": true, "sockets": 4, "speed_tier": "Fast (7-22kW)", "name": "Ysbyty Ystrad Fawr"}, "geometry": {"type": "Point", "coordinates": [-3.234278, 51.6332007]}}, {"type": "Feature", "properties": {"ocm_id": 286595, "address": "Sardis Road Car Park", "town": "Cardiff", "postcode": "CF37 1JR", "num_points": null, "usage_cost": null, "status_type_id": 0.0, "operator_id": 3509, "data_provider_id": 18, "operator": "ubitricity", "status": "Unknown", "is_operational": true, "is_public": true, "sockets": 1, "speed_tier": "Slow (5-7kW)", "name": "Sardis Road, Pontypridd"}, "geometry": {"type": "Point", "coordinates": [-3.345004, 51.599517]}}, {"type": "Feature", "properties": {"ocm_id": 259870, "address": "E Dock RD", "town": "Newport", "postcode": "NP20 2FR", "num_points": 3.0, "usage_cost": "£0.79/kWh", "status_type_id": 50.0, "operator_id": 203, "data_provider_id": 1, "operator": "Connected Kerb", "status": "Operational", "is_operational": true, "is_public": true, "sockets": 3, "speed_tier": "Rapid (high £/kWh)", "name": "Blaina Wharf Newport Pub & Restaurant"}, "geometry": {"type": "Point", "coordinates": [-2.9791489, 51.576917]}}, {"type": "Feature", "properties": {"ocm_id": 200690, "address": "Newport", "town": "Newport", "postcode": "NP20 1HG", "num_points": null, "usage_cost": null, "status_type_id": null, "operator_id": 3615, "data_provider_id": 18, "operator": "Dragon Charging", "status": "Unknown", "is_operational": true, "is_public": true, "sockets": 1, "speed_tier": "Fast (7-22kW)", "name": "Riverfront Car Park, Newport"}, "geometry": {"type": "Point", "coordinates": [-2.992266, 51.587269]}}, {"type": "Feature", "properties": {"ocm_id": 286677, "address": "Centre of Sporting Excellence", "town": "Caerphilly", "postcode": "CF82 7EP", "num_points": null, "usage_cost": null, "status_type_id": 0.0, "operator_id": 3509, "data_provider_id": 18, "operator": "ubitricity", "status": "Unknown", "is_operational": true, "is_public": true, "sockets": 1, "speed_tier": "Slow (5-7kW)", "name": "Centre of Sporting Excellence, Ystrad Mynach"}, "geometry": {"type": "Point", "coordinates": [-3.236433, 51.634834]}}, {"type": "Feature", "properties": {"ocm_id": 187821, "address": "Cwmcarn Forest Drive", "town": "Newport", "postcode": "NP11 7FA", "num_points": null, "usage_cost": null, "status_type_id": null, "operator_id": 3, "data_provider_id": 1, "operator": "Pod Point", "status": "Unknown", "is_operational": true, "is_public": true, "sockets": 1, "speed_tier": "Fast (7-22kW)", "name": "Cwmcarn Visitor Centre"}, "geometry": {"type": "Point", "coordinates": [-3.106308, 51.634661]}}, {"type": "Feature", "properties": {"ocm_id": 200711, "address": "Newport", "town": "Newport", "postcode": "NP20 1HG", "num_points": null, "usage_cost": null, "status_type_id": null, "operator_id": 3615, "data_provider_id": 18, "operator": "Dragon Charging", "status": "Unknown", "is_operational": true, "is_public": true, "sockets": 1, "speed_tier": "Fast (7-22kW)", "name": "Riverfront Car Park, Newport"}, "geometry": {"type": "Point", "coordinates": [-2.991721, 51.592908]}}, {"type": "Feature", "properties": {"ocm_id": 286495, "address": "Lennard Street", "town": "Newport", "postcode": "NP19 0EB", "num_points": null, "usage_cost": null, "status_type_id": 0.0, "operator_id": 3615, "data_provider_id": 18, "operator": "Dragon Charging", "status": "Unknown", "is_operational": true, "is_public": true, "sockets": 1, "speed_tier": "Fast (7-22kW)", "name": "Lennard Street, Newport"}, "geometry": {"type": "Point", "coordinates": [-2.980318, 51.586027]}}, {"type": "Feature", "properties": {"ocm_id": 72554, "address": "Malpas Road", "town": "Newport", "postcode": "NP20 5PP", "num_points": 2.0, "usage_cost": "Inclusive; for Polar Plus subscription members only. Parking charges apply", "status_type_id": 50.0, "operator_id": 32, "data_provider_id": 1, "operator": "MFG EV Power / ESB Energy", "status": "Operational", "is_operational": true, "is_public": true, "sockets": 2, "speed_tier": "Workplace/Free", "name": "Ibis Budget Hotel Newport"}, "geometry": {"type": "Point", "coordinates": [-3.004369, 51.601677]}}, {"type": "Feature", "properties": {"ocm_id": 286596, "address": "Ross Street", "town": "Newport", "postcode": "NP20 5RD", "num_points": null, "usage_cost": null, "status_type_id": 0.0, "operator_id": 3615, "data_provider_id": 18, "operator": "Dragon Charging", "status": "Unknown", "is_operational": true, "is_public": true, "sockets": 1, "speed_tier": "Fast (7-22kW)", "name": "Ross Street, Newport"}, "geometry": {"type": "Point", "coordinates": [-3.000789, 51.600276]}}, {"type": "Feature", "properties": {"ocm_id": 286492, "address": "Telford Street", "town": "Newport", "postcode": "NP19 0BE", "num_points": null, "usage_cost": null, "status_type_id": 0.0, "operator_id": 3615, "data_provider_id": 18, "operator": "Dragon Charging", "status": "Unknown", "is_operational": true, "is_public": true, "sockets": 1, "speed_tier": "Fast (7-22kW)", "name": "Telford Street, Newport"}, "geometry": {"type": "Point", "coordinates": [-2.977387, 51.585044]}}, {"type": "Feature", "properties": {"ocm_id": 286504, "address": "Oriel Road", "town": "Newport", "postcode": "NP19 0BY", "num_points": null, "usage_cost": null, "status_type_id": 0.0, "operator_id": 3615, "data_provider_id": 18, "operator": "Dragon Charging", "status": "Unknown", "is_operational": true, "is_public": true, "sockets": 1, "speed_tier": "Fast (7-22kW)", "name": "Oriel Road, Newport"}, "geometry": {"type": "Point", "coordinates": [-2.982269, 51.588791]}}, {"type": "Feature", "properties": {"ocm_id": 214490, "address": "Orb Drive", "town": "Newport", "postcode": "NP19 0RA", "num_points": null, "usage_cost": null, "status_type_id": null, "operator_id": 150, "data_provider_id": 18, "operator": "Osprey", "status": "Unknown", "is_operational": true, "is_public": true, "sockets": 1, "speed_tier": "Rapid (50-150kW)", "name": "Morrisons"}, "geometry": {"type": "Point", "coordinates": [-2.967201, 51.57747]}}, {"type": "Feature", "properties": {"ocm_id": 200799, "address": "Oakfield Street", "town": "Ystrad Mynach", "postcode": "CF82 7WX", "num_points": null, "usage_cost": null, "status_type_id": null, "operator_id": 3615, "data_provider_id": 18, "operator": "Dragon Charging", "status": "Unknown", "is_operational": true, "is_public": true, "sockets": 1, "speed_tier": "Fast (7-22kW)", "name": "Oakfield Street Car Park"}, "geometry": {"type": "Point", "coordinates": [-3.2338, 51.641914]}}, {"type": "Feature", "properties": {"ocm_id": 200704, "address": "Newport", "town": "Newport", "postcode": "NP19 8EE", "num_points": null, "usage_cost": null, "status_type_id": null, "operator_id": 3615, "data_provider_id": 18, "operator": "Dragon Charging", "status": "Unknown", "is_operational": true, "is_public": true, "sockets": 1, "speed_tier": "Fast (7-22kW)", "name": "Maindee Car Park, Newport"}, "geometry": {"type": "Point", "coordinates": [-2.98073, 51.590351]}}, {"type": "Feature", "properties": {"ocm_id": 200733, "address": "Malpas Road", "town": "Newport", "postcode": "NP20 6WB", "num_points": null, "usage_cost": null, "status_type_id": null, "operator_id": 3615, "data_provider_id": 18, "operator": "Dragon Charging", "status": "Unknown", "is_operational": true, "is_public": true, "sockets": 1, "speed_tier": "Fast (7-22kW)", "name": "Hollybush Avenue, Newport"}, "geometry": {"type": "Point", "coordinates": [-3.00827, 51.60819]}}, {"type": "Feature", "properties": {"ocm_id": 286597, "address": "Sainsbury's", "town": "Newport", "postcode": "NP20 5NJ", "num_points": 8.0, "usage_cost": "£0.75/kWh", "status_type_id": 50.0, "operator_id": 3747, "data_provider_id": 1, "operator": "MFG Ultra Rapid", "status": "Operational", "is_operational": true, "is_public": true, "sockets": 8, "speed_tier": "Rapid (high £/kWh)", "name": "Ultra Rapid EV Charging - Sainsbury's Newport"}, "geometry": {"type": "Point", "coordinates": [-2.995302, 51.601438]}}, {"type": "Feature", "properties": {"ocm_id": 286491, "address": "Henson Street", "town": "Newport", "postcode": "NP19 0HN", "num_points": null, "usage_cost": null, "status_type_id": 0.0, "operator_id": 3615, "data_provider_id": 18, "operator": "Dragon Charging", "status": "Unknown", "is_operational": true, "is_public": true, "sockets": 1, "speed_tier": "Fast (7-22kW)", "name": "Henson Street, Newport"}, "geometry": {"type": "Point", "coordinates": [-2.968826, 51.583561]}}, {"type": "Feature", "properties": {"ocm_id": 90908, "address": "Leeway Industrial Estate", "town": "Gwent", "postcode": "NP19 4SL", "num_points": 1.0, "usage_cost": "Free", "status_type_id": 0.0, "operator_id": 3, "data_provider_id": 1, "operator": "Pod Point", "status": "Unknown", "is_operational": true, "is_public": true, "sockets": 1, "speed_tier": "Workplace/Free", "name": "Capitol Skoda"}, "geometry": {"type": "Point", "coordinates": [-2.950055, 51.568227]}}, {"type": "Feature", "properties": {"ocm_id": 286497, "address": "Wyeverne Road", "town": "Newport", "postcode": "NP19 8JL", "num_points": null, "usage_cost": null, "status_type_id": 0.0, "operator_id": 3615, "data_provider_id": 18, "operator": "Dragon Charging", "status": "Unknown", "is_operational": true, "is_public": true, "sockets": 1, "speed_tier": "Fast (7-22kW)", "name": "Wyeverne Road, Newport"}, "geometry": {"type": "Point", "coordinates": [-2.967613, 51.587156]}}, {"type": "Feature", "properties": {"ocm_id": 214503, "address": "Newport Indoor Bowls Centre", "town": "Newport", "postcode": "NP19 7HF", "num_points": null, "usage_cost": null, "status_type_id": null, "operator_id": 3509, "data_provider_id": 18, "operator": "ubitricity", "status": "Unknown", "is_operational": true, "is_public": true, "sockets": 1, "speed_tier": "Slow (5-7kW)", "name": "Newport Indoor Bowls Centre"}, "geometry": {"type": "Point", "coordinates": [-2.985976, 51.603014]}}, {"type": "Feature", "properties": {"ocm_id": 286599, "address": "Bank Street", "town": "Newport", "postcode": "NP19 7HT", "num_points": null, "usage_cost": null, "status_type_id": 0.0, "operator_id": 3615, "data_provider_id": 18, "operator": "Dragon Charging", "status": "Unknown", "is_operational": true, "is_public": true, "sockets": 1, "speed_tier": "Fast (7-22kW)", "name": "Bank Street, Newport"}, "geometry": {"type": "Point", "coordinates": [-2.982319, 51.601792]}}, {"type": "Feature", "properties": {"ocm_id": 134898, "address": "Malpas Road", "town": "Newport", "postcode": "NP20 6NF", "num_points": 2.0, "usage_cost": "£0.79/kWh; other tariffs available", "status_type_id": 50.0, "operator_id": 32, "data_provider_id": 1, "operator": "MFG EV Power / ESB Energy", "status": "Operational", "is_operational": true, "is_public": true, "sockets": 2, "speed_tier": "Rapid (high £/kWh)", "name": "BP SF Maplas"}, "geometry": {"type": "Point", "coordinates": [-3.00749061885688, 51.616233928789]}}, {"type": "Feature", "properties": {"ocm_id": 187620, "address": "Kewstoke", "town": "Weston-super-Mare", "postcode": "BS22 9UH", "num_points": null, "usage_cost": null, "status_type_id": null, "operator_id": 150, "data_provider_id": 18, "operator": "Osprey", "status": "Unknown", "is_operational": true, "is_public": true, "sockets": 1, "speed_tier": "Rapid (50-150kW)", "name": "Sand Road Car Park"}, "geometry": {"type": "Point", "coordinates": [-2.960743, 51.376646]}}, {"type": "Feature", "properties": {"ocm_id": 210245, "address": "Spytty Road", "town": "Newport", "postcode": "NP19 4TX", "num_points": 4.0, "usage_cost": "£0.44/kWh", "status_type_id": 50.0, "operator_id": 3, "data_provider_id": 1, "operator": "Pod Point", "status": "Operational", "is_operational": true, "is_public": true, "sockets": 4, "speed_tier": "Fast", "name": "Tesco Extra-Newport Spytty"}, "geometry": {"type": "Point", "coordinates": [-2.94751755, 51.57658057]}}, {"type": "Feature", "properties": {"ocm_id": 286178, "address": "Llanharan Railway Station Park and Ride", "town": "Cardiff", "postcode": "CF72 9QA", "num_points": null, "usage_cost": null, "status_type_id": 0.0, "operator_id": 3509, "data_provider_id": 18, "operator": "ubitricity", "status": "Unknown", "is_operational": true, "is_public": true, "sockets": 1, "speed_tier": "Slow (5-7kW)", "name": "Llanharan Railway Station Park and Ride"}, "geometry": {"type": "Point", "coordinates": [-3.441346, 51.537814]}}, {"type": "Feature", "properties": {"ocm_id": 102157, "address": "Seven Styles Avenue", "town": "Newport", "postcode": "NP19 4QR", "num_points": 2.0, "usage_cost": "Free", "status_type_id": 0.0, "operator_id": 3, "data_provider_id": 1, "operator": "Pod Point", "status": "Unknown", "is_operational": true, "is_public": true, "sockets": 2, "speed_tier": "Workplace/Free", "name": "Wessex Newport-Hyundai"}, "geometry": {"type": "Point", "coordinates": [-2.944849, 51.575345]}}, {"type": "Feature", "properties": {"ocm_id": 286649, "address": "Barry Sidings Park, Pontypridd, Rhondda Cynon", "town": "Cardiff", "postcode": "CF37 2PE", "num_points": null, "usage_cost": null, "status_type_id": 0.0, "operator_id": 3509, "data_provider_id": 18, "operator": "ubitricity", "status": "Unknown", "is_operational": true, "is_public": true, "sockets": 1, "speed_tier": "Slow (5-7kW)", "name": "Barry Sidings Park, Pontypridd"}, "geometry": {"type": "Point", "coordinates": [-3.368706, 51.608694]}}, {"type": "Feature", "properties": {"ocm_id": 214493, "address": "Newport East Community Centre", "town": "Newport", "postcode": "NP19 4NA", "num_points": null, "usage_cost": null, "status_type_id": null, "operator_id": 3509, "data_provider_id": 18, "operator": "ubitricity", "status": "Unknown", "is_operational": true, "is_public": true, "sockets": 1, "speed_tier": "Slow (5-7kW)", "name": "Newport East Community Centre"}, "geometry": {"type": "Point", "coordinates": [-2.949073, 51.582171]}}, {"type": "Feature", "properties": {"ocm_id": 214499, "address": "Hatherleigh Community Centre, Newport", "town": "Newport", "postcode": "NP19 8BB", "num_points": null, "usage_cost": null, "status_type_id": null, "operator_id": 3509, "data_provider_id": 18, "operator": "ubitricity", "status": "Unknown", "is_operational": true, "is_public": true, "sockets": 1, "speed_tier": "Slow (5-7kW)", "name": "Hatherleigh Community Centre, Newport"}, "geometry": {"type": "Point", "coordinates": [-2.956975, 51.591625]}}, {"type": "Feature", "properties": {"ocm_id": 213893, "address": "Knightstone Rd", "town": "Weston-Super-Mare", "postcode": "BS23 2AW", "num_points": null, "usage_cost": null, "status_type_id": null, "operator_id": 150, "data_provider_id": 18, "operator": "Osprey", "status": "Unknown", "is_operational": true, "is_public": true, "sockets": 1, "speed_tier": "Rapid (50-150kW)", "name": "Revive_NSC"}, "geometry": {"type": "Point", "coordinates": [-2.984188, 51.352531]}}, {"type": "Feature", "properties": {"ocm_id": 214502, "address": "Beaufort Centre Car Park", "town": "Newport", "postcode": "NP19 7UB", "num_points": null, "usage_cost": null, "status_type_id": null, "operator_id": 3509, "data_provider_id": 18, "operator": "ubitricity", "status": "Unknown", "is_operational": true, "is_public": true, "sockets": 1, "speed_tier": "Slow (5-7kW)", "name": "Beaufort Centre Car Park"}, "geometry": {"type": "Point", "coordinates": [-2.96313, 51.599185]}}, {"type": "Feature", "properties": {"ocm_id": 214496, "address": "Alway Community Centre. Aberthaw Rise", "town": "Newport", "postcode": "NP19 9NT", "num_points": null, "usage_cost": null, "status_type_id": null, "operator_id": 3509, "data_provider_id": 18, "operator": "ubitricity", "status": "Unknown", "is_operational": true, "is_public": true, "sockets": 1, "speed_tier": "Slow (5-7kW)", "name": "mAlway Community Centre. Aberthaw Rise, Newport"}, "geometry": {"type": "Point", "coordinates": [-2.945515, 51.586385]}}]}